<?xml version="1.0" encoding="UTF-8" standalone="yes"?>
<gpx xmlns="http://www.topografix.com/GPX/1/1" xmlns:tt="TT" version="1.1" creator="TomTom MyDrive">
    <wpt lat="42.701307" lon="9.453594">
        <type>TT_HARD</type>
    </wpt>
    <wpt lat="42.708594" lon="9.438932">
        <type>TT_HARD</type>
    </wpt>
    <rte>
        <name>24 - arrivo Bastia Port - Résidence Amaryllis</name>
        <rtept lat="42.701307" lon="9.453594">
            <type>TT_HARD</type>
        </rtept>
        <rtept lat="42.708594" lon="9.438932">
            <type>TT_HARD</type>
        </rtept>
    </rte>
    <trk>
        <name>24 - arrivo Bastia Port - Résidence Amaryllis</name>
        <trkseg>
            <trkpt lat="42.70131" lon="9.45359"/>
            <trkpt lat="42.70111" lon="9.45313"/>
            <trkpt lat="42.7011" lon="9.45307"/>
            <trkpt lat="42.70111" lon="9.45303"/>
            <trkpt lat="42.70112" lon="9.45299"/>
            <trkpt lat="42.70116" lon="9.45296"/>
            <trkpt lat="42.7013" lon="9.45292"/>
            <trkpt lat="42.70139" lon="9.45295"/>
            <trkpt lat="42.70211" lon="9.45333"/>
            <trkpt lat="42.70294" lon="9.45366"/>
            <trkpt lat="42.70325" lon="9.45381"/>
            <trkpt lat="42.70352" lon="9.45397"/>
            <trkpt lat="42.7037" lon="9.45406"/>
            <trkpt lat="42.70417" lon="9.4544"/>
            <trkpt lat="42.70423" lon="9.45445"/>
            <trkpt lat="42.70471" lon="9.45477"/>
            <trkpt lat="42.70485" lon="9.45485"/>
            <trkpt lat="42.70532" lon="9.455"/>
            <trkpt lat="42.70564" lon="9.45503"/>
            <trkpt lat="42.70593" lon="9.45503"/>
            <trkpt lat="42.70629" lon="9.455"/>
            <trkpt lat="42.70634" lon="9.45499"/>
            <trkpt lat="42.70641" lon="9.45496"/>
            <trkpt lat="42.70645" lon="9.45493"/>
            <trkpt lat="42.70648" lon="9.45489"/>
            <trkpt lat="42.70651" lon="9.45479"/>
            <trkpt lat="42.70655" lon="9.45467"/>
            <trkpt lat="42.70659" lon="9.45452"/>
            <trkpt lat="42.70661" lon="9.45446"/>
            <trkpt lat="42.70664" lon="9.45431"/>
            <trkpt lat="42.70667" lon="9.45404"/>
            <trkpt lat="42.70669" lon="9.45394"/>
            <trkpt lat="42.70669" lon="9.45381"/>
            <trkpt lat="42.70669" lon="9.45376"/>
            <trkpt lat="42.70668" lon="9.45361"/>
            <trkpt lat="42.70668" lon="9.45354"/>
            <trkpt lat="42.7067" lon="9.45331"/>
            <trkpt lat="42.70676" lon="9.4533"/>
            <trkpt lat="42.7068" lon="9.45328"/>
            <trkpt lat="42.70684" lon="9.45324"/>
            <trkpt lat="42.70686" lon="9.45321"/>
            <trkpt lat="42.70686" lon="9.45317"/>
            <trkpt lat="42.70687" lon="9.45314"/>
            <trkpt lat="42.70687" lon="9.4531"/>
            <trkpt lat="42.70686" lon="9.45304"/>
            <trkpt lat="42.70684" lon="9.45301"/>
            <trkpt lat="42.70683" lon="9.45298"/>
            <trkpt lat="42.7068" lon="9.45296"/>
            <trkpt lat="42.70678" lon="9.45295"/>
            <trkpt lat="42.70689" lon="9.4528"/>
            <trkpt lat="42.70661" lon="9.45261"/>
            <trkpt lat="42.70652" lon="9.45256"/>
            <trkpt lat="42.70593" lon="9.45226"/>
            <trkpt lat="42.70569" lon="9.45217"/>
            <trkpt lat="42.70533" lon="9.45208"/>
            <trkpt lat="42.70525" lon="9.45205"/>
            <trkpt lat="42.70521" lon="9.45202"/>
            <trkpt lat="42.705" lon="9.45182"/>
            <trkpt lat="42.70496" lon="9.45179"/>
            <trkpt lat="42.70484" lon="9.45165"/>
            <trkpt lat="42.70465" lon="9.4516"/>
            <trkpt lat="42.70472" lon="9.45121"/>
            <trkpt lat="42.70472" lon="9.45115"/>
            <trkpt lat="42.70472" lon="9.45111"/>
            <trkpt lat="42.70471" lon="9.45108"/>
            <trkpt lat="42.7047" lon="9.45105"/>
            <trkpt lat="42.70467" lon="9.45099"/>
            <trkpt lat="42.70465" lon="9.45097"/>
            <trkpt lat="42.70449" lon="9.45087"/>
            <trkpt lat="42.70447" lon="9.45085"/>
            <trkpt lat="42.70444" lon="9.4508"/>
            <trkpt lat="42.70441" lon="9.45075"/>
            <trkpt lat="42.70438" lon="9.45068"/>
            <trkpt lat="42.70436" lon="9.45058"/>
            <trkpt lat="42.70436" lon="9.45052"/>
            <trkpt lat="42.70436" lon="9.45047"/>
            <trkpt lat="42.70447" lon="9.4498"/>
            <trkpt lat="42.70446" lon="9.44971"/>
            <trkpt lat="42.70444" lon="9.44935"/>
            <trkpt lat="42.70446" lon="9.44922"/>
            <trkpt lat="42.70449" lon="9.44911"/>
            <trkpt lat="42.70453" lon="9.44901"/>
            <trkpt lat="42.7046" lon="9.44894"/>
            <trkpt lat="42.70466" lon="9.44889"/>
            <trkpt lat="42.70482" lon="9.44885"/>
            <trkpt lat="42.70489" lon="9.44886"/>
            <trkpt lat="42.70505" lon="9.44892"/>
            <trkpt lat="42.70528" lon="9.44899"/>
            <trkpt lat="42.70544" lon="9.449"/>
            <trkpt lat="42.70561" lon="9.44896"/>
            <trkpt lat="42.70572" lon="9.44895"/>
            <trkpt lat="42.7058" lon="9.44894"/>
            <trkpt lat="42.7059" lon="9.44889"/>
            <trkpt lat="42.70595" lon="9.44883"/>
            <trkpt lat="42.706" lon="9.44876"/>
            <trkpt lat="42.70613" lon="9.44861"/>
            <trkpt lat="42.70615" lon="9.4486"/>
            <trkpt lat="42.70619" lon="9.44857"/>
            <trkpt lat="42.70635" lon="9.44842"/>
            <trkpt lat="42.70638" lon="9.44839"/>
            <trkpt lat="42.7064" lon="9.44836"/>
            <trkpt lat="42.70644" lon="9.4483"/>
            <trkpt lat="42.70645" lon="9.44826"/>
            <trkpt lat="42.70646" lon="9.44824"/>
            <trkpt lat="42.70648" lon="9.44817"/>
            <trkpt lat="42.70652" lon="9.44796"/>
            <trkpt lat="42.70653" lon="9.4477"/>
            <trkpt lat="42.70652" lon="9.44758"/>
            <trkpt lat="42.70644" lon="9.44692"/>
            <trkpt lat="42.70644" lon="9.44687"/>
            <trkpt lat="42.70645" lon="9.44681"/>
            <trkpt lat="42.70648" lon="9.44672"/>
            <trkpt lat="42.70656" lon="9.44656"/>
            <trkpt lat="42.70659" lon="9.44649"/>
            <trkpt lat="42.70665" lon="9.44625"/>
            <trkpt lat="42.70671" lon="9.44608"/>
            <trkpt lat="42.7068" lon="9.44589"/>
            <trkpt lat="42.70719" lon="9.44518"/>
            <trkpt lat="42.70723" lon="9.44506"/>
            <trkpt lat="42.70731" lon="9.4447"/>
            <trkpt lat="42.70737" lon="9.44454"/>
            <trkpt lat="42.70741" lon="9.44446"/>
            <trkpt lat="42.70749" lon="9.44435"/>
            <trkpt lat="42.70763" lon="9.44408"/>
            <trkpt lat="42.70768" lon="9.44402"/>
            <trkpt lat="42.70797" lon="9.4433"/>
            <trkpt lat="42.70803" lon="9.44311"/>
            <trkpt lat="42.70809" lon="9.44294"/>
            <trkpt lat="42.70819" lon="9.44271"/>
            <trkpt lat="42.70826" lon="9.44262"/>
            <trkpt lat="42.70838" lon="9.44234"/>
            <trkpt lat="42.70848" lon="9.44215"/>
            <trkpt lat="42.70852" lon="9.44205"/>
            <trkpt lat="42.70854" lon="9.44197"/>
            <trkpt lat="42.70855" lon="9.44185"/>
            <trkpt lat="42.70855" lon="9.44176"/>
            <trkpt lat="42.70854" lon="9.44167"/>
            <trkpt lat="42.70844" lon="9.44131"/>
            <trkpt lat="42.70841" lon="9.44116"/>
            <trkpt lat="42.70841" lon="9.44108"/>
            <trkpt lat="42.70844" lon="9.44099"/>
            <trkpt lat="42.70846" lon="9.44092"/>
            <trkpt lat="42.70848" lon="9.4409"/>
            <trkpt lat="42.70852" lon="9.44088"/>
            <trkpt lat="42.70856" lon="9.44088"/>
            <trkpt lat="42.70859" lon="9.44088"/>
            <trkpt lat="42.70861" lon="9.44092"/>
            <trkpt lat="42.70863" lon="9.44098"/>
            <trkpt lat="42.70865" lon="9.44107"/>
            <trkpt lat="42.70868" lon="9.44115"/>
            <trkpt lat="42.70872" lon="9.44123"/>
            <trkpt lat="42.70878" lon="9.44128"/>
            <trkpt lat="42.70883" lon="9.44129"/>
            <trkpt lat="42.70889" lon="9.44127"/>
            <trkpt lat="42.70893" lon="9.44126"/>
            <trkpt lat="42.70895" lon="9.44124"/>
            <trkpt lat="42.709" lon="9.44116"/>
            <trkpt lat="42.70902" lon="9.44106"/>
            <trkpt lat="42.70906" lon="9.44087"/>
            <trkpt lat="42.70907" lon="9.4402"/>
            <trkpt lat="42.70909" lon="9.44001"/>
            <trkpt lat="42.70909" lon="9.43994"/>
            <trkpt lat="42.70907" lon="9.43955"/>
            <trkpt lat="42.709" lon="9.43951"/>
            <trkpt lat="42.70897" lon="9.43946"/>
            <trkpt lat="42.70891" lon="9.43919"/>
            <trkpt lat="42.70886" lon="9.4391"/>
            <trkpt lat="42.70879" lon="9.43904"/>
            <trkpt lat="42.7086" lon="9.43893"/>
        </trkseg>
    </trk>
</gpx>
