<?xml version="1.0" encoding="UTF-8" standalone="yes"?>
<gpx xmlns="http://www.topografix.com/GPX/1/1" xmlns:tt="TT" version="1.1" creator="TomTom MyDrive">
    <wpt lat="42.708594" lon="9.438932">
        <type>TT_HARD</type>
    </wpt>
    <wpt lat="42.752777" lon="9.465161">
        <type>TT_HARD</type>
    </wpt>
    <wpt lat="42.773713" lon="9.47461">
        <type>TT_HARD</type>
    </wpt>
    <wpt lat="42.83604" lon="9.481674">
        <type>TT_HARD</type>
    </wpt>
    <wpt lat="42.871578" lon="9.477777">
        <type>TT_HARD</type>
    </wpt>
    <wpt lat="42.955756" lon="9.452934">
        <type>TT_HARD</type>
    </wpt>
    <rte>
        <name>25 - Dito Est</name>
        <rtept lat="42.708594" lon="9.438932">
            <type>TT_HARD</type>
        </rtept>
        <rtept lat="42.752777" lon="9.465161">
            <type>TT_HARD</type>
        </rtept>
        <rtept lat="42.773713" lon="9.47461">
            <type>TT_HARD</type>
        </rtept>
        <rtept lat="42.83604" lon="9.481674">
            <type>TT_HARD</type>
        </rtept>
        <rtept lat="42.871578" lon="9.477777">
            <type>TT_HARD</type>
        </rtept>
        <rtept lat="42.955756" lon="9.452934">
            <type>TT_HARD</type>
        </rtept>
    </rte>
    <trk>
        <name>25 - Dito Est</name>
        <trkseg>
            <trkpt lat="42.7086" lon="9.43893"/>
            <trkpt lat="42.70879" lon="9.43904"/>
            <trkpt lat="42.70886" lon="9.4391"/>
            <trkpt lat="42.70891" lon="9.43919"/>
            <trkpt lat="42.70897" lon="9.43946"/>
            <trkpt lat="42.709" lon="9.43951"/>
            <trkpt lat="42.70907" lon="9.43955"/>
            <trkpt lat="42.70909" lon="9.43994"/>
            <trkpt lat="42.70909" lon="9.44001"/>
            <trkpt lat="42.70907" lon="9.4402"/>
            <trkpt lat="42.70906" lon="9.44087"/>
            <trkpt lat="42.70902" lon="9.44106"/>
            <trkpt lat="42.709" lon="9.44116"/>
            <trkpt lat="42.70895" lon="9.44124"/>
            <trkpt lat="42.70893" lon="9.44126"/>
            <trkpt lat="42.70889" lon="9.44127"/>
            <trkpt lat="42.70883" lon="9.44129"/>
            <trkpt lat="42.70878" lon="9.44128"/>
            <trkpt lat="42.70872" lon="9.44123"/>
            <trkpt lat="42.70868" lon="9.44115"/>
            <trkpt lat="42.70865" lon="9.44107"/>
            <trkpt lat="42.70863" lon="9.44098"/>
            <trkpt lat="42.70861" lon="9.44092"/>
            <trkpt lat="42.70859" lon="9.44088"/>
            <trkpt lat="42.70856" lon="9.44088"/>
            <trkpt lat="42.70852" lon="9.44088"/>
            <trkpt lat="42.70848" lon="9.4409"/>
            <trkpt lat="42.70846" lon="9.44092"/>
            <trkpt lat="42.70844" lon="9.44099"/>
            <trkpt lat="42.70841" lon="9.44108"/>
            <trkpt lat="42.70841" lon="9.44116"/>
            <trkpt lat="42.70844" lon="9.44131"/>
            <trkpt lat="42.70854" lon="9.44167"/>
            <trkpt lat="42.70855" lon="9.44176"/>
            <trkpt lat="42.70855" lon="9.44185"/>
            <trkpt lat="42.70854" lon="9.44197"/>
            <trkpt lat="42.70852" lon="9.44205"/>
            <trkpt lat="42.70848" lon="9.44215"/>
            <trkpt lat="42.70838" lon="9.44234"/>
            <trkpt lat="42.70826" lon="9.44262"/>
            <trkpt lat="42.70819" lon="9.44271"/>
            <trkpt lat="42.70809" lon="9.44294"/>
            <trkpt lat="42.70803" lon="9.44311"/>
            <trkpt lat="42.708" lon="9.44263"/>
            <trkpt lat="42.708" lon="9.44219"/>
            <trkpt lat="42.70799" lon="9.44205"/>
            <trkpt lat="42.70793" lon="9.44179"/>
            <trkpt lat="42.7079" lon="9.44173"/>
            <trkpt lat="42.70788" lon="9.44171"/>
            <trkpt lat="42.70785" lon="9.44171"/>
            <trkpt lat="42.70789" lon="9.44178"/>
            <trkpt lat="42.70791" lon="9.44188"/>
            <trkpt lat="42.70793" lon="9.442"/>
            <trkpt lat="42.70793" lon="9.44216"/>
            <trkpt lat="42.7079" lon="9.44231"/>
            <trkpt lat="42.70785" lon="9.44254"/>
            <trkpt lat="42.70777" lon="9.44282"/>
            <trkpt lat="42.70768" lon="9.44309"/>
            <trkpt lat="42.7076" lon="9.44334"/>
            <trkpt lat="42.70746" lon="9.44376"/>
            <trkpt lat="42.70722" lon="9.44446"/>
            <trkpt lat="42.7071" lon="9.44484"/>
            <trkpt lat="42.70695" lon="9.44523"/>
            <trkpt lat="42.70685" lon="9.44543"/>
            <trkpt lat="42.7066" lon="9.44585"/>
            <trkpt lat="42.70653" lon="9.44599"/>
            <trkpt lat="42.70639" lon="9.44637"/>
            <trkpt lat="42.70631" lon="9.44681"/>
            <trkpt lat="42.70631" lon="9.44697"/>
            <trkpt lat="42.70634" lon="9.44727"/>
            <trkpt lat="42.70636" lon="9.44738"/>
            <trkpt lat="42.70641" lon="9.44754"/>
            <trkpt lat="42.70642" lon="9.44774"/>
            <trkpt lat="42.70639" lon="9.44795"/>
            <trkpt lat="42.70635" lon="9.44808"/>
            <trkpt lat="42.7062" lon="9.44824"/>
            <trkpt lat="42.70604" lon="9.44841"/>
            <trkpt lat="42.706" lon="9.44846"/>
            <trkpt lat="42.70588" lon="9.44868"/>
            <trkpt lat="42.70572" lon="9.44887"/>
            <trkpt lat="42.70567" lon="9.44892"/>
            <trkpt lat="42.70561" lon="9.44896"/>
            <trkpt lat="42.70544" lon="9.449"/>
            <trkpt lat="42.70528" lon="9.44899"/>
            <trkpt lat="42.70505" lon="9.44892"/>
            <trkpt lat="42.70489" lon="9.44886"/>
            <trkpt lat="42.70482" lon="9.44885"/>
            <trkpt lat="42.70466" lon="9.44889"/>
            <trkpt lat="42.7046" lon="9.44894"/>
            <trkpt lat="42.70453" lon="9.44901"/>
            <trkpt lat="42.70449" lon="9.44911"/>
            <trkpt lat="42.70446" lon="9.44922"/>
            <trkpt lat="42.70444" lon="9.44935"/>
            <trkpt lat="42.70446" lon="9.44971"/>
            <trkpt lat="42.70447" lon="9.4498"/>
            <trkpt lat="42.70436" lon="9.45047"/>
            <trkpt lat="42.70436" lon="9.45052"/>
            <trkpt lat="42.70436" lon="9.45058"/>
            <trkpt lat="42.70438" lon="9.45068"/>
            <trkpt lat="42.70441" lon="9.45075"/>
            <trkpt lat="42.70444" lon="9.4508"/>
            <trkpt lat="42.70431" lon="9.45148"/>
            <trkpt lat="42.70425" lon="9.45146"/>
            <trkpt lat="42.70378" lon="9.45132"/>
            <trkpt lat="42.70363" lon="9.45127"/>
            <trkpt lat="42.70354" lon="9.45188"/>
            <trkpt lat="42.703" lon="9.45166"/>
            <trkpt lat="42.7028" lon="9.45161"/>
            <trkpt lat="42.70261" lon="9.45146"/>
            <trkpt lat="42.70248" lon="9.45135"/>
            <trkpt lat="42.70247" lon="9.45134"/>
            <trkpt lat="42.70234" lon="9.45126"/>
            <trkpt lat="42.70233" lon="9.45121"/>
            <trkpt lat="42.70232" lon="9.45118"/>
            <trkpt lat="42.7023" lon="9.45115"/>
            <trkpt lat="42.70227" lon="9.45113"/>
            <trkpt lat="42.70226" lon="9.45112"/>
            <trkpt lat="42.70223" lon="9.45112"/>
            <trkpt lat="42.70221" lon="9.45113"/>
            <trkpt lat="42.70219" lon="9.45113"/>
            <trkpt lat="42.70217" lon="9.45114"/>
            <trkpt lat="42.70216" lon="9.45116"/>
            <trkpt lat="42.70214" lon="9.45118"/>
            <trkpt lat="42.70212" lon="9.45121"/>
            <trkpt lat="42.70211" lon="9.45124"/>
            <trkpt lat="42.70211" lon="9.45127"/>
            <trkpt lat="42.70211" lon="9.45131"/>
            <trkpt lat="42.70212" lon="9.45133"/>
            <trkpt lat="42.70214" lon="9.45139"/>
            <trkpt lat="42.70211" lon="9.45144"/>
            <trkpt lat="42.70195" lon="9.45228"/>
            <trkpt lat="42.70194" lon="9.45234"/>
            <trkpt lat="42.70191" lon="9.45233"/>
            <trkpt lat="42.70188" lon="9.45234"/>
            <trkpt lat="42.70185" lon="9.45236"/>
            <trkpt lat="42.70182" lon="9.45239"/>
            <trkpt lat="42.7018" lon="9.45242"/>
            <trkpt lat="42.70179" lon="9.45246"/>
            <trkpt lat="42.70179" lon="9.45249"/>
            <trkpt lat="42.70179" lon="9.45253"/>
            <trkpt lat="42.70179" lon="9.45256"/>
            <trkpt lat="42.7018" lon="9.45258"/>
            <trkpt lat="42.70182" lon="9.4526"/>
            <trkpt lat="42.70185" lon="9.45262"/>
            <trkpt lat="42.70193" lon="9.45265"/>
            <trkpt lat="42.70202" lon="9.45271"/>
            <trkpt lat="42.70205" lon="9.45272"/>
            <trkpt lat="42.7028" lon="9.45306"/>
            <trkpt lat="42.70337" lon="9.45338"/>
            <trkpt lat="42.70338" lon="9.45338"/>
            <trkpt lat="42.70344" lon="9.45339"/>
            <trkpt lat="42.70349" lon="9.45341"/>
            <trkpt lat="42.70355" lon="9.45345"/>
            <trkpt lat="42.70362" lon="9.4535"/>
            <trkpt lat="42.70397" lon="9.45373"/>
            <trkpt lat="42.70458" lon="9.45412"/>
            <trkpt lat="42.70467" lon="9.45416"/>
            <trkpt lat="42.7047" lon="9.45417"/>
            <trkpt lat="42.70477" lon="9.45418"/>
            <trkpt lat="42.70486" lon="9.45416"/>
            <trkpt lat="42.7049" lon="9.45414"/>
            <trkpt lat="42.70495" lon="9.45411"/>
            <trkpt lat="42.70498" lon="9.45409"/>
            <trkpt lat="42.70504" lon="9.45402"/>
            <trkpt lat="42.70508" lon="9.45397"/>
            <trkpt lat="42.70516" lon="9.45383"/>
            <trkpt lat="42.70525" lon="9.45371"/>
            <trkpt lat="42.70533" lon="9.45362"/>
            <trkpt lat="42.70536" lon="9.45358"/>
            <trkpt lat="42.70546" lon="9.4535"/>
            <trkpt lat="42.70569" lon="9.45334"/>
            <trkpt lat="42.70598" lon="9.45319"/>
            <trkpt lat="42.70606" lon="9.45317"/>
            <trkpt lat="42.70622" lon="9.45313"/>
            <trkpt lat="42.70625" lon="9.45312"/>
            <trkpt lat="42.70644" lon="9.45311"/>
            <trkpt lat="42.70687" lon="9.45314"/>
            <trkpt lat="42.70693" lon="9.45315"/>
            <trkpt lat="42.70697" lon="9.45316"/>
            <trkpt lat="42.70723" lon="9.45326"/>
            <trkpt lat="42.70747" lon="9.45334"/>
            <trkpt lat="42.7077" lon="9.45343"/>
            <trkpt lat="42.70796" lon="9.45356"/>
            <trkpt lat="42.70801" lon="9.45359"/>
            <trkpt lat="42.70836" lon="9.45388"/>
            <trkpt lat="42.70835" lon="9.4539"/>
            <trkpt lat="42.70836" lon="9.45393"/>
            <trkpt lat="42.70836" lon="9.45396"/>
            <trkpt lat="42.70838" lon="9.454"/>
            <trkpt lat="42.70839" lon="9.45402"/>
            <trkpt lat="42.7084" lon="9.45403"/>
            <trkpt lat="42.70844" lon="9.45406"/>
            <trkpt lat="42.70846" lon="9.45407"/>
            <trkpt lat="42.70848" lon="9.45408"/>
            <trkpt lat="42.7085" lon="9.45408"/>
            <trkpt lat="42.70853" lon="9.45407"/>
            <trkpt lat="42.70856" lon="9.45405"/>
            <trkpt lat="42.7086" lon="9.454"/>
            <trkpt lat="42.70867" lon="9.45401"/>
            <trkpt lat="42.7088" lon="9.45407"/>
            <trkpt lat="42.70892" lon="9.45413"/>
            <trkpt lat="42.70906" lon="9.45421"/>
            <trkpt lat="42.70913" lon="9.45422"/>
            <trkpt lat="42.70943" lon="9.45443"/>
            <trkpt lat="42.70947" lon="9.45445"/>
            <trkpt lat="42.70952" lon="9.45448"/>
            <trkpt lat="42.70958" lon="9.45452"/>
            <trkpt lat="42.70996" lon="9.45473"/>
            <trkpt lat="42.71026" lon="9.45485"/>
            <trkpt lat="42.7105" lon="9.45488"/>
            <trkpt lat="42.71063" lon="9.45488"/>
            <trkpt lat="42.71072" lon="9.45487"/>
            <trkpt lat="42.71099" lon="9.45481"/>
            <trkpt lat="42.71115" lon="9.45475"/>
            <trkpt lat="42.71152" lon="9.45458"/>
            <trkpt lat="42.7116" lon="9.45453"/>
            <trkpt lat="42.71163" lon="9.45451"/>
            <trkpt lat="42.71168" lon="9.45445"/>
            <trkpt lat="42.71177" lon="9.45438"/>
            <trkpt lat="42.71181" lon="9.45431"/>
            <trkpt lat="42.71188" lon="9.4542"/>
            <trkpt lat="42.71194" lon="9.45405"/>
            <trkpt lat="42.71201" lon="9.45387"/>
            <trkpt lat="42.71204" lon="9.45383"/>
            <trkpt lat="42.71206" lon="9.45381"/>
            <trkpt lat="42.71211" lon="9.45377"/>
            <trkpt lat="42.71217" lon="9.45374"/>
            <trkpt lat="42.71223" lon="9.45375"/>
            <trkpt lat="42.71227" lon="9.45377"/>
            <trkpt lat="42.7123" lon="9.45379"/>
            <trkpt lat="42.71236" lon="9.45385"/>
            <trkpt lat="42.71263" lon="9.45416"/>
            <trkpt lat="42.71282" lon="9.45433"/>
            <trkpt lat="42.71294" lon="9.45439"/>
            <trkpt lat="42.71298" lon="9.45445"/>
            <trkpt lat="42.71304" lon="9.45445"/>
            <trkpt lat="42.71309" lon="9.45446"/>
            <trkpt lat="42.71325" lon="9.45445"/>
            <trkpt lat="42.71342" lon="9.45441"/>
            <trkpt lat="42.71363" lon="9.45434"/>
            <trkpt lat="42.71381" lon="9.45432"/>
            <trkpt lat="42.71386" lon="9.45429"/>
            <trkpt lat="42.71404" lon="9.45434"/>
            <trkpt lat="42.7141" lon="9.45436"/>
            <trkpt lat="42.7143" lon="9.4545"/>
            <trkpt lat="42.71443" lon="9.45461"/>
            <trkpt lat="42.71452" lon="9.4547"/>
            <trkpt lat="42.71471" lon="9.45488"/>
            <trkpt lat="42.71484" lon="9.455"/>
            <trkpt lat="42.71484" lon="9.455"/>
            <trkpt lat="42.71502" lon="9.45516"/>
            <trkpt lat="42.71513" lon="9.45529"/>
            <trkpt lat="42.71524" lon="9.45538"/>
            <trkpt lat="42.7153" lon="9.45543"/>
            <trkpt lat="42.71543" lon="9.45551"/>
            <trkpt lat="42.71547" lon="9.45552"/>
            <trkpt lat="42.71577" lon="9.45562"/>
            <trkpt lat="42.71595" lon="9.45568"/>
            <trkpt lat="42.7161" lon="9.45568"/>
            <trkpt lat="42.71624" lon="9.45564"/>
            <trkpt lat="42.71655" lon="9.45547"/>
            <trkpt lat="42.71656" lon="9.45546"/>
            <trkpt lat="42.71661" lon="9.45542"/>
            <trkpt lat="42.71671" lon="9.45536"/>
            <trkpt lat="42.71682" lon="9.45531"/>
            <trkpt lat="42.71693" lon="9.4553"/>
            <trkpt lat="42.71741" lon="9.45534"/>
            <trkpt lat="42.71763" lon="9.45533"/>
            <trkpt lat="42.71769" lon="9.45531"/>
            <trkpt lat="42.71774" lon="9.45528"/>
            <trkpt lat="42.71782" lon="9.45526"/>
            <trkpt lat="42.71787" lon="9.45518"/>
            <trkpt lat="42.71798" lon="9.45493"/>
            <trkpt lat="42.71806" lon="9.45473"/>
            <trkpt lat="42.71813" lon="9.4546"/>
            <trkpt lat="42.71818" lon="9.45454"/>
            <trkpt lat="42.71823" lon="9.45451"/>
            <trkpt lat="42.71829" lon="9.45449"/>
            <trkpt lat="42.71835" lon="9.45449"/>
            <trkpt lat="42.71846" lon="9.45451"/>
            <trkpt lat="42.71853" lon="9.45449"/>
            <trkpt lat="42.7187" lon="9.45461"/>
            <trkpt lat="42.71876" lon="9.45466"/>
            <trkpt lat="42.71883" lon="9.45474"/>
            <trkpt lat="42.71901" lon="9.45495"/>
            <trkpt lat="42.71907" lon="9.45497"/>
            <trkpt lat="42.71912" lon="9.45498"/>
            <trkpt lat="42.71914" lon="9.45498"/>
            <trkpt lat="42.71925" lon="9.45497"/>
            <trkpt lat="42.71948" lon="9.45482"/>
            <trkpt lat="42.72011" lon="9.45438"/>
            <trkpt lat="42.72036" lon="9.45422"/>
            <trkpt lat="42.72051" lon="9.45414"/>
            <trkpt lat="42.7206" lon="9.45411"/>
            <trkpt lat="42.72067" lon="9.45411"/>
            <trkpt lat="42.7208" lon="9.45412"/>
            <trkpt lat="42.72088" lon="9.45414"/>
            <trkpt lat="42.72093" lon="9.45416"/>
            <trkpt lat="42.7211" lon="9.45427"/>
            <trkpt lat="42.72118" lon="9.45435"/>
            <trkpt lat="42.72134" lon="9.45457"/>
            <trkpt lat="42.72154" lon="9.45478"/>
            <trkpt lat="42.72175" lon="9.45501"/>
            <trkpt lat="42.72192" lon="9.45522"/>
            <trkpt lat="42.72203" lon="9.45536"/>
            <trkpt lat="42.72215" lon="9.4555"/>
            <trkpt lat="42.72243" lon="9.45583"/>
            <trkpt lat="42.72294" lon="9.45645"/>
            <trkpt lat="42.72345" lon="9.45701"/>
            <trkpt lat="42.72353" lon="9.45707"/>
            <trkpt lat="42.7237" lon="9.45719"/>
            <trkpt lat="42.72388" lon="9.45735"/>
            <trkpt lat="42.72441" lon="9.45774"/>
            <trkpt lat="42.72455" lon="9.45783"/>
            <trkpt lat="42.72471" lon="9.45791"/>
            <trkpt lat="42.72494" lon="9.45795"/>
            <trkpt lat="42.72523" lon="9.45794"/>
            <trkpt lat="42.7254" lon="9.45791"/>
            <trkpt lat="42.72568" lon="9.45783"/>
            <trkpt lat="42.72604" lon="9.45777"/>
            <trkpt lat="42.72623" lon="9.45777"/>
            <trkpt lat="42.7263" lon="9.45781"/>
            <trkpt lat="42.72644" lon="9.45794"/>
            <trkpt lat="42.72654" lon="9.45805"/>
            <trkpt lat="42.72682" lon="9.45844"/>
            <trkpt lat="42.72703" lon="9.4587"/>
            <trkpt lat="42.7271" lon="9.45875"/>
            <trkpt lat="42.72723" lon="9.45879"/>
            <trkpt lat="42.72738" lon="9.45885"/>
            <trkpt lat="42.72789" lon="9.45894"/>
            <trkpt lat="42.72811" lon="9.45901"/>
            <trkpt lat="42.72827" lon="9.45909"/>
            <trkpt lat="42.72834" lon="9.45912"/>
            <trkpt lat="42.72857" lon="9.45925"/>
            <trkpt lat="42.72862" lon="9.45927"/>
            <trkpt lat="42.72882" lon="9.45941"/>
            <trkpt lat="42.72894" lon="9.45952"/>
            <trkpt lat="42.72915" lon="9.45971"/>
            <trkpt lat="42.72927" lon="9.45978"/>
            <trkpt lat="42.72933" lon="9.45979"/>
            <trkpt lat="42.72939" lon="9.45979"/>
            <trkpt lat="42.72945" lon="9.45978"/>
            <trkpt lat="42.72956" lon="9.45972"/>
            <trkpt lat="42.72997" lon="9.45943"/>
            <trkpt lat="42.73018" lon="9.45936"/>
            <trkpt lat="42.73041" lon="9.45934"/>
            <trkpt lat="42.73054" lon="9.45937"/>
            <trkpt lat="42.73063" lon="9.45941"/>
            <trkpt lat="42.73088" lon="9.45956"/>
            <trkpt lat="42.73106" lon="9.45973"/>
            <trkpt lat="42.73133" lon="9.46005"/>
            <trkpt lat="42.73146" lon="9.46022"/>
            <trkpt lat="42.73159" lon="9.46035"/>
            <trkpt lat="42.73176" lon="9.46047"/>
            <trkpt lat="42.73183" lon="9.4605"/>
            <trkpt lat="42.73193" lon="9.46055"/>
            <trkpt lat="42.73201" lon="9.46057"/>
            <trkpt lat="42.73217" lon="9.46062"/>
            <trkpt lat="42.73224" lon="9.46065"/>
            <trkpt lat="42.73237" lon="9.46074"/>
            <trkpt lat="42.73254" lon="9.46092"/>
            <trkpt lat="42.73261" lon="9.46103"/>
            <trkpt lat="42.73269" lon="9.46117"/>
            <trkpt lat="42.73273" lon="9.46123"/>
            <trkpt lat="42.73277" lon="9.46129"/>
            <trkpt lat="42.73283" lon="9.46134"/>
            <trkpt lat="42.73288" lon="9.46137"/>
            <trkpt lat="42.73293" lon="9.46139"/>
            <trkpt lat="42.73298" lon="9.46139"/>
            <trkpt lat="42.73303" lon="9.46139"/>
            <trkpt lat="42.73308" lon="9.46136"/>
            <trkpt lat="42.7332" lon="9.46122"/>
            <trkpt lat="42.73329" lon="9.4611"/>
            <trkpt lat="42.73334" lon="9.46104"/>
            <trkpt lat="42.7334" lon="9.46099"/>
            <trkpt lat="42.73346" lon="9.46097"/>
            <trkpt lat="42.73356" lon="9.46096"/>
            <trkpt lat="42.73364" lon="9.46097"/>
            <trkpt lat="42.73391" lon="9.46099"/>
            <trkpt lat="42.73417" lon="9.46104"/>
            <trkpt lat="42.73426" lon="9.46109"/>
            <trkpt lat="42.73439" lon="9.46119"/>
            <trkpt lat="42.73475" lon="9.46153"/>
            <trkpt lat="42.73505" lon="9.46178"/>
            <trkpt lat="42.7352" lon="9.46188"/>
            <trkpt lat="42.73521" lon="9.46189"/>
            <trkpt lat="42.73542" lon="9.46203"/>
            <trkpt lat="42.73569" lon="9.46215"/>
            <trkpt lat="42.73588" lon="9.46212"/>
            <trkpt lat="42.73613" lon="9.46201"/>
            <trkpt lat="42.73624" lon="9.46196"/>
            <trkpt lat="42.73636" lon="9.46191"/>
            <trkpt lat="42.73682" lon="9.46173"/>
            <trkpt lat="42.73688" lon="9.46171"/>
            <trkpt lat="42.73784" lon="9.46136"/>
            <trkpt lat="42.73822" lon="9.46121"/>
            <trkpt lat="42.73857" lon="9.46107"/>
            <trkpt lat="42.73914" lon="9.46087"/>
            <trkpt lat="42.73943" lon="9.46075"/>
            <trkpt lat="42.73968" lon="9.46071"/>
            <trkpt lat="42.73977" lon="9.46071"/>
            <trkpt lat="42.73986" lon="9.46073"/>
            <trkpt lat="42.73988" lon="9.46073"/>
            <trkpt lat="42.74015" lon="9.46083"/>
            <trkpt lat="42.74022" lon="9.46086"/>
            <trkpt lat="42.7405" lon="9.46097"/>
            <trkpt lat="42.74079" lon="9.46109"/>
            <trkpt lat="42.74085" lon="9.46111"/>
            <trkpt lat="42.74118" lon="9.46123"/>
            <trkpt lat="42.74131" lon="9.46129"/>
            <trkpt lat="42.74167" lon="9.46146"/>
            <trkpt lat="42.74191" lon="9.46157"/>
            <trkpt lat="42.74219" lon="9.46171"/>
            <trkpt lat="42.74249" lon="9.46184"/>
            <trkpt lat="42.74259" lon="9.46188"/>
            <trkpt lat="42.74324" lon="9.46214"/>
            <trkpt lat="42.74362" lon="9.46231"/>
            <trkpt lat="42.74411" lon="9.46251"/>
            <trkpt lat="42.74422" lon="9.46257"/>
            <trkpt lat="42.74434" lon="9.46261"/>
            <trkpt lat="42.74487" lon="9.46285"/>
            <trkpt lat="42.74496" lon="9.46289"/>
            <trkpt lat="42.74549" lon="9.4631"/>
            <trkpt lat="42.74575" lon="9.46319"/>
            <trkpt lat="42.74605" lon="9.46323"/>
            <trkpt lat="42.74663" lon="9.46333"/>
            <trkpt lat="42.74685" lon="9.46335"/>
            <trkpt lat="42.74722" lon="9.4634"/>
            <trkpt lat="42.74789" lon="9.46351"/>
            <trkpt lat="42.74853" lon="9.46361"/>
            <trkpt lat="42.74885" lon="9.46362"/>
            <trkpt lat="42.74921" lon="9.46349"/>
            <trkpt lat="42.74942" lon="9.4634"/>
            <trkpt lat="42.7495" lon="9.46338"/>
            <trkpt lat="42.74957" lon="9.46339"/>
            <trkpt lat="42.74962" lon="9.46341"/>
            <trkpt lat="42.74966" lon="9.46344"/>
            <trkpt lat="42.7497" lon="9.4635"/>
            <trkpt lat="42.74985" lon="9.46389"/>
            <trkpt lat="42.74987" lon="9.46394"/>
            <trkpt lat="42.74992" lon="9.46399"/>
            <trkpt lat="42.75" lon="9.46405"/>
            <trkpt lat="42.75029" lon="9.46418"/>
            <trkpt lat="42.75059" lon="9.46434"/>
            <trkpt lat="42.75067" lon="9.46441"/>
            <trkpt lat="42.75072" lon="9.46449"/>
            <trkpt lat="42.75075" lon="9.46459"/>
            <trkpt lat="42.75076" lon="9.46468"/>
            <trkpt lat="42.75077" lon="9.46496"/>
            <trkpt lat="42.75078" lon="9.46509"/>
            <trkpt lat="42.75088" lon="9.46549"/>
            <trkpt lat="42.75102" lon="9.46574"/>
            <trkpt lat="42.75106" lon="9.4658"/>
            <trkpt lat="42.75108" lon="9.46584"/>
            <trkpt lat="42.75113" lon="9.46588"/>
            <trkpt lat="42.75121" lon="9.46597"/>
            <trkpt lat="42.7514" lon="9.46608"/>
            <trkpt lat="42.7517" lon="9.46623"/>
            <trkpt lat="42.75178" lon="9.46602"/>
            <trkpt lat="42.75191" lon="9.46522"/>
            <trkpt lat="42.75193" lon="9.46513"/>
            <trkpt lat="42.75197" lon="9.46505"/>
            <trkpt lat="42.75202" lon="9.46504"/>
            <trkpt lat="42.75214" lon="9.46504"/>
            <trkpt lat="42.75228" lon="9.46507"/>
            <trkpt lat="42.75234" lon="9.46504"/>
            <trkpt lat="42.75236" lon="9.46498"/>
            <trkpt lat="42.75236" lon="9.46492"/>
            <trkpt lat="42.75234" lon="9.46488"/>
            <trkpt lat="42.75231" lon="9.46484"/>
            <trkpt lat="42.75206" lon="9.46456"/>
            <trkpt lat="42.75228" lon="9.46464"/>
            <trkpt lat="42.75251" lon="9.46471"/>
            <trkpt lat="42.75261" lon="9.4647"/>
            <trkpt lat="42.75264" lon="9.46476"/>
            <trkpt lat="42.75278" lon="9.46516"/>
            <trkpt lat="42.75278" lon="9.46516"/>
            <trkpt lat="42.75264" lon="9.46476"/>
            <trkpt lat="42.75261" lon="9.4647"/>
            <trkpt lat="42.75251" lon="9.46471"/>
            <trkpt lat="42.75228" lon="9.46464"/>
            <trkpt lat="42.75206" lon="9.46456"/>
            <trkpt lat="42.75231" lon="9.46484"/>
            <trkpt lat="42.75234" lon="9.46488"/>
            <trkpt lat="42.75236" lon="9.46492"/>
            <trkpt lat="42.75236" lon="9.46498"/>
            <trkpt lat="42.75234" lon="9.46504"/>
            <trkpt lat="42.75228" lon="9.46507"/>
            <trkpt lat="42.75214" lon="9.46504"/>
            <trkpt lat="42.75202" lon="9.46504"/>
            <trkpt lat="42.75197" lon="9.46505"/>
            <trkpt lat="42.75193" lon="9.46513"/>
            <trkpt lat="42.75191" lon="9.46522"/>
            <trkpt lat="42.75178" lon="9.46602"/>
            <trkpt lat="42.7517" lon="9.46623"/>
            <trkpt lat="42.75201" lon="9.46633"/>
            <trkpt lat="42.75217" lon="9.46647"/>
            <trkpt lat="42.75223" lon="9.46658"/>
            <trkpt lat="42.7523" lon="9.46671"/>
            <trkpt lat="42.75255" lon="9.46738"/>
            <trkpt lat="42.75267" lon="9.46761"/>
            <trkpt lat="42.75273" lon="9.46772"/>
            <trkpt lat="42.75287" lon="9.46782"/>
            <trkpt lat="42.75294" lon="9.46785"/>
            <trkpt lat="42.75304" lon="9.46785"/>
            <trkpt lat="42.75311" lon="9.46783"/>
            <trkpt lat="42.75318" lon="9.4678"/>
            <trkpt lat="42.75329" lon="9.46773"/>
            <trkpt lat="42.75346" lon="9.46756"/>
            <trkpt lat="42.75367" lon="9.46728"/>
            <trkpt lat="42.75371" lon="9.46723"/>
            <trkpt lat="42.75377" lon="9.46719"/>
            <trkpt lat="42.75384" lon="9.46717"/>
            <trkpt lat="42.75391" lon="9.46717"/>
            <trkpt lat="42.75427" lon="9.46734"/>
            <trkpt lat="42.75435" lon="9.46736"/>
            <trkpt lat="42.75444" lon="9.46737"/>
            <trkpt lat="42.75455" lon="9.46734"/>
            <trkpt lat="42.75467" lon="9.4673"/>
            <trkpt lat="42.75479" lon="9.46726"/>
            <trkpt lat="42.75504" lon="9.46714"/>
            <trkpt lat="42.75516" lon="9.46708"/>
            <trkpt lat="42.75526" lon="9.46704"/>
            <trkpt lat="42.75549" lon="9.46701"/>
            <trkpt lat="42.75574" lon="9.46704"/>
            <trkpt lat="42.75594" lon="9.46702"/>
            <trkpt lat="42.75599" lon="9.467"/>
            <trkpt lat="42.75609" lon="9.46692"/>
            <trkpt lat="42.75618" lon="9.46682"/>
            <trkpt lat="42.75624" lon="9.46667"/>
            <trkpt lat="42.75629" lon="9.46651"/>
            <trkpt lat="42.7564" lon="9.46598"/>
            <trkpt lat="42.75655" lon="9.4654"/>
            <trkpt lat="42.7566" lon="9.4653"/>
            <trkpt lat="42.75665" lon="9.46526"/>
            <trkpt lat="42.75684" lon="9.46517"/>
            <trkpt lat="42.75691" lon="9.46515"/>
            <trkpt lat="42.75697" lon="9.46514"/>
            <trkpt lat="42.75706" lon="9.46513"/>
            <trkpt lat="42.7573" lon="9.46515"/>
            <trkpt lat="42.75745" lon="9.46517"/>
            <trkpt lat="42.75756" lon="9.4652"/>
            <trkpt lat="42.75778" lon="9.46528"/>
            <trkpt lat="42.75823" lon="9.46545"/>
            <trkpt lat="42.75831" lon="9.4655"/>
            <trkpt lat="42.75846" lon="9.46571"/>
            <trkpt lat="42.75864" lon="9.46598"/>
            <trkpt lat="42.75878" lon="9.4661"/>
            <trkpt lat="42.75879" lon="9.46611"/>
            <trkpt lat="42.75926" lon="9.46635"/>
            <trkpt lat="42.75956" lon="9.46645"/>
            <trkpt lat="42.7598" lon="9.46648"/>
            <trkpt lat="42.76019" lon="9.46638"/>
            <trkpt lat="42.76029" lon="9.46636"/>
            <trkpt lat="42.7604" lon="9.46635"/>
            <trkpt lat="42.76051" lon="9.46636"/>
            <trkpt lat="42.76066" lon="9.4664"/>
            <trkpt lat="42.76081" lon="9.46648"/>
            <trkpt lat="42.76137" lon="9.46682"/>
            <trkpt lat="42.76149" lon="9.46688"/>
            <trkpt lat="42.76155" lon="9.46689"/>
            <trkpt lat="42.76161" lon="9.46689"/>
            <trkpt lat="42.76163" lon="9.46689"/>
            <trkpt lat="42.76171" lon="9.46685"/>
            <trkpt lat="42.76191" lon="9.46669"/>
            <trkpt lat="42.76204" lon="9.46663"/>
            <trkpt lat="42.76211" lon="9.4666"/>
            <trkpt lat="42.76221" lon="9.46659"/>
            <trkpt lat="42.76226" lon="9.46659"/>
            <trkpt lat="42.76233" lon="9.46663"/>
            <trkpt lat="42.76237" lon="9.46669"/>
            <trkpt lat="42.76242" lon="9.46679"/>
            <trkpt lat="42.7625" lon="9.46705"/>
            <trkpt lat="42.76255" lon="9.46715"/>
            <trkpt lat="42.76259" lon="9.46719"/>
            <trkpt lat="42.76265" lon="9.46726"/>
            <trkpt lat="42.76269" lon="9.46729"/>
            <trkpt lat="42.76276" lon="9.46733"/>
            <trkpt lat="42.7629" lon="9.46738"/>
            <trkpt lat="42.76338" lon="9.46753"/>
            <trkpt lat="42.76351" lon="9.46758"/>
            <trkpt lat="42.76365" lon="9.46762"/>
            <trkpt lat="42.76382" lon="9.46763"/>
            <trkpt lat="42.76424" lon="9.46761"/>
            <trkpt lat="42.76438" lon="9.46759"/>
            <trkpt lat="42.76447" lon="9.46763"/>
            <trkpt lat="42.76457" lon="9.46769"/>
            <trkpt lat="42.76474" lon="9.46788"/>
            <trkpt lat="42.76484" lon="9.46802"/>
            <trkpt lat="42.76498" lon="9.4682"/>
            <trkpt lat="42.76518" lon="9.46847"/>
            <trkpt lat="42.76544" lon="9.46878"/>
            <trkpt lat="42.76549" lon="9.46884"/>
            <trkpt lat="42.76553" lon="9.46886"/>
            <trkpt lat="42.76559" lon="9.46888"/>
            <trkpt lat="42.76574" lon="9.46888"/>
            <trkpt lat="42.76585" lon="9.46885"/>
            <trkpt lat="42.76589" lon="9.46884"/>
            <trkpt lat="42.76621" lon="9.46865"/>
            <trkpt lat="42.76636" lon="9.46858"/>
            <trkpt lat="42.76644" lon="9.46855"/>
            <trkpt lat="42.76668" lon="9.46855"/>
            <trkpt lat="42.76684" lon="9.4686"/>
            <trkpt lat="42.76694" lon="9.46866"/>
            <trkpt lat="42.76719" lon="9.46892"/>
            <trkpt lat="42.76754" lon="9.46904"/>
            <trkpt lat="42.76755" lon="9.46905"/>
            <trkpt lat="42.76764" lon="9.46909"/>
            <trkpt lat="42.76769" lon="9.46914"/>
            <trkpt lat="42.76777" lon="9.46923"/>
            <trkpt lat="42.76781" lon="9.46932"/>
            <trkpt lat="42.76785" lon="9.46947"/>
            <trkpt lat="42.76785" lon="9.4698"/>
            <trkpt lat="42.76785" lon="9.4699"/>
            <trkpt lat="42.76787" lon="9.47006"/>
            <trkpt lat="42.76792" lon="9.47016"/>
            <trkpt lat="42.76792" lon="9.47019"/>
            <trkpt lat="42.76795" lon="9.47021"/>
            <trkpt lat="42.76803" lon="9.4703"/>
            <trkpt lat="42.76805" lon="9.47032"/>
            <trkpt lat="42.76823" lon="9.47051"/>
            <trkpt lat="42.76834" lon="9.47054"/>
            <trkpt lat="42.76863" lon="9.47057"/>
            <trkpt lat="42.76866" lon="9.47057"/>
            <trkpt lat="42.7691" lon="9.47081"/>
            <trkpt lat="42.7699" lon="9.47116"/>
            <trkpt lat="42.77021" lon="9.47142"/>
            <trkpt lat="42.77033" lon="9.47155"/>
            <trkpt lat="42.77043" lon="9.47163"/>
            <trkpt lat="42.7705" lon="9.47164"/>
            <trkpt lat="42.77061" lon="9.47161"/>
            <trkpt lat="42.77072" lon="9.47157"/>
            <trkpt lat="42.77081" lon="9.4715"/>
            <trkpt lat="42.77097" lon="9.47134"/>
            <trkpt lat="42.77103" lon="9.47129"/>
            <trkpt lat="42.77109" lon="9.47124"/>
            <trkpt lat="42.77115" lon="9.47121"/>
            <trkpt lat="42.77122" lon="9.4712"/>
            <trkpt lat="42.77128" lon="9.47121"/>
            <trkpt lat="42.77132" lon="9.47122"/>
            <trkpt lat="42.77137" lon="9.47127"/>
            <trkpt lat="42.77142" lon="9.47133"/>
            <trkpt lat="42.77144" lon="9.47137"/>
            <trkpt lat="42.77146" lon="9.47145"/>
            <trkpt lat="42.77149" lon="9.47177"/>
            <trkpt lat="42.77154" lon="9.47205"/>
            <trkpt lat="42.7716" lon="9.47227"/>
            <trkpt lat="42.77174" lon="9.47257"/>
            <trkpt lat="42.77183" lon="9.47272"/>
            <trkpt lat="42.77196" lon="9.47284"/>
            <trkpt lat="42.77217" lon="9.47295"/>
            <trkpt lat="42.7723" lon="9.47299"/>
            <trkpt lat="42.77258" lon="9.47318"/>
            <trkpt lat="42.77277" lon="9.47334"/>
            <trkpt lat="42.77302" lon="9.47359"/>
            <trkpt lat="42.77329" lon="9.47392"/>
            <trkpt lat="42.77343" lon="9.47409"/>
            <trkpt lat="42.77374" lon="9.47457"/>
            <trkpt lat="42.77374" lon="9.47457"/>
            <trkpt lat="42.77387" lon="9.47476"/>
            <trkpt lat="42.77395" lon="9.47487"/>
            <trkpt lat="42.77403" lon="9.47494"/>
            <trkpt lat="42.77429" lon="9.47516"/>
            <trkpt lat="42.77439" lon="9.47523"/>
            <trkpt lat="42.77479" lon="9.47557"/>
            <trkpt lat="42.77511" lon="9.47587"/>
            <trkpt lat="42.77537" lon="9.47609"/>
            <trkpt lat="42.77568" lon="9.47628"/>
            <trkpt lat="42.77588" lon="9.4763"/>
            <trkpt lat="42.77593" lon="9.47631"/>
            <trkpt lat="42.77605" lon="9.4763"/>
            <trkpt lat="42.7762" lon="9.47629"/>
            <trkpt lat="42.7763" lon="9.47632"/>
            <trkpt lat="42.77641" lon="9.47637"/>
            <trkpt lat="42.77649" lon="9.47648"/>
            <trkpt lat="42.77653" lon="9.47656"/>
            <trkpt lat="42.77654" lon="9.4766"/>
            <trkpt lat="42.77655" lon="9.47669"/>
            <trkpt lat="42.77656" lon="9.47676"/>
            <trkpt lat="42.77657" lon="9.47714"/>
            <trkpt lat="42.77658" lon="9.47722"/>
            <trkpt lat="42.77658" lon="9.47724"/>
            <trkpt lat="42.77659" lon="9.47731"/>
            <trkpt lat="42.77662" lon="9.47742"/>
            <trkpt lat="42.77664" lon="9.4775"/>
            <trkpt lat="42.77668" lon="9.47758"/>
            <trkpt lat="42.77674" lon="9.47765"/>
            <trkpt lat="42.77678" lon="9.47769"/>
            <trkpt lat="42.77688" lon="9.47777"/>
            <trkpt lat="42.77694" lon="9.47781"/>
            <trkpt lat="42.77744" lon="9.47802"/>
            <trkpt lat="42.77752" lon="9.47807"/>
            <trkpt lat="42.77758" lon="9.47809"/>
            <trkpt lat="42.77778" lon="9.47819"/>
            <trkpt lat="42.77804" lon="9.47839"/>
            <trkpt lat="42.77827" lon="9.47862"/>
            <trkpt lat="42.77837" lon="9.47872"/>
            <trkpt lat="42.77847" lon="9.47878"/>
            <trkpt lat="42.77855" lon="9.47881"/>
            <trkpt lat="42.77869" lon="9.47881"/>
            <trkpt lat="42.77886" lon="9.4788"/>
            <trkpt lat="42.77918" lon="9.47874"/>
            <trkpt lat="42.77928" lon="9.47868"/>
            <trkpt lat="42.77951" lon="9.47846"/>
            <trkpt lat="42.7798" lon="9.47803"/>
            <trkpt lat="42.7799" lon="9.47794"/>
            <trkpt lat="42.77996" lon="9.47793"/>
            <trkpt lat="42.78003" lon="9.4779"/>
            <trkpt lat="42.78009" lon="9.47792"/>
            <trkpt lat="42.78015" lon="9.47794"/>
            <trkpt lat="42.78022" lon="9.478"/>
            <trkpt lat="42.78023" lon="9.47801"/>
            <trkpt lat="42.78027" lon="9.47804"/>
            <trkpt lat="42.7803" lon="9.4781"/>
            <trkpt lat="42.78036" lon="9.47824"/>
            <trkpt lat="42.78041" lon="9.47841"/>
            <trkpt lat="42.78046" lon="9.47851"/>
            <trkpt lat="42.78054" lon="9.47864"/>
            <trkpt lat="42.78062" lon="9.47871"/>
            <trkpt lat="42.78076" lon="9.47882"/>
            <trkpt lat="42.78089" lon="9.47892"/>
            <trkpt lat="42.78101" lon="9.47905"/>
            <trkpt lat="42.78106" lon="9.47917"/>
            <trkpt lat="42.78107" lon="9.47918"/>
            <trkpt lat="42.78113" lon="9.47947"/>
            <trkpt lat="42.78118" lon="9.47977"/>
            <trkpt lat="42.7812" lon="9.48004"/>
            <trkpt lat="42.78119" lon="9.48022"/>
            <trkpt lat="42.78113" lon="9.48065"/>
            <trkpt lat="42.78113" lon="9.48081"/>
            <trkpt lat="42.78117" lon="9.48097"/>
            <trkpt lat="42.78121" lon="9.48105"/>
            <trkpt lat="42.78123" lon="9.48107"/>
            <trkpt lat="42.78128" lon="9.48116"/>
            <trkpt lat="42.78147" lon="9.48129"/>
            <trkpt lat="42.7816" lon="9.48135"/>
            <trkpt lat="42.78183" lon="9.48144"/>
            <trkpt lat="42.78197" lon="9.4815"/>
            <trkpt lat="42.78205" lon="9.48154"/>
            <trkpt lat="42.78208" lon="9.48156"/>
            <trkpt lat="42.78211" lon="9.48158"/>
            <trkpt lat="42.78214" lon="9.4816"/>
            <trkpt lat="42.78216" lon="9.48163"/>
            <trkpt lat="42.7826" lon="9.48223"/>
            <trkpt lat="42.78275" lon="9.4824"/>
            <trkpt lat="42.78287" lon="9.48248"/>
            <trkpt lat="42.783" lon="9.48252"/>
            <trkpt lat="42.7831" lon="9.48253"/>
            <trkpt lat="42.78316" lon="9.48253"/>
            <trkpt lat="42.78327" lon="9.48252"/>
            <trkpt lat="42.7833" lon="9.4825"/>
            <trkpt lat="42.78363" lon="9.48235"/>
            <trkpt lat="42.78373" lon="9.48232"/>
            <trkpt lat="42.7838" lon="9.48232"/>
            <trkpt lat="42.78384" lon="9.48232"/>
            <trkpt lat="42.78389" lon="9.48234"/>
            <trkpt lat="42.78395" lon="9.48236"/>
            <trkpt lat="42.78396" lon="9.48237"/>
            <trkpt lat="42.78403" lon="9.48242"/>
            <trkpt lat="42.78415" lon="9.48253"/>
            <trkpt lat="42.78424" lon="9.4826"/>
            <trkpt lat="42.78429" lon="9.48262"/>
            <trkpt lat="42.78439" lon="9.48264"/>
            <trkpt lat="42.78441" lon="9.48264"/>
            <trkpt lat="42.78445" lon="9.48262"/>
            <trkpt lat="42.78448" lon="9.48261"/>
            <trkpt lat="42.78465" lon="9.48254"/>
            <trkpt lat="42.78472" lon="9.48252"/>
            <trkpt lat="42.78479" lon="9.48251"/>
            <trkpt lat="42.78484" lon="9.48253"/>
            <trkpt lat="42.78491" lon="9.48256"/>
            <trkpt lat="42.78498" lon="9.48264"/>
            <trkpt lat="42.78499" lon="9.48265"/>
            <trkpt lat="42.78505" lon="9.48274"/>
            <trkpt lat="42.78531" lon="9.48328"/>
            <trkpt lat="42.78541" lon="9.48341"/>
            <trkpt lat="42.7855" lon="9.48349"/>
            <trkpt lat="42.78554" lon="9.48352"/>
            <trkpt lat="42.7857" lon="9.48355"/>
            <trkpt lat="42.78591" lon="9.48356"/>
            <trkpt lat="42.78606" lon="9.48354"/>
            <trkpt lat="42.78609" lon="9.48354"/>
            <trkpt lat="42.78626" lon="9.48349"/>
            <trkpt lat="42.78634" lon="9.48344"/>
            <trkpt lat="42.78647" lon="9.4833"/>
            <trkpt lat="42.78652" lon="9.48326"/>
            <trkpt lat="42.78657" lon="9.48322"/>
            <trkpt lat="42.78665" lon="9.4832"/>
            <trkpt lat="42.78675" lon="9.48322"/>
            <trkpt lat="42.78689" lon="9.48327"/>
            <trkpt lat="42.7871" lon="9.48347"/>
            <trkpt lat="42.78718" lon="9.4835"/>
            <trkpt lat="42.78725" lon="9.4835"/>
            <trkpt lat="42.78742" lon="9.48345"/>
            <trkpt lat="42.78753" lon="9.48339"/>
            <trkpt lat="42.78764" lon="9.48335"/>
            <trkpt lat="42.78775" lon="9.48334"/>
            <trkpt lat="42.78803" lon="9.48337"/>
            <trkpt lat="42.78811" lon="9.48338"/>
            <trkpt lat="42.78825" lon="9.48342"/>
            <trkpt lat="42.7883" lon="9.48346"/>
            <trkpt lat="42.78837" lon="9.48355"/>
            <trkpt lat="42.78839" lon="9.48364"/>
            <trkpt lat="42.7884" lon="9.48376"/>
            <trkpt lat="42.78839" lon="9.48385"/>
            <trkpt lat="42.78838" lon="9.4839"/>
            <trkpt lat="42.78829" lon="9.48418"/>
            <trkpt lat="42.78824" lon="9.4844"/>
            <trkpt lat="42.78824" lon="9.48461"/>
            <trkpt lat="42.7883" lon="9.48491"/>
            <trkpt lat="42.78832" lon="9.48503"/>
            <trkpt lat="42.78834" lon="9.48556"/>
            <trkpt lat="42.78837" lon="9.48564"/>
            <trkpt lat="42.78842" lon="9.48575"/>
            <trkpt lat="42.78851" lon="9.48586"/>
            <trkpt lat="42.78862" lon="9.48597"/>
            <trkpt lat="42.78882" lon="9.48608"/>
            <trkpt lat="42.78903" lon="9.48618"/>
            <trkpt lat="42.78963" lon="9.48641"/>
            <trkpt lat="42.78983" lon="9.48646"/>
            <trkpt lat="42.79009" lon="9.4865"/>
            <trkpt lat="42.79028" lon="9.48655"/>
            <trkpt lat="42.79041" lon="9.4866"/>
            <trkpt lat="42.79054" lon="9.48668"/>
            <trkpt lat="42.79088" lon="9.48696"/>
            <trkpt lat="42.79117" lon="9.48726"/>
            <trkpt lat="42.79145" lon="9.48752"/>
            <trkpt lat="42.79174" lon="9.48774"/>
            <trkpt lat="42.79193" lon="9.48785"/>
            <trkpt lat="42.79219" lon="9.48795"/>
            <trkpt lat="42.79235" lon="9.48799"/>
            <trkpt lat="42.79244" lon="9.48799"/>
            <trkpt lat="42.7925" lon="9.48799"/>
            <trkpt lat="42.79261" lon="9.48797"/>
            <trkpt lat="42.79287" lon="9.48785"/>
            <trkpt lat="42.79312" lon="9.48775"/>
            <trkpt lat="42.7932" lon="9.48774"/>
            <trkpt lat="42.79323" lon="9.48774"/>
            <trkpt lat="42.79328" lon="9.48775"/>
            <trkpt lat="42.79332" lon="9.48777"/>
            <trkpt lat="42.79333" lon="9.48778"/>
            <trkpt lat="42.79338" lon="9.48781"/>
            <trkpt lat="42.79341" lon="9.48785"/>
            <trkpt lat="42.79342" lon="9.48786"/>
            <trkpt lat="42.79345" lon="9.48791"/>
            <trkpt lat="42.79348" lon="9.48797"/>
            <trkpt lat="42.79362" lon="9.48843"/>
            <trkpt lat="42.79366" lon="9.48856"/>
            <trkpt lat="42.79369" lon="9.48864"/>
            <trkpt lat="42.79373" lon="9.48872"/>
            <trkpt lat="42.79376" lon="9.48876"/>
            <trkpt lat="42.79381" lon="9.48882"/>
            <trkpt lat="42.79385" lon="9.48885"/>
            <trkpt lat="42.79389" lon="9.48888"/>
            <trkpt lat="42.794" lon="9.48894"/>
            <trkpt lat="42.79407" lon="9.48897"/>
            <trkpt lat="42.79443" lon="9.48919"/>
            <trkpt lat="42.79447" lon="9.48921"/>
            <trkpt lat="42.79462" lon="9.48922"/>
            <trkpt lat="42.7947" lon="9.48919"/>
            <trkpt lat="42.79473" lon="9.48916"/>
            <trkpt lat="42.79479" lon="9.4891"/>
            <trkpt lat="42.79496" lon="9.48886"/>
            <trkpt lat="42.795" lon="9.48881"/>
            <trkpt lat="42.79505" lon="9.48877"/>
            <trkpt lat="42.79511" lon="9.48875"/>
            <trkpt lat="42.79543" lon="9.48881"/>
            <trkpt lat="42.79563" lon="9.4889"/>
            <trkpt lat="42.79569" lon="9.48896"/>
            <trkpt lat="42.79573" lon="9.48904"/>
            <trkpt lat="42.79579" lon="9.48921"/>
            <trkpt lat="42.79588" lon="9.48954"/>
            <trkpt lat="42.79599" lon="9.48979"/>
            <trkpt lat="42.79606" lon="9.48988"/>
            <trkpt lat="42.79614" lon="9.48992"/>
            <trkpt lat="42.79628" lon="9.48993"/>
            <trkpt lat="42.79643" lon="9.48993"/>
            <trkpt lat="42.79651" lon="9.48997"/>
            <trkpt lat="42.79687" lon="9.49032"/>
            <trkpt lat="42.7971" lon="9.49056"/>
            <trkpt lat="42.79717" lon="9.49061"/>
            <trkpt lat="42.79723" lon="9.49064"/>
            <trkpt lat="42.79731" lon="9.49064"/>
            <trkpt lat="42.79746" lon="9.4906"/>
            <trkpt lat="42.79768" lon="9.49058"/>
            <trkpt lat="42.799" lon="9.49068"/>
            <trkpt lat="42.79924" lon="9.49068"/>
            <trkpt lat="42.79956" lon="9.49063"/>
            <trkpt lat="42.79957" lon="9.49063"/>
            <trkpt lat="42.79974" lon="9.49058"/>
            <trkpt lat="42.79987" lon="9.4905"/>
            <trkpt lat="42.80034" lon="9.49008"/>
            <trkpt lat="42.80041" lon="9.49003"/>
            <trkpt lat="42.80048" lon="9.48999"/>
            <trkpt lat="42.80051" lon="9.48998"/>
            <trkpt lat="42.80056" lon="9.48996"/>
            <trkpt lat="42.80067" lon="9.48995"/>
            <trkpt lat="42.80071" lon="9.48996"/>
            <trkpt lat="42.80078" lon="9.48999"/>
            <trkpt lat="42.80089" lon="9.49007"/>
            <trkpt lat="42.80115" lon="9.49028"/>
            <trkpt lat="42.80128" lon="9.49036"/>
            <trkpt lat="42.80154" lon="9.49048"/>
            <trkpt lat="42.8018" lon="9.49064"/>
            <trkpt lat="42.80226" lon="9.49104"/>
            <trkpt lat="42.8025" lon="9.49122"/>
            <trkpt lat="42.80261" lon="9.49129"/>
            <trkpt lat="42.8027" lon="9.49134"/>
            <trkpt lat="42.80273" lon="9.49135"/>
            <trkpt lat="42.80282" lon="9.49139"/>
            <trkpt lat="42.80297" lon="9.49143"/>
            <trkpt lat="42.80302" lon="9.49144"/>
            <trkpt lat="42.80318" lon="9.49145"/>
            <trkpt lat="42.80337" lon="9.49142"/>
            <trkpt lat="42.80376" lon="9.49128"/>
            <trkpt lat="42.80424" lon="9.49103"/>
            <trkpt lat="42.80442" lon="9.49095"/>
            <trkpt lat="42.80458" lon="9.49091"/>
            <trkpt lat="42.80481" lon="9.49089"/>
            <trkpt lat="42.80489" lon="9.4909"/>
            <trkpt lat="42.80501" lon="9.49091"/>
            <trkpt lat="42.80515" lon="9.49096"/>
            <trkpt lat="42.80531" lon="9.49104"/>
            <trkpt lat="42.80547" lon="9.49118"/>
            <trkpt lat="42.80556" lon="9.49125"/>
            <trkpt lat="42.8057" lon="9.4914"/>
            <trkpt lat="42.8057" lon="9.49141"/>
            <trkpt lat="42.80578" lon="9.49151"/>
            <trkpt lat="42.8058" lon="9.49154"/>
            <trkpt lat="42.80604" lon="9.49191"/>
            <trkpt lat="42.80608" lon="9.49196"/>
            <trkpt lat="42.80619" lon="9.4921"/>
            <trkpt lat="42.80628" lon="9.49217"/>
            <trkpt lat="42.80632" lon="9.49219"/>
            <trkpt lat="42.80642" lon="9.49223"/>
            <trkpt lat="42.80658" lon="9.49226"/>
            <trkpt lat="42.80707" lon="9.49227"/>
            <trkpt lat="42.80714" lon="9.49226"/>
            <trkpt lat="42.80719" lon="9.49225"/>
            <trkpt lat="42.80721" lon="9.49224"/>
            <trkpt lat="42.80724" lon="9.49222"/>
            <trkpt lat="42.80729" lon="9.49219"/>
            <trkpt lat="42.80729" lon="9.49219"/>
            <trkpt lat="42.80733" lon="9.49215"/>
            <trkpt lat="42.80739" lon="9.49209"/>
            <trkpt lat="42.80749" lon="9.49196"/>
            <trkpt lat="42.80755" lon="9.49186"/>
            <trkpt lat="42.8076" lon="9.49177"/>
            <trkpt lat="42.80763" lon="9.49172"/>
            <trkpt lat="42.80769" lon="9.49158"/>
            <trkpt lat="42.80782" lon="9.49114"/>
            <trkpt lat="42.80784" lon="9.49107"/>
            <trkpt lat="42.80801" lon="9.49035"/>
            <trkpt lat="42.80802" lon="9.49028"/>
            <trkpt lat="42.80803" lon="9.48992"/>
            <trkpt lat="42.80808" lon="9.48935"/>
            <trkpt lat="42.80813" lon="9.48878"/>
            <trkpt lat="42.80816" lon="9.48865"/>
            <trkpt lat="42.80817" lon="9.4886"/>
            <trkpt lat="42.80819" lon="9.48858"/>
            <trkpt lat="42.8082" lon="9.48856"/>
            <trkpt lat="42.80823" lon="9.48854"/>
            <trkpt lat="42.80826" lon="9.48853"/>
            <trkpt lat="42.80829" lon="9.48852"/>
            <trkpt lat="42.80834" lon="9.48851"/>
            <trkpt lat="42.80854" lon="9.48855"/>
            <trkpt lat="42.80946" lon="9.4888"/>
            <trkpt lat="42.80979" lon="9.4889"/>
            <trkpt lat="42.80998" lon="9.48895"/>
            <trkpt lat="42.81018" lon="9.48901"/>
            <trkpt lat="42.81095" lon="9.48922"/>
            <trkpt lat="42.81148" lon="9.48934"/>
            <trkpt lat="42.8119" lon="9.48948"/>
            <trkpt lat="42.81214" lon="9.48966"/>
            <trkpt lat="42.81215" lon="9.48966"/>
            <trkpt lat="42.81223" lon="9.48972"/>
            <trkpt lat="42.81242" lon="9.4898"/>
            <trkpt lat="42.8125" lon="9.4898"/>
            <trkpt lat="42.81258" lon="9.48978"/>
            <trkpt lat="42.81268" lon="9.48971"/>
            <trkpt lat="42.8128" lon="9.48959"/>
            <trkpt lat="42.81288" lon="9.48954"/>
            <trkpt lat="42.81294" lon="9.48951"/>
            <trkpt lat="42.81299" lon="9.48949"/>
            <trkpt lat="42.81313" lon="9.48951"/>
            <trkpt lat="42.81324" lon="9.48962"/>
            <trkpt lat="42.81332" lon="9.48973"/>
            <trkpt lat="42.81345" lon="9.48993"/>
            <trkpt lat="42.8135" lon="9.48998"/>
            <trkpt lat="42.81353" lon="9.49"/>
            <trkpt lat="42.8136" lon="9.49004"/>
            <trkpt lat="42.81366" lon="9.49006"/>
            <trkpt lat="42.81388" lon="9.49003"/>
            <trkpt lat="42.8141" lon="9.48996"/>
            <trkpt lat="42.81442" lon="9.48985"/>
            <trkpt lat="42.81454" lon="9.48979"/>
            <trkpt lat="42.81462" lon="9.48971"/>
            <trkpt lat="42.81478" lon="9.48952"/>
            <trkpt lat="42.81487" lon="9.48935"/>
            <trkpt lat="42.81503" lon="9.48917"/>
            <trkpt lat="42.8152" lon="9.48902"/>
            <trkpt lat="42.8155" lon="9.48878"/>
            <trkpt lat="42.81571" lon="9.48865"/>
            <trkpt lat="42.81598" lon="9.48856"/>
            <trkpt lat="42.81631" lon="9.48854"/>
            <trkpt lat="42.81644" lon="9.48856"/>
            <trkpt lat="42.81673" lon="9.48859"/>
            <trkpt lat="42.81703" lon="9.48858"/>
            <trkpt lat="42.81722" lon="9.48853"/>
            <trkpt lat="42.81751" lon="9.4883"/>
            <trkpt lat="42.81788" lon="9.48793"/>
            <trkpt lat="42.81847" lon="9.4872"/>
            <trkpt lat="42.81879" lon="9.48692"/>
            <trkpt lat="42.81894" lon="9.48685"/>
            <trkpt lat="42.81944" lon="9.48661"/>
            <trkpt lat="42.81983" lon="9.48644"/>
            <trkpt lat="42.82025" lon="9.48631"/>
            <trkpt lat="42.82041" lon="9.4863"/>
            <trkpt lat="42.8212" lon="9.48629"/>
            <trkpt lat="42.82142" lon="9.48628"/>
            <trkpt lat="42.82169" lon="9.48628"/>
            <trkpt lat="42.82207" lon="9.48631"/>
            <trkpt lat="42.82224" lon="9.48635"/>
            <trkpt lat="42.8229" lon="9.48655"/>
            <trkpt lat="42.82304" lon="9.48657"/>
            <trkpt lat="42.82322" lon="9.48655"/>
            <trkpt lat="42.82341" lon="9.48651"/>
            <trkpt lat="42.82367" lon="9.48639"/>
            <trkpt lat="42.82399" lon="9.48621"/>
            <trkpt lat="42.82447" lon="9.48587"/>
            <trkpt lat="42.82463" lon="9.48572"/>
            <trkpt lat="42.82471" lon="9.48562"/>
            <trkpt lat="42.82476" lon="9.48555"/>
            <trkpt lat="42.82483" lon="9.48548"/>
            <trkpt lat="42.82489" lon="9.48544"/>
            <trkpt lat="42.82494" lon="9.48542"/>
            <trkpt lat="42.82503" lon="9.4854"/>
            <trkpt lat="42.82518" lon="9.48541"/>
            <trkpt lat="42.82523" lon="9.48543"/>
            <trkpt lat="42.82537" lon="9.48554"/>
            <trkpt lat="42.82592" lon="9.48636"/>
            <trkpt lat="42.82614" lon="9.48661"/>
            <trkpt lat="42.82621" lon="9.48667"/>
            <trkpt lat="42.82629" lon="9.48671"/>
            <trkpt lat="42.82642" lon="9.48674"/>
            <trkpt lat="42.82664" lon="9.48676"/>
            <trkpt lat="42.82689" lon="9.48672"/>
            <trkpt lat="42.82696" lon="9.48669"/>
            <trkpt lat="42.82708" lon="9.48663"/>
            <trkpt lat="42.82728" lon="9.48649"/>
            <trkpt lat="42.82739" lon="9.48637"/>
            <trkpt lat="42.82755" lon="9.48616"/>
            <trkpt lat="42.82771" lon="9.48599"/>
            <trkpt lat="42.82779" lon="9.48595"/>
            <trkpt lat="42.82784" lon="9.48593"/>
            <trkpt lat="42.8283" lon="9.4859"/>
            <trkpt lat="42.82841" lon="9.48588"/>
            <trkpt lat="42.82863" lon="9.48579"/>
            <trkpt lat="42.82871" lon="9.48574"/>
            <trkpt lat="42.82909" lon="9.48557"/>
            <trkpt lat="42.82915" lon="9.48555"/>
            <trkpt lat="42.82919" lon="9.48555"/>
            <trkpt lat="42.82927" lon="9.48555"/>
            <trkpt lat="42.82935" lon="9.48556"/>
            <trkpt lat="42.82946" lon="9.48562"/>
            <trkpt lat="42.82985" lon="9.48596"/>
            <trkpt lat="42.82994" lon="9.48599"/>
            <trkpt lat="42.83013" lon="9.486"/>
            <trkpt lat="42.83018" lon="9.48599"/>
            <trkpt lat="42.83023" lon="9.48595"/>
            <trkpt lat="42.83026" lon="9.48592"/>
            <trkpt lat="42.83029" lon="9.48587"/>
            <trkpt lat="42.83037" lon="9.48574"/>
            <trkpt lat="42.83051" lon="9.48545"/>
            <trkpt lat="42.83068" lon="9.48489"/>
            <trkpt lat="42.83074" lon="9.48473"/>
            <trkpt lat="42.83081" lon="9.48456"/>
            <trkpt lat="42.83089" lon="9.48446"/>
            <trkpt lat="42.83094" lon="9.48442"/>
            <trkpt lat="42.83101" lon="9.48438"/>
            <trkpt lat="42.83115" lon="9.48434"/>
            <trkpt lat="42.83126" lon="9.48434"/>
            <trkpt lat="42.83134" lon="9.48437"/>
            <trkpt lat="42.83141" lon="9.48441"/>
            <trkpt lat="42.83148" lon="9.48448"/>
            <trkpt lat="42.83182" lon="9.48506"/>
            <trkpt lat="42.83206" lon="9.48535"/>
            <trkpt lat="42.83221" lon="9.48546"/>
            <trkpt lat="42.83238" lon="9.48553"/>
            <trkpt lat="42.8326" lon="9.4856"/>
            <trkpt lat="42.83269" lon="9.4856"/>
            <trkpt lat="42.8328" lon="9.48557"/>
            <trkpt lat="42.83298" lon="9.48548"/>
            <trkpt lat="42.8334" lon="9.48532"/>
            <trkpt lat="42.83398" lon="9.48511"/>
            <trkpt lat="42.83422" lon="9.48492"/>
            <trkpt lat="42.83444" lon="9.4847"/>
            <trkpt lat="42.83475" lon="9.48436"/>
            <trkpt lat="42.83514" lon="9.48374"/>
            <trkpt lat="42.83526" lon="9.48358"/>
            <trkpt lat="42.83554" lon="9.48326"/>
            <trkpt lat="42.83564" lon="9.48319"/>
            <trkpt lat="42.83611" lon="9.48289"/>
            <trkpt lat="42.83618" lon="9.4828"/>
            <trkpt lat="42.83622" lon="9.48268"/>
            <trkpt lat="42.83624" lon="9.48248"/>
            <trkpt lat="42.83622" lon="9.48222"/>
            <trkpt lat="42.83618" lon="9.48205"/>
            <trkpt lat="42.83604" lon="9.48167"/>
            <trkpt lat="42.83604" lon="9.48167"/>
            <trkpt lat="42.83604" lon="9.48167"/>
            <trkpt lat="42.83578" lon="9.48101"/>
            <trkpt lat="42.83551" lon="9.48022"/>
            <trkpt lat="42.83549" lon="9.48017"/>
            <trkpt lat="42.83549" lon="9.48011"/>
            <trkpt lat="42.83551" lon="9.48005"/>
            <trkpt lat="42.83554" lon="9.47999"/>
            <trkpt lat="42.83559" lon="9.47995"/>
            <trkpt lat="42.83574" lon="9.4798"/>
            <trkpt lat="42.83592" lon="9.47964"/>
            <trkpt lat="42.83638" lon="9.47924"/>
            <trkpt lat="42.83677" lon="9.47897"/>
            <trkpt lat="42.83694" lon="9.47889"/>
            <trkpt lat="42.83754" lon="9.47866"/>
            <trkpt lat="42.83773" lon="9.4786"/>
            <trkpt lat="42.83845" lon="9.47837"/>
            <trkpt lat="42.83877" lon="9.4783"/>
            <trkpt lat="42.83883" lon="9.47829"/>
            <trkpt lat="42.83909" lon="9.47827"/>
            <trkpt lat="42.83945" lon="9.47828"/>
            <trkpt lat="42.8406" lon="9.47836"/>
            <trkpt lat="42.84082" lon="9.47841"/>
            <trkpt lat="42.84086" lon="9.47842"/>
            <trkpt lat="42.84095" lon="9.47851"/>
            <trkpt lat="42.84104" lon="9.47865"/>
            <trkpt lat="42.84108" lon="9.4788"/>
            <trkpt lat="42.8411" lon="9.47891"/>
            <trkpt lat="42.84112" lon="9.4791"/>
            <trkpt lat="42.84113" lon="9.47925"/>
            <trkpt lat="42.84112" lon="9.47973"/>
            <trkpt lat="42.84108" lon="9.48003"/>
            <trkpt lat="42.84109" lon="9.48025"/>
            <trkpt lat="42.84115" lon="9.48052"/>
            <trkpt lat="42.84122" lon="9.48078"/>
            <trkpt lat="42.84125" lon="9.48102"/>
            <trkpt lat="42.84123" lon="9.48141"/>
            <trkpt lat="42.84121" lon="9.48149"/>
            <trkpt lat="42.84123" lon="9.48179"/>
            <trkpt lat="42.84137" lon="9.48235"/>
            <trkpt lat="42.84143" lon="9.48272"/>
            <trkpt lat="42.84153" lon="9.48308"/>
            <trkpt lat="42.84163" lon="9.48325"/>
            <trkpt lat="42.84177" lon="9.4834"/>
            <trkpt lat="42.84195" lon="9.48352"/>
            <trkpt lat="42.842" lon="9.48354"/>
            <trkpt lat="42.84211" lon="9.48353"/>
            <trkpt lat="42.84218" lon="9.48352"/>
            <trkpt lat="42.84236" lon="9.48345"/>
            <trkpt lat="42.84248" lon="9.48338"/>
            <trkpt lat="42.84248" lon="9.48337"/>
            <trkpt lat="42.84277" lon="9.48311"/>
            <trkpt lat="42.84287" lon="9.48303"/>
            <trkpt lat="42.84295" lon="9.48299"/>
            <trkpt lat="42.84334" lon="9.48285"/>
            <trkpt lat="42.84346" lon="9.48276"/>
            <trkpt lat="42.8437" lon="9.48247"/>
            <trkpt lat="42.84381" lon="9.48238"/>
            <trkpt lat="42.8439" lon="9.48232"/>
            <trkpt lat="42.84397" lon="9.48228"/>
            <trkpt lat="42.84403" lon="9.48226"/>
            <trkpt lat="42.84409" lon="9.48226"/>
            <trkpt lat="42.84418" lon="9.48227"/>
            <trkpt lat="42.84425" lon="9.4823"/>
            <trkpt lat="42.84482" lon="9.48273"/>
            <trkpt lat="42.84531" lon="9.48306"/>
            <trkpt lat="42.84544" lon="9.48312"/>
            <trkpt lat="42.84553" lon="9.48311"/>
            <trkpt lat="42.84559" lon="9.48309"/>
            <trkpt lat="42.84568" lon="9.48305"/>
            <trkpt lat="42.84579" lon="9.48295"/>
            <trkpt lat="42.84588" lon="9.48286"/>
            <trkpt lat="42.84601" lon="9.48275"/>
            <trkpt lat="42.84613" lon="9.48271"/>
            <trkpt lat="42.84637" lon="9.48267"/>
            <trkpt lat="42.84668" lon="9.48262"/>
            <trkpt lat="42.84668" lon="9.48262"/>
            <trkpt lat="42.84681" lon="9.48254"/>
            <trkpt lat="42.8469" lon="9.48242"/>
            <trkpt lat="42.84708" lon="9.48207"/>
            <trkpt lat="42.84714" lon="9.48199"/>
            <trkpt lat="42.84722" lon="9.48192"/>
            <trkpt lat="42.8473" lon="9.48187"/>
            <trkpt lat="42.84744" lon="9.48184"/>
            <trkpt lat="42.84769" lon="9.48182"/>
            <trkpt lat="42.84792" lon="9.48181"/>
            <trkpt lat="42.84813" lon="9.48185"/>
            <trkpt lat="42.8485" lon="9.48205"/>
            <trkpt lat="42.8487" lon="9.48209"/>
            <trkpt lat="42.84881" lon="9.48208"/>
            <trkpt lat="42.84894" lon="9.48209"/>
            <trkpt lat="42.84899" lon="9.48212"/>
            <trkpt lat="42.84906" lon="9.48215"/>
            <trkpt lat="42.84915" lon="9.48222"/>
            <trkpt lat="42.84938" lon="9.48246"/>
            <trkpt lat="42.84952" lon="9.48265"/>
            <trkpt lat="42.84974" lon="9.48286"/>
            <trkpt lat="42.84994" lon="9.48294"/>
            <trkpt lat="42.85012" lon="9.48296"/>
            <trkpt lat="42.85046" lon="9.48293"/>
            <trkpt lat="42.85065" lon="9.48296"/>
            <trkpt lat="42.85071" lon="9.483"/>
            <trkpt lat="42.85073" lon="9.48303"/>
            <trkpt lat="42.85079" lon="9.48312"/>
            <trkpt lat="42.85081" lon="9.48318"/>
            <trkpt lat="42.85083" lon="9.48327"/>
            <trkpt lat="42.85083" lon="9.48366"/>
            <trkpt lat="42.85086" lon="9.48393"/>
            <trkpt lat="42.85115" lon="9.48467"/>
            <trkpt lat="42.85132" lon="9.48494"/>
            <trkpt lat="42.8514" lon="9.48499"/>
            <trkpt lat="42.8516" lon="9.48506"/>
            <trkpt lat="42.85173" lon="9.48506"/>
            <trkpt lat="42.85185" lon="9.48504"/>
            <trkpt lat="42.85205" lon="9.48495"/>
            <trkpt lat="42.85214" lon="9.48485"/>
            <trkpt lat="42.8522" lon="9.48476"/>
            <trkpt lat="42.85236" lon="9.48441"/>
            <trkpt lat="42.85253" lon="9.4841"/>
            <trkpt lat="42.85257" lon="9.48405"/>
            <trkpt lat="42.8527" lon="9.48396"/>
            <trkpt lat="42.85285" lon="9.48389"/>
            <trkpt lat="42.85297" lon="9.48379"/>
            <trkpt lat="42.85303" lon="9.4837"/>
            <trkpt lat="42.85307" lon="9.48354"/>
            <trkpt lat="42.85315" lon="9.48334"/>
            <trkpt lat="42.85322" lon="9.48323"/>
            <trkpt lat="42.85328" lon="9.48317"/>
            <trkpt lat="42.85336" lon="9.48314"/>
            <trkpt lat="42.85347" lon="9.48314"/>
            <trkpt lat="42.85388" lon="9.48319"/>
            <trkpt lat="42.854" lon="9.48318"/>
            <trkpt lat="42.85408" lon="9.48315"/>
            <trkpt lat="42.8542" lon="9.48306"/>
            <trkpt lat="42.85432" lon="9.4829"/>
            <trkpt lat="42.85451" lon="9.48255"/>
            <trkpt lat="42.85457" lon="9.48247"/>
            <trkpt lat="42.85461" lon="9.48244"/>
            <trkpt lat="42.85465" lon="9.48241"/>
            <trkpt lat="42.85471" lon="9.48239"/>
            <trkpt lat="42.85477" lon="9.48238"/>
            <trkpt lat="42.85484" lon="9.4824"/>
            <trkpt lat="42.8549" lon="9.48242"/>
            <trkpt lat="42.85495" lon="9.48245"/>
            <trkpt lat="42.85523" lon="9.48266"/>
            <trkpt lat="42.85528" lon="9.48269"/>
            <trkpt lat="42.85535" lon="9.48271"/>
            <trkpt lat="42.85605" lon="9.48266"/>
            <trkpt lat="42.85611" lon="9.48265"/>
            <trkpt lat="42.8562" lon="9.48261"/>
            <trkpt lat="42.85637" lon="9.48248"/>
            <trkpt lat="42.85661" lon="9.48224"/>
            <trkpt lat="42.8567" lon="9.48213"/>
            <trkpt lat="42.8568" lon="9.48203"/>
            <trkpt lat="42.85689" lon="9.48197"/>
            <trkpt lat="42.85711" lon="9.48185"/>
            <trkpt lat="42.85719" lon="9.48179"/>
            <trkpt lat="42.85735" lon="9.4816"/>
            <trkpt lat="42.85741" lon="9.48154"/>
            <trkpt lat="42.85747" lon="9.48146"/>
            <trkpt lat="42.85754" lon="9.48142"/>
            <trkpt lat="42.85775" lon="9.48135"/>
            <trkpt lat="42.85822" lon="9.48128"/>
            <trkpt lat="42.85863" lon="9.48116"/>
            <trkpt lat="42.85875" lon="9.4811"/>
            <trkpt lat="42.85885" lon="9.48103"/>
            <trkpt lat="42.85892" lon="9.48094"/>
            <trkpt lat="42.85916" lon="9.48047"/>
            <trkpt lat="42.85931" lon="9.48022"/>
            <trkpt lat="42.8597" lon="9.47973"/>
            <trkpt lat="42.85994" lon="9.47946"/>
            <trkpt lat="42.86011" lon="9.47932"/>
            <trkpt lat="42.86024" lon="9.47928"/>
            <trkpt lat="42.86032" lon="9.47929"/>
            <trkpt lat="42.8604" lon="9.47932"/>
            <trkpt lat="42.86047" lon="9.47935"/>
            <trkpt lat="42.86053" lon="9.4794"/>
            <trkpt lat="42.86059" lon="9.47946"/>
            <trkpt lat="42.86065" lon="9.47955"/>
            <trkpt lat="42.86069" lon="9.47965"/>
            <trkpt lat="42.86071" lon="9.47977"/>
            <trkpt lat="42.86077" lon="9.4804"/>
            <trkpt lat="42.8608" lon="9.48056"/>
            <trkpt lat="42.86091" lon="9.48084"/>
            <trkpt lat="42.86101" lon="9.48099"/>
            <trkpt lat="42.8611" lon="9.48106"/>
            <trkpt lat="42.86121" lon="9.4811"/>
            <trkpt lat="42.86135" lon="9.48113"/>
            <trkpt lat="42.86158" lon="9.48115"/>
            <trkpt lat="42.86178" lon="9.48114"/>
            <trkpt lat="42.86179" lon="9.48114"/>
            <trkpt lat="42.86218" lon="9.48119"/>
            <trkpt lat="42.8623" lon="9.48123"/>
            <trkpt lat="42.86258" lon="9.48136"/>
            <trkpt lat="42.86268" lon="9.48138"/>
            <trkpt lat="42.86327" lon="9.48132"/>
            <trkpt lat="42.86351" lon="9.48131"/>
            <trkpt lat="42.86362" lon="9.48132"/>
            <trkpt lat="42.86369" lon="9.48136"/>
            <trkpt lat="42.86377" lon="9.48142"/>
            <trkpt lat="42.86396" lon="9.48163"/>
            <trkpt lat="42.864" lon="9.4817"/>
            <trkpt lat="42.8641" lon="9.48174"/>
            <trkpt lat="42.86418" lon="9.48177"/>
            <trkpt lat="42.86429" lon="9.48178"/>
            <trkpt lat="42.86437" lon="9.48177"/>
            <trkpt lat="42.86445" lon="9.48174"/>
            <trkpt lat="42.86451" lon="9.48169"/>
            <trkpt lat="42.86459" lon="9.48161"/>
            <trkpt lat="42.86486" lon="9.48126"/>
            <trkpt lat="42.86495" lon="9.48116"/>
            <trkpt lat="42.86504" lon="9.4811"/>
            <trkpt lat="42.86515" lon="9.48105"/>
            <trkpt lat="42.86547" lon="9.48097"/>
            <trkpt lat="42.86557" lon="9.48093"/>
            <trkpt lat="42.8659" lon="9.4807"/>
            <trkpt lat="42.86598" lon="9.48068"/>
            <trkpt lat="42.86612" lon="9.48068"/>
            <trkpt lat="42.86658" lon="9.48082"/>
            <trkpt lat="42.8668" lon="9.48091"/>
            <trkpt lat="42.86706" lon="9.48098"/>
            <trkpt lat="42.8672" lon="9.481"/>
            <trkpt lat="42.8673" lon="9.48099"/>
            <trkpt lat="42.86743" lon="9.48095"/>
            <trkpt lat="42.86791" lon="9.48048"/>
            <trkpt lat="42.8681" lon="9.48032"/>
            <trkpt lat="42.86841" lon="9.48004"/>
            <trkpt lat="42.8685" lon="9.47993"/>
            <trkpt lat="42.86865" lon="9.47967"/>
            <trkpt lat="42.86873" lon="9.47953"/>
            <trkpt lat="42.86881" lon="9.47936"/>
            <trkpt lat="42.86888" lon="9.47925"/>
            <trkpt lat="42.86909" lon="9.4789"/>
            <trkpt lat="42.86929" lon="9.47847"/>
            <trkpt lat="42.86948" lon="9.478"/>
            <trkpt lat="42.86952" lon="9.47796"/>
            <trkpt lat="42.86957" lon="9.47792"/>
            <trkpt lat="42.8696" lon="9.47791"/>
            <trkpt lat="42.8697" lon="9.47789"/>
            <trkpt lat="42.86985" lon="9.47789"/>
            <trkpt lat="42.8701" lon="9.47787"/>
            <trkpt lat="42.87016" lon="9.47785"/>
            <trkpt lat="42.87021" lon="9.4778"/>
            <trkpt lat="42.87027" lon="9.47773"/>
            <trkpt lat="42.87029" lon="9.47763"/>
            <trkpt lat="42.8703" lon="9.47753"/>
            <trkpt lat="42.87029" lon="9.47742"/>
            <trkpt lat="42.87029" lon="9.47731"/>
            <trkpt lat="42.8703" lon="9.47702"/>
            <trkpt lat="42.87036" lon="9.47664"/>
            <trkpt lat="42.87041" lon="9.47656"/>
            <trkpt lat="42.87044" lon="9.47652"/>
            <trkpt lat="42.87048" lon="9.47649"/>
            <trkpt lat="42.87054" lon="9.47649"/>
            <trkpt lat="42.87058" lon="9.4765"/>
            <trkpt lat="42.87061" lon="9.47653"/>
            <trkpt lat="42.87064" lon="9.47663"/>
            <trkpt lat="42.8707" lon="9.47693"/>
            <trkpt lat="42.87076" lon="9.47708"/>
            <trkpt lat="42.87082" lon="9.4772"/>
            <trkpt lat="42.87105" lon="9.47747"/>
            <trkpt lat="42.87134" lon="9.4777"/>
            <trkpt lat="42.87148" lon="9.47777"/>
            <trkpt lat="42.87158" lon="9.47778"/>
            <trkpt lat="42.87158" lon="9.47778"/>
            <trkpt lat="42.87158" lon="9.47778"/>
            <trkpt lat="42.87162" lon="9.47778"/>
            <trkpt lat="42.87165" lon="9.47777"/>
            <trkpt lat="42.8717" lon="9.47776"/>
            <trkpt lat="42.87188" lon="9.47748"/>
            <trkpt lat="42.87192" lon="9.47741"/>
            <trkpt lat="42.87202" lon="9.47719"/>
            <trkpt lat="42.87226" lon="9.47654"/>
            <trkpt lat="42.87235" lon="9.47619"/>
            <trkpt lat="42.87243" lon="9.47585"/>
            <trkpt lat="42.87254" lon="9.47551"/>
            <trkpt lat="42.87265" lon="9.47519"/>
            <trkpt lat="42.87295" lon="9.47459"/>
            <trkpt lat="42.87341" lon="9.47387"/>
            <trkpt lat="42.87351" lon="9.47369"/>
            <trkpt lat="42.87356" lon="9.47356"/>
            <trkpt lat="42.87358" lon="9.47352"/>
            <trkpt lat="42.87375" lon="9.47336"/>
            <trkpt lat="42.87393" lon="9.47314"/>
            <trkpt lat="42.87407" lon="9.47293"/>
            <trkpt lat="42.87411" lon="9.47288"/>
            <trkpt lat="42.87419" lon="9.47283"/>
            <trkpt lat="42.87435" lon="9.47276"/>
            <trkpt lat="42.87445" lon="9.47269"/>
            <trkpt lat="42.87449" lon="9.47263"/>
            <trkpt lat="42.87455" lon="9.47254"/>
            <trkpt lat="42.87459" lon="9.47243"/>
            <trkpt lat="42.87464" lon="9.47222"/>
            <trkpt lat="42.87472" lon="9.47197"/>
            <trkpt lat="42.87485" lon="9.47187"/>
            <trkpt lat="42.87491" lon="9.47184"/>
            <trkpt lat="42.87501" lon="9.47183"/>
            <trkpt lat="42.87519" lon="9.47187"/>
            <trkpt lat="42.87571" lon="9.47208"/>
            <trkpt lat="42.87647" lon="9.47241"/>
            <trkpt lat="42.8773" lon="9.47273"/>
            <trkpt lat="42.87803" lon="9.47306"/>
            <trkpt lat="42.87812" lon="9.4731"/>
            <trkpt lat="42.87814" lon="9.47313"/>
            <trkpt lat="42.8782" lon="9.47317"/>
            <trkpt lat="42.87824" lon="9.47323"/>
            <trkpt lat="42.87829" lon="9.47332"/>
            <trkpt lat="42.87834" lon="9.47348"/>
            <trkpt lat="42.87835" lon="9.47356"/>
            <trkpt lat="42.87834" lon="9.47377"/>
            <trkpt lat="42.87811" lon="9.47467"/>
            <trkpt lat="42.87804" lon="9.47503"/>
            <trkpt lat="42.87802" lon="9.47521"/>
            <trkpt lat="42.87802" lon="9.47522"/>
            <trkpt lat="42.87802" lon="9.47539"/>
            <trkpt lat="42.87804" lon="9.47552"/>
            <trkpt lat="42.8781" lon="9.47566"/>
            <trkpt lat="42.87818" lon="9.47579"/>
            <trkpt lat="42.87828" lon="9.4759"/>
            <trkpt lat="42.87834" lon="9.47598"/>
            <trkpt lat="42.87845" lon="9.47617"/>
            <trkpt lat="42.87857" lon="9.47673"/>
            <trkpt lat="42.8786" lon="9.47684"/>
            <trkpt lat="42.8787" lon="9.47703"/>
            <trkpt lat="42.87904" lon="9.47736"/>
            <trkpt lat="42.87919" lon="9.47757"/>
            <trkpt lat="42.87922" lon="9.4776"/>
            <trkpt lat="42.87928" lon="9.47764"/>
            <trkpt lat="42.87937" lon="9.47766"/>
            <trkpt lat="42.87948" lon="9.47764"/>
            <trkpt lat="42.87967" lon="9.4776"/>
            <trkpt lat="42.87993" lon="9.47751"/>
            <trkpt lat="42.88024" lon="9.47743"/>
            <trkpt lat="42.88049" lon="9.47745"/>
            <trkpt lat="42.88065" lon="9.4775"/>
            <trkpt lat="42.88079" lon="9.47751"/>
            <trkpt lat="42.8809" lon="9.47751"/>
            <trkpt lat="42.88144" lon="9.47729"/>
            <trkpt lat="42.88177" lon="9.47718"/>
            <trkpt lat="42.88185" lon="9.47714"/>
            <trkpt lat="42.88194" lon="9.47708"/>
            <trkpt lat="42.88219" lon="9.47689"/>
            <trkpt lat="42.88223" lon="9.47685"/>
            <trkpt lat="42.88237" lon="9.47672"/>
            <trkpt lat="42.88262" lon="9.47652"/>
            <trkpt lat="42.88289" lon="9.4763"/>
            <trkpt lat="42.88306" lon="9.47619"/>
            <trkpt lat="42.88339" lon="9.47601"/>
            <trkpt lat="42.88353" lon="9.47594"/>
            <trkpt lat="42.88369" lon="9.47585"/>
            <trkpt lat="42.88384" lon="9.47574"/>
            <trkpt lat="42.88414" lon="9.47536"/>
            <trkpt lat="42.88439" lon="9.47503"/>
            <trkpt lat="42.88467" lon="9.47479"/>
            <trkpt lat="42.88487" lon="9.47462"/>
            <trkpt lat="42.88498" lon="9.47451"/>
            <trkpt lat="42.88506" lon="9.47441"/>
            <trkpt lat="42.88511" lon="9.4743"/>
            <trkpt lat="42.8852" lon="9.47402"/>
            <trkpt lat="42.88526" lon="9.47376"/>
            <trkpt lat="42.88537" lon="9.47355"/>
            <trkpt lat="42.88544" lon="9.47345"/>
            <trkpt lat="42.88549" lon="9.47341"/>
            <trkpt lat="42.88558" lon="9.47336"/>
            <trkpt lat="42.88577" lon="9.47331"/>
            <trkpt lat="42.88665" lon="9.47312"/>
            <trkpt lat="42.88697" lon="9.4731"/>
            <trkpt lat="42.88743" lon="9.47316"/>
            <trkpt lat="42.88753" lon="9.47317"/>
            <trkpt lat="42.88773" lon="9.47319"/>
            <trkpt lat="42.88782" lon="9.47321"/>
            <trkpt lat="42.88833" lon="9.47327"/>
            <trkpt lat="42.88866" lon="9.47332"/>
            <trkpt lat="42.8897" lon="9.47347"/>
            <trkpt lat="42.89016" lon="9.47359"/>
            <trkpt lat="42.89062" lon="9.47367"/>
            <trkpt lat="42.89063" lon="9.47368"/>
            <trkpt lat="42.89116" lon="9.47383"/>
            <trkpt lat="42.8916" lon="9.4739"/>
            <trkpt lat="42.89196" lon="9.47396"/>
            <trkpt lat="42.89232" lon="9.47405"/>
            <trkpt lat="42.89255" lon="9.47412"/>
            <trkpt lat="42.89275" lon="9.47415"/>
            <trkpt lat="42.89285" lon="9.47415"/>
            <trkpt lat="42.89294" lon="9.47413"/>
            <trkpt lat="42.89322" lon="9.47403"/>
            <trkpt lat="42.8934" lon="9.47394"/>
            <trkpt lat="42.89367" lon="9.47375"/>
            <trkpt lat="42.89432" lon="9.47326"/>
            <trkpt lat="42.89456" lon="9.4731"/>
            <trkpt lat="42.89503" lon="9.47275"/>
            <trkpt lat="42.89544" lon="9.47258"/>
            <trkpt lat="42.89572" lon="9.47251"/>
            <trkpt lat="42.89629" lon="9.47249"/>
            <trkpt lat="42.8964" lon="9.47246"/>
            <trkpt lat="42.89675" lon="9.47233"/>
            <trkpt lat="42.89703" lon="9.4722"/>
            <trkpt lat="42.89715" lon="9.47214"/>
            <trkpt lat="42.89725" lon="9.47211"/>
            <trkpt lat="42.89741" lon="9.4721"/>
            <trkpt lat="42.89757" lon="9.47211"/>
            <trkpt lat="42.89793" lon="9.47218"/>
            <trkpt lat="42.89806" lon="9.47223"/>
            <trkpt lat="42.89885" lon="9.47254"/>
            <trkpt lat="42.89926" lon="9.47275"/>
            <trkpt lat="42.8993" lon="9.47277"/>
            <trkpt lat="42.8997" lon="9.47302"/>
            <trkpt lat="42.89992" lon="9.47314"/>
            <trkpt lat="42.90004" lon="9.47318"/>
            <trkpt lat="42.90015" lon="9.4732"/>
            <trkpt lat="42.90024" lon="9.47321"/>
            <trkpt lat="42.90041" lon="9.47317"/>
            <trkpt lat="42.9007" lon="9.47299"/>
            <trkpt lat="42.90113" lon="9.4726"/>
            <trkpt lat="42.90152" lon="9.47232"/>
            <trkpt lat="42.90167" lon="9.47224"/>
            <trkpt lat="42.90175" lon="9.47221"/>
            <trkpt lat="42.90184" lon="9.4722"/>
            <trkpt lat="42.90196" lon="9.47221"/>
            <trkpt lat="42.90232" lon="9.47234"/>
            <trkpt lat="42.90245" lon="9.4724"/>
            <trkpt lat="42.90255" lon="9.47242"/>
            <trkpt lat="42.90261" lon="9.47242"/>
            <trkpt lat="42.9027" lon="9.47239"/>
            <trkpt lat="42.90279" lon="9.47231"/>
            <trkpt lat="42.90285" lon="9.47219"/>
            <trkpt lat="42.90292" lon="9.47198"/>
            <trkpt lat="42.90305" lon="9.47152"/>
            <trkpt lat="42.90318" lon="9.47124"/>
            <trkpt lat="42.90379" lon="9.47021"/>
            <trkpt lat="42.90381" lon="9.47018"/>
            <trkpt lat="42.90439" lon="9.46928"/>
            <trkpt lat="42.90487" lon="9.4685"/>
            <trkpt lat="42.9055" lon="9.46751"/>
            <trkpt lat="42.90562" lon="9.46735"/>
            <trkpt lat="42.90592" lon="9.46714"/>
            <trkpt lat="42.90605" lon="9.46707"/>
            <trkpt lat="42.90625" lon="9.46699"/>
            <trkpt lat="42.90647" lon="9.46693"/>
            <trkpt lat="42.90665" lon="9.46692"/>
            <trkpt lat="42.90676" lon="9.46692"/>
            <trkpt lat="42.90681" lon="9.46694"/>
            <trkpt lat="42.90704" lon="9.46706"/>
            <trkpt lat="42.90785" lon="9.4678"/>
            <trkpt lat="42.90803" lon="9.46803"/>
            <trkpt lat="42.90827" lon="9.46841"/>
            <trkpt lat="42.90847" lon="9.46884"/>
            <trkpt lat="42.90864" lon="9.46911"/>
            <trkpt lat="42.90883" lon="9.46928"/>
            <trkpt lat="42.9091" lon="9.46948"/>
            <trkpt lat="42.90922" lon="9.46963"/>
            <trkpt lat="42.90935" lon="9.46984"/>
            <trkpt lat="42.90946" lon="9.47021"/>
            <trkpt lat="42.90982" lon="9.47141"/>
            <trkpt lat="42.90997" lon="9.47157"/>
            <trkpt lat="42.91011" lon="9.47163"/>
            <trkpt lat="42.91033" lon="9.4716"/>
            <trkpt lat="42.91081" lon="9.47142"/>
            <trkpt lat="42.91117" lon="9.47115"/>
            <trkpt lat="42.91137" lon="9.47091"/>
            <trkpt lat="42.91154" lon="9.47064"/>
            <trkpt lat="42.91172" lon="9.47021"/>
            <trkpt lat="42.91177" lon="9.47008"/>
            <trkpt lat="42.91188" lon="9.46987"/>
            <trkpt lat="42.91204" lon="9.46965"/>
            <trkpt lat="42.91222" lon="9.46955"/>
            <trkpt lat="42.91251" lon="9.46949"/>
            <trkpt lat="42.9126" lon="9.4695"/>
            <trkpt lat="42.9129" lon="9.46954"/>
            <trkpt lat="42.91302" lon="9.46961"/>
            <trkpt lat="42.91327" lon="9.46968"/>
            <trkpt lat="42.91361" lon="9.46977"/>
            <trkpt lat="42.91456" lon="9.47007"/>
            <trkpt lat="42.91505" lon="9.4702"/>
            <trkpt lat="42.91526" lon="9.47021"/>
            <trkpt lat="42.9156" lon="9.4702"/>
            <trkpt lat="42.91606" lon="9.4702"/>
            <trkpt lat="42.91618" lon="9.47021"/>
            <trkpt lat="42.91633" lon="9.47024"/>
            <trkpt lat="42.91666" lon="9.47026"/>
            <trkpt lat="42.91695" lon="9.4703"/>
            <trkpt lat="42.91721" lon="9.47031"/>
            <trkpt lat="42.91795" lon="9.47024"/>
            <trkpt lat="42.91815" lon="9.47021"/>
            <trkpt lat="42.91824" lon="9.4702"/>
            <trkpt lat="42.9183" lon="9.47021"/>
            <trkpt lat="42.91851" lon="9.47026"/>
            <trkpt lat="42.91867" lon="9.47032"/>
            <trkpt lat="42.91874" lon="9.47034"/>
            <trkpt lat="42.91891" lon="9.47042"/>
            <trkpt lat="42.91918" lon="9.4707"/>
            <trkpt lat="42.91942" lon="9.47101"/>
            <trkpt lat="42.91982" lon="9.4715"/>
            <trkpt lat="42.91993" lon="9.47155"/>
            <trkpt lat="42.92005" lon="9.47157"/>
            <trkpt lat="42.92022" lon="9.4715"/>
            <trkpt lat="42.9204" lon="9.47134"/>
            <trkpt lat="42.92059" lon="9.47113"/>
            <trkpt lat="42.92084" lon="9.47063"/>
            <trkpt lat="42.92096" lon="9.47027"/>
            <trkpt lat="42.92098" lon="9.47021"/>
            <trkpt lat="42.92126" lon="9.46953"/>
            <trkpt lat="42.92145" lon="9.46925"/>
            <trkpt lat="42.92159" lon="9.46914"/>
            <trkpt lat="42.92168" lon="9.46908"/>
            <trkpt lat="42.92185" lon="9.46905"/>
            <trkpt lat="42.92207" lon="9.46914"/>
            <trkpt lat="42.92241" lon="9.46948"/>
            <trkpt lat="42.92247" lon="9.4696"/>
            <trkpt lat="42.92252" lon="9.46969"/>
            <trkpt lat="42.92274" lon="9.4702"/>
            <trkpt lat="42.92274" lon="9.47021"/>
            <trkpt lat="42.92287" lon="9.47046"/>
            <trkpt lat="42.92316" lon="9.47097"/>
            <trkpt lat="42.92324" lon="9.47104"/>
            <trkpt lat="42.92344" lon="9.47127"/>
            <trkpt lat="42.92363" lon="9.47144"/>
            <trkpt lat="42.92377" lon="9.47151"/>
            <trkpt lat="42.92399" lon="9.47152"/>
            <trkpt lat="42.92415" lon="9.47148"/>
            <trkpt lat="42.92432" lon="9.47138"/>
            <trkpt lat="42.9246" lon="9.47114"/>
            <trkpt lat="42.92473" lon="9.47094"/>
            <trkpt lat="42.92489" lon="9.47063"/>
            <trkpt lat="42.92501" lon="9.47021"/>
            <trkpt lat="42.92504" lon="9.47012"/>
            <trkpt lat="42.92519" lon="9.4692"/>
            <trkpt lat="42.92524" lon="9.46903"/>
            <trkpt lat="42.92536" lon="9.46882"/>
            <trkpt lat="42.92559" lon="9.4685"/>
            <trkpt lat="42.92571" lon="9.46825"/>
            <trkpt lat="42.9258" lon="9.4679"/>
            <trkpt lat="42.92601" lon="9.46706"/>
            <trkpt lat="42.92612" lon="9.46671"/>
            <trkpt lat="42.92613" lon="9.46665"/>
            <trkpt lat="42.92622" lon="9.46646"/>
            <trkpt lat="42.92628" lon="9.46638"/>
            <trkpt lat="42.92641" lon="9.4663"/>
            <trkpt lat="42.92651" lon="9.46627"/>
            <trkpt lat="42.92668" lon="9.46625"/>
            <trkpt lat="42.92682" lon="9.46627"/>
            <trkpt lat="42.92695" lon="9.46637"/>
            <trkpt lat="42.92736" lon="9.46677"/>
            <trkpt lat="42.92745" lon="9.46684"/>
            <trkpt lat="42.92753" lon="9.46685"/>
            <trkpt lat="42.92772" lon="9.46687"/>
            <trkpt lat="42.92797" lon="9.46696"/>
            <trkpt lat="42.92812" lon="9.46696"/>
            <trkpt lat="42.9283" lon="9.46695"/>
            <trkpt lat="42.92879" lon="9.46701"/>
            <trkpt lat="42.929" lon="9.46699"/>
            <trkpt lat="42.92921" lon="9.46686"/>
            <trkpt lat="42.92959" lon="9.46653"/>
            <trkpt lat="42.93003" lon="9.46634"/>
            <trkpt lat="42.93013" lon="9.46627"/>
            <trkpt lat="42.93021" lon="9.46619"/>
            <trkpt lat="42.93026" lon="9.46613"/>
            <trkpt lat="42.93036" lon="9.46599"/>
            <trkpt lat="42.93068" lon="9.46533"/>
            <trkpt lat="42.93077" lon="9.46509"/>
            <trkpt lat="42.93086" lon="9.46491"/>
            <trkpt lat="42.93093" lon="9.46482"/>
            <trkpt lat="42.93106" lon="9.46468"/>
            <trkpt lat="42.93115" lon="9.4646"/>
            <trkpt lat="42.93124" lon="9.46453"/>
            <trkpt lat="42.93149" lon="9.46437"/>
            <trkpt lat="42.93158" lon="9.46435"/>
            <trkpt lat="42.93168" lon="9.46436"/>
            <trkpt lat="42.93175" lon="9.46438"/>
            <trkpt lat="42.93185" lon="9.46441"/>
            <trkpt lat="42.93201" lon="9.46453"/>
            <trkpt lat="42.93229" lon="9.46476"/>
            <trkpt lat="42.93234" lon="9.4648"/>
            <trkpt lat="42.93244" lon="9.46485"/>
            <trkpt lat="42.93251" lon="9.46485"/>
            <trkpt lat="42.93271" lon="9.46474"/>
            <trkpt lat="42.93303" lon="9.46449"/>
            <trkpt lat="42.9331" lon="9.46442"/>
            <trkpt lat="42.93329" lon="9.46427"/>
            <trkpt lat="42.93341" lon="9.46422"/>
            <trkpt lat="42.93359" lon="9.46424"/>
            <trkpt lat="42.93368" lon="9.46426"/>
            <trkpt lat="42.93398" lon="9.46437"/>
            <trkpt lat="42.93403" lon="9.46439"/>
            <trkpt lat="42.93416" lon="9.46444"/>
            <trkpt lat="42.93441" lon="9.4646"/>
            <trkpt lat="42.93457" lon="9.46478"/>
            <trkpt lat="42.93468" lon="9.46493"/>
            <trkpt lat="42.93471" lon="9.46499"/>
            <trkpt lat="42.93473" lon="9.46502"/>
            <trkpt lat="42.93482" lon="9.46522"/>
            <trkpt lat="42.93487" lon="9.46535"/>
            <trkpt lat="42.93488" lon="9.46559"/>
            <trkpt lat="42.93489" lon="9.46576"/>
            <trkpt lat="42.93492" lon="9.46594"/>
            <trkpt lat="42.93495" lon="9.46608"/>
            <trkpt lat="42.93504" lon="9.46637"/>
            <trkpt lat="42.93515" lon="9.46665"/>
            <trkpt lat="42.93521" lon="9.4669"/>
            <trkpt lat="42.93523" lon="9.46776"/>
            <trkpt lat="42.93528" lon="9.46794"/>
            <trkpt lat="42.93533" lon="9.46805"/>
            <trkpt lat="42.9356" lon="9.46844"/>
            <trkpt lat="42.93568" lon="9.46851"/>
            <trkpt lat="42.93576" lon="9.46857"/>
            <trkpt lat="42.93583" lon="9.4686"/>
            <trkpt lat="42.93596" lon="9.46862"/>
            <trkpt lat="42.93606" lon="9.46859"/>
            <trkpt lat="42.9362" lon="9.46849"/>
            <trkpt lat="42.93639" lon="9.46824"/>
            <trkpt lat="42.9365" lon="9.46811"/>
            <trkpt lat="42.9369" lon="9.46793"/>
            <trkpt lat="42.93702" lon="9.46785"/>
            <trkpt lat="42.93712" lon="9.46782"/>
            <trkpt lat="42.93715" lon="9.46781"/>
            <trkpt lat="42.93727" lon="9.46779"/>
            <trkpt lat="42.93748" lon="9.46778"/>
            <trkpt lat="42.9378" lon="9.4678"/>
            <trkpt lat="42.93794" lon="9.46776"/>
            <trkpt lat="42.938" lon="9.46772"/>
            <trkpt lat="42.93821" lon="9.46743"/>
            <trkpt lat="42.9383" lon="9.46736"/>
            <trkpt lat="42.93871" lon="9.46719"/>
            <trkpt lat="42.93889" lon="9.46708"/>
            <trkpt lat="42.93898" lon="9.46701"/>
            <trkpt lat="42.93927" lon="9.46658"/>
            <trkpt lat="42.93945" lon="9.46628"/>
            <trkpt lat="42.93963" lon="9.46608"/>
            <trkpt lat="42.93973" lon="9.46599"/>
            <trkpt lat="42.93985" lon="9.46591"/>
            <trkpt lat="42.94003" lon="9.46585"/>
            <trkpt lat="42.94032" lon="9.46571"/>
            <trkpt lat="42.94047" lon="9.46561"/>
            <trkpt lat="42.94061" lon="9.46546"/>
            <trkpt lat="42.94113" lon="9.46487"/>
            <trkpt lat="42.94138" lon="9.4647"/>
            <trkpt lat="42.94155" lon="9.46464"/>
            <trkpt lat="42.94183" lon="9.46467"/>
            <trkpt lat="42.94197" lon="9.46471"/>
            <trkpt lat="42.94224" lon="9.4648"/>
            <trkpt lat="42.94245" lon="9.4648"/>
            <trkpt lat="42.94254" lon="9.46479"/>
            <trkpt lat="42.94263" lon="9.46472"/>
            <trkpt lat="42.94271" lon="9.46458"/>
            <trkpt lat="42.94276" lon="9.46447"/>
            <trkpt lat="42.94278" lon="9.46432"/>
            <trkpt lat="42.94283" lon="9.46388"/>
            <trkpt lat="42.94286" lon="9.4635"/>
            <trkpt lat="42.94291" lon="9.46327"/>
            <trkpt lat="42.94298" lon="9.46307"/>
            <trkpt lat="42.943" lon="9.46303"/>
            <trkpt lat="42.94317" lon="9.46269"/>
            <trkpt lat="42.94325" lon="9.46241"/>
            <trkpt lat="42.94331" lon="9.46211"/>
            <trkpt lat="42.94337" lon="9.46172"/>
            <trkpt lat="42.94339" lon="9.4616"/>
            <trkpt lat="42.94344" lon="9.46141"/>
            <trkpt lat="42.94348" lon="9.46129"/>
            <trkpt lat="42.94353" lon="9.46126"/>
            <trkpt lat="42.94354" lon="9.46125"/>
            <trkpt lat="42.94362" lon="9.46123"/>
            <trkpt lat="42.94371" lon="9.46128"/>
            <trkpt lat="42.94392" lon="9.4616"/>
            <trkpt lat="42.94403" lon="9.46175"/>
            <trkpt lat="42.94422" lon="9.46192"/>
            <trkpt lat="42.94446" lon="9.4621"/>
            <trkpt lat="42.94481" lon="9.46241"/>
            <trkpt lat="42.94485" lon="9.46245"/>
            <trkpt lat="42.94489" lon="9.46247"/>
            <trkpt lat="42.94497" lon="9.46246"/>
            <trkpt lat="42.94501" lon="9.46244"/>
            <trkpt lat="42.94507" lon="9.46237"/>
            <trkpt lat="42.94511" lon="9.46229"/>
            <trkpt lat="42.94525" lon="9.4617"/>
            <trkpt lat="42.94532" lon="9.46154"/>
            <trkpt lat="42.9455" lon="9.46129"/>
            <trkpt lat="42.94586" lon="9.46097"/>
            <trkpt lat="42.94604" lon="9.46083"/>
            <trkpt lat="42.94632" lon="9.46066"/>
            <trkpt lat="42.94652" lon="9.4605"/>
            <trkpt lat="42.94659" lon="9.46042"/>
            <trkpt lat="42.94675" lon="9.45997"/>
            <trkpt lat="42.9468" lon="9.45987"/>
            <trkpt lat="42.94685" lon="9.45982"/>
            <trkpt lat="42.9469" lon="9.45981"/>
            <trkpt lat="42.9472" lon="9.45968"/>
            <trkpt lat="42.94731" lon="9.45959"/>
            <trkpt lat="42.94737" lon="9.4595"/>
            <trkpt lat="42.94742" lon="9.45939"/>
            <trkpt lat="42.94747" lon="9.45923"/>
            <trkpt lat="42.94758" lon="9.45891"/>
            <trkpt lat="42.94772" lon="9.45871"/>
            <trkpt lat="42.94798" lon="9.45836"/>
            <trkpt lat="42.94814" lon="9.4582"/>
            <trkpt lat="42.94859" lon="9.45779"/>
            <trkpt lat="42.94873" lon="9.45767"/>
            <trkpt lat="42.9488" lon="9.45754"/>
            <trkpt lat="42.94888" lon="9.45729"/>
            <trkpt lat="42.94894" lon="9.45691"/>
            <trkpt lat="42.949" lon="9.45668"/>
            <trkpt lat="42.949" lon="9.45666"/>
            <trkpt lat="42.94904" lon="9.45654"/>
            <trkpt lat="42.94911" lon="9.45643"/>
            <trkpt lat="42.94918" lon="9.45636"/>
            <trkpt lat="42.94946" lon="9.45615"/>
            <trkpt lat="42.94985" lon="9.45592"/>
            <trkpt lat="42.94999" lon="9.45591"/>
            <trkpt lat="42.9504" lon="9.45593"/>
            <trkpt lat="42.9505" lon="9.4559"/>
            <trkpt lat="42.95059" lon="9.45586"/>
            <trkpt lat="42.95066" lon="9.45582"/>
            <trkpt lat="42.95096" lon="9.45532"/>
            <trkpt lat="42.95097" lon="9.45529"/>
            <trkpt lat="42.9511" lon="9.45519"/>
            <trkpt lat="42.95111" lon="9.45518"/>
            <trkpt lat="42.95116" lon="9.45515"/>
            <trkpt lat="42.95122" lon="9.45514"/>
            <trkpt lat="42.95129" lon="9.45516"/>
            <trkpt lat="42.95134" lon="9.45519"/>
            <trkpt lat="42.95143" lon="9.45528"/>
            <trkpt lat="42.95176" lon="9.45577"/>
            <trkpt lat="42.95215" lon="9.45632"/>
            <trkpt lat="42.9523" lon="9.45644"/>
            <trkpt lat="42.95239" lon="9.45646"/>
            <trkpt lat="42.95251" lon="9.45646"/>
            <trkpt lat="42.95263" lon="9.45643"/>
            <trkpt lat="42.95339" lon="9.45608"/>
            <trkpt lat="42.95352" lon="9.45605"/>
            <trkpt lat="42.95365" lon="9.45605"/>
            <trkpt lat="42.95383" lon="9.4561"/>
            <trkpt lat="42.95411" lon="9.45625"/>
            <trkpt lat="42.95424" lon="9.45626"/>
            <trkpt lat="42.95445" lon="9.45615"/>
            <trkpt lat="42.95476" lon="9.4559"/>
            <trkpt lat="42.95498" lon="9.45578"/>
            <trkpt lat="42.95516" lon="9.45574"/>
            <trkpt lat="42.95539" lon="9.45573"/>
            <trkpt lat="42.95553" lon="9.4557"/>
            <trkpt lat="42.95563" lon="9.45565"/>
            <trkpt lat="42.95571" lon="9.45558"/>
            <trkpt lat="42.95577" lon="9.45552"/>
            <trkpt lat="42.95593" lon="9.45534"/>
            <trkpt lat="42.95596" lon="9.45531"/>
            <trkpt lat="42.95603" lon="9.45526"/>
            <trkpt lat="42.95614" lon="9.45521"/>
            <trkpt lat="42.95626" lon="9.45517"/>
            <trkpt lat="42.9565" lon="9.45512"/>
            <trkpt lat="42.95654" lon="9.45511"/>
            <trkpt lat="42.95679" lon="9.4551"/>
            <trkpt lat="42.95675" lon="9.45488"/>
            <trkpt lat="42.95672" lon="9.45477"/>
            <trkpt lat="42.95662" lon="9.45454"/>
            <trkpt lat="42.95659" lon="9.45435"/>
            <trkpt lat="42.95656" lon="9.45401"/>
            <trkpt lat="42.95655" lon="9.45394"/>
            <trkpt lat="42.95654" lon="9.4539"/>
            <trkpt lat="42.95653" lon="9.45387"/>
            <trkpt lat="42.95641" lon="9.45352"/>
            <trkpt lat="42.95633" lon="9.45333"/>
            <trkpt lat="42.95629" lon="9.45318"/>
            <trkpt lat="42.9562" lon="9.45277"/>
        </trkseg>
    </trk>
</gpx>
