<?xml version="1.0" encoding="UTF-8" standalone="yes"?>
<gpx xmlns="http://www.topografix.com/GPX/1/1" xmlns:tt="TT" version="1.1" creator="TomTom MyDrive">
    <wpt lat="42.6324" lon="8.9408">
        <type>TT_HARD</type>
    </wpt>
    <wpt lat="42.627264" lon="8.90586">
        <type>TT_HARD</type>
    </wpt>
    <wpt lat="42.602989" lon="8.826711">
        <type>TT_HARD</type>
    </wpt>
    <wpt lat="42.566906" lon="8.757314">
        <type>TT_HARD</type>
    </wpt>
    <rte>
        <name>28 - luglio</name>
        <rtept lat="42.6324" lon="8.9408">
            <type>TT_HARD</type>
        </rtept>
        <rtept lat="42.627264" lon="8.90586">
            <type>TT_HARD</type>
        </rtept>
        <rtept lat="42.602989" lon="8.826711">
            <type>TT_HARD</type>
        </rtept>
        <rtept lat="42.566906" lon="8.757314">
            <type>TT_HARD</type>
        </rtept>
    </rte>
    <trk>
        <name>28 - luglio</name>
        <trkseg>
            <trkpt lat="42.63252" lon="8.94083"/>
            <trkpt lat="42.63255" lon="8.94057"/>
            <trkpt lat="42.63258" lon="8.94037"/>
            <trkpt lat="42.63274" lon="8.9391"/>
            <trkpt lat="42.63277" lon="8.9388"/>
            <trkpt lat="42.63279" lon="8.93861"/>
            <trkpt lat="42.6328" lon="8.93849"/>
            <trkpt lat="42.6328" lon="8.93839"/>
            <trkpt lat="42.63279" lon="8.93833"/>
            <trkpt lat="42.63273" lon="8.93808"/>
            <trkpt lat="42.63269" lon="8.93791"/>
            <trkpt lat="42.63266" lon="8.93779"/>
            <trkpt lat="42.63263" lon="8.93771"/>
            <trkpt lat="42.63251" lon="8.93731"/>
            <trkpt lat="42.63248" lon="8.93721"/>
            <trkpt lat="42.63229" lon="8.93658"/>
            <trkpt lat="42.63226" lon="8.93647"/>
            <trkpt lat="42.63189" lon="8.93528"/>
            <trkpt lat="42.63181" lon="8.93501"/>
            <trkpt lat="42.63161" lon="8.93437"/>
            <trkpt lat="42.63153" lon="8.93415"/>
            <trkpt lat="42.63133" lon="8.93372"/>
            <trkpt lat="42.6312" lon="8.93352"/>
            <trkpt lat="42.63093" lon="8.93309"/>
            <trkpt lat="42.63079" lon="8.93286"/>
            <trkpt lat="42.63072" lon="8.93271"/>
            <trkpt lat="42.63032" lon="8.93209"/>
            <trkpt lat="42.63023" lon="8.93195"/>
            <trkpt lat="42.62974" lon="8.93123"/>
            <trkpt lat="42.62969" lon="8.93121"/>
            <trkpt lat="42.62927" lon="8.93061"/>
            <trkpt lat="42.62919" lon="8.93049"/>
            <trkpt lat="42.62873" lon="8.92982"/>
            <trkpt lat="42.62848" lon="8.92944"/>
            <trkpt lat="42.62843" lon="8.92937"/>
            <trkpt lat="42.62819" lon="8.929"/>
            <trkpt lat="42.62772" lon="8.9283"/>
            <trkpt lat="42.62755" lon="8.92804"/>
            <trkpt lat="42.62747" lon="8.92791"/>
            <trkpt lat="42.62717" lon="8.92746"/>
            <trkpt lat="42.62707" lon="8.92723"/>
            <trkpt lat="42.62702" lon="8.92698"/>
            <trkpt lat="42.62703" lon="8.92682"/>
            <trkpt lat="42.62711" lon="8.92634"/>
            <trkpt lat="42.62741" lon="8.92508"/>
            <trkpt lat="42.62744" lon="8.92484"/>
            <trkpt lat="42.62745" lon="8.92466"/>
            <trkpt lat="42.62745" lon="8.924"/>
            <trkpt lat="42.62744" lon="8.92382"/>
            <trkpt lat="42.62745" lon="8.92354"/>
            <trkpt lat="42.62749" lon="8.92329"/>
            <trkpt lat="42.62751" lon="8.9233"/>
            <trkpt lat="42.62755" lon="8.92331"/>
            <trkpt lat="42.62758" lon="8.9233"/>
            <trkpt lat="42.6276" lon="8.92329"/>
            <trkpt lat="42.62763" lon="8.92327"/>
            <trkpt lat="42.62765" lon="8.92324"/>
            <trkpt lat="42.62765" lon="8.92321"/>
            <trkpt lat="42.62766" lon="8.92317"/>
            <trkpt lat="42.62765" lon="8.92314"/>
            <trkpt lat="42.62763" lon="8.92307"/>
            <trkpt lat="42.6276" lon="8.92305"/>
            <trkpt lat="42.62757" lon="8.92303"/>
            <trkpt lat="42.62754" lon="8.92303"/>
            <trkpt lat="42.62752" lon="8.92303"/>
            <trkpt lat="42.62749" lon="8.92295"/>
            <trkpt lat="42.62748" lon="8.92289"/>
            <trkpt lat="42.62746" lon="8.92279"/>
            <trkpt lat="42.62744" lon="8.92274"/>
            <trkpt lat="42.62732" lon="8.92237"/>
            <trkpt lat="42.62726" lon="8.92226"/>
            <trkpt lat="42.62722" lon="8.9222"/>
            <trkpt lat="42.6271" lon="8.92207"/>
            <trkpt lat="42.62707" lon="8.92205"/>
            <trkpt lat="42.62695" lon="8.92195"/>
            <trkpt lat="42.6263" lon="8.92142"/>
            <trkpt lat="42.62594" lon="8.92112"/>
            <trkpt lat="42.62563" lon="8.9209"/>
            <trkpt lat="42.62562" lon="8.9209"/>
            <trkpt lat="42.62551" lon="8.92084"/>
            <trkpt lat="42.62526" lon="8.92076"/>
            <trkpt lat="42.62479" lon="8.92076"/>
            <trkpt lat="42.62468" lon="8.92071"/>
            <trkpt lat="42.62463" lon="8.92069"/>
            <trkpt lat="42.62454" lon="8.92064"/>
            <trkpt lat="42.62438" lon="8.92049"/>
            <trkpt lat="42.62427" lon="8.92031"/>
            <trkpt lat="42.62421" lon="8.92012"/>
            <trkpt lat="42.62419" lon="8.92001"/>
            <trkpt lat="42.62416" lon="8.9198"/>
            <trkpt lat="42.62416" lon="8.91958"/>
            <trkpt lat="42.62422" lon="8.91906"/>
            <trkpt lat="42.62423" lon="8.91887"/>
            <trkpt lat="42.62422" lon="8.9187"/>
            <trkpt lat="42.62411" lon="8.91807"/>
            <trkpt lat="42.62399" lon="8.91747"/>
            <trkpt lat="42.62388" lon="8.91703"/>
            <trkpt lat="42.62375" lon="8.91668"/>
            <trkpt lat="42.62357" lon="8.91619"/>
            <trkpt lat="42.62352" lon="8.91599"/>
            <trkpt lat="42.62349" lon="8.91575"/>
            <trkpt lat="42.6235" lon="8.91554"/>
            <trkpt lat="42.62355" lon="8.91533"/>
            <trkpt lat="42.62368" lon="8.91489"/>
            <trkpt lat="42.62378" lon="8.91458"/>
            <trkpt lat="42.62381" lon="8.91438"/>
            <trkpt lat="42.62382" lon="8.91431"/>
            <trkpt lat="42.62383" lon="8.91414"/>
            <trkpt lat="42.62382" lon="8.91406"/>
            <trkpt lat="42.62373" lon="8.91349"/>
            <trkpt lat="42.62353" lon="8.91232"/>
            <trkpt lat="42.62349" lon="8.91182"/>
            <trkpt lat="42.62349" lon="8.91106"/>
            <trkpt lat="42.62349" lon="8.91072"/>
            <trkpt lat="42.62366" lon="8.91075"/>
            <trkpt lat="42.62383" lon="8.91085"/>
            <trkpt lat="42.62407" lon="8.91101"/>
            <trkpt lat="42.62419" lon="8.91106"/>
            <trkpt lat="42.62434" lon="8.91109"/>
            <trkpt lat="42.62443" lon="8.91112"/>
            <trkpt lat="42.62447" lon="8.91117"/>
            <trkpt lat="42.62462" lon="8.91153"/>
            <trkpt lat="42.62467" lon="8.91161"/>
            <trkpt lat="42.62477" lon="8.91173"/>
            <trkpt lat="42.62492" lon="8.91203"/>
            <trkpt lat="42.62502" lon="8.91214"/>
            <trkpt lat="42.62518" lon="8.91222"/>
            <trkpt lat="42.62555" lon="8.91232"/>
            <trkpt lat="42.62559" lon="8.91232"/>
            <trkpt lat="42.62638" lon="8.91273"/>
            <trkpt lat="42.62669" lon="8.91287"/>
            <trkpt lat="42.62683" lon="8.91289"/>
            <trkpt lat="42.62695" lon="8.91289"/>
            <trkpt lat="42.62711" lon="8.91288"/>
            <trkpt lat="42.62717" lon="8.91293"/>
            <trkpt lat="42.62727" lon="8.91307"/>
            <trkpt lat="42.62736" lon="8.91318"/>
            <trkpt lat="42.62745" lon="8.91322"/>
            <trkpt lat="42.62767" lon="8.91324"/>
            <trkpt lat="42.62772" lon="8.91325"/>
            <trkpt lat="42.62763" lon="8.91283"/>
            <trkpt lat="42.6276" lon="8.9126"/>
            <trkpt lat="42.62748" lon="8.91196"/>
            <trkpt lat="42.62731" lon="8.91123"/>
            <trkpt lat="42.62729" lon="8.91107"/>
            <trkpt lat="42.62725" lon="8.91085"/>
            <trkpt lat="42.62715" lon="8.91058"/>
            <trkpt lat="42.62695" lon="8.91019"/>
            <trkpt lat="42.6268" lon="8.90989"/>
            <trkpt lat="42.62649" lon="8.90934"/>
            <trkpt lat="42.62622" lon="8.90903"/>
            <trkpt lat="42.62615" lon="8.9089"/>
            <trkpt lat="42.62614" lon="8.90882"/>
            <trkpt lat="42.62615" lon="8.90876"/>
            <trkpt lat="42.62621" lon="8.90866"/>
            <trkpt lat="42.62627" lon="8.90859"/>
            <trkpt lat="42.62629" lon="8.90851"/>
            <trkpt lat="42.62628" lon="8.90839"/>
            <trkpt lat="42.62623" lon="8.90823"/>
            <trkpt lat="42.62615" lon="8.90801"/>
            <trkpt lat="42.62611" lon="8.90788"/>
            <trkpt lat="42.62612" lon="8.90779"/>
            <trkpt lat="42.62618" lon="8.90774"/>
            <trkpt lat="42.6263" lon="8.90773"/>
            <trkpt lat="42.62695" lon="8.90783"/>
            <trkpt lat="42.62725" lon="8.90788"/>
            <trkpt lat="42.62736" lon="8.90785"/>
            <trkpt lat="42.62736" lon="8.90785"/>
            <trkpt lat="42.62725" lon="8.90788"/>
            <trkpt lat="42.62695" lon="8.90783"/>
            <trkpt lat="42.6263" lon="8.90773"/>
            <trkpt lat="42.62618" lon="8.90774"/>
            <trkpt lat="42.62612" lon="8.90779"/>
            <trkpt lat="42.62611" lon="8.90788"/>
            <trkpt lat="42.62615" lon="8.90801"/>
            <trkpt lat="42.62623" lon="8.90823"/>
            <trkpt lat="42.62628" lon="8.90839"/>
            <trkpt lat="42.62629" lon="8.90851"/>
            <trkpt lat="42.62627" lon="8.90859"/>
            <trkpt lat="42.62621" lon="8.90866"/>
            <trkpt lat="42.62615" lon="8.90876"/>
            <trkpt lat="42.62614" lon="8.90882"/>
            <trkpt lat="42.62615" lon="8.9089"/>
            <trkpt lat="42.62622" lon="8.90903"/>
            <trkpt lat="42.62649" lon="8.90934"/>
            <trkpt lat="42.6268" lon="8.90989"/>
            <trkpt lat="42.62695" lon="8.91019"/>
            <trkpt lat="42.62715" lon="8.91058"/>
            <trkpt lat="42.62725" lon="8.91085"/>
            <trkpt lat="42.62729" lon="8.91107"/>
            <trkpt lat="42.62731" lon="8.91123"/>
            <trkpt lat="42.62748" lon="8.91196"/>
            <trkpt lat="42.6276" lon="8.9126"/>
            <trkpt lat="42.62763" lon="8.91283"/>
            <trkpt lat="42.62772" lon="8.91325"/>
            <trkpt lat="42.62767" lon="8.91324"/>
            <trkpt lat="42.62745" lon="8.91322"/>
            <trkpt lat="42.62736" lon="8.91318"/>
            <trkpt lat="42.62727" lon="8.91307"/>
            <trkpt lat="42.62717" lon="8.91293"/>
            <trkpt lat="42.62711" lon="8.91288"/>
            <trkpt lat="42.62695" lon="8.91289"/>
            <trkpt lat="42.62683" lon="8.91289"/>
            <trkpt lat="42.62669" lon="8.91287"/>
            <trkpt lat="42.62638" lon="8.91273"/>
            <trkpt lat="42.62559" lon="8.91232"/>
            <trkpt lat="42.62555" lon="8.91232"/>
            <trkpt lat="42.62518" lon="8.91222"/>
            <trkpt lat="42.62502" lon="8.91214"/>
            <trkpt lat="42.62492" lon="8.91203"/>
            <trkpt lat="42.62477" lon="8.91173"/>
            <trkpt lat="42.62467" lon="8.91161"/>
            <trkpt lat="42.62462" lon="8.91153"/>
            <trkpt lat="42.62447" lon="8.91117"/>
            <trkpt lat="42.62443" lon="8.91112"/>
            <trkpt lat="42.62434" lon="8.91109"/>
            <trkpt lat="42.62419" lon="8.91106"/>
            <trkpt lat="42.62407" lon="8.91101"/>
            <trkpt lat="42.62383" lon="8.91085"/>
            <trkpt lat="42.62366" lon="8.91075"/>
            <trkpt lat="42.62349" lon="8.91072"/>
            <trkpt lat="42.62349" lon="8.91015"/>
            <trkpt lat="42.62351" lon="8.90957"/>
            <trkpt lat="42.62353" lon="8.90885"/>
            <trkpt lat="42.62351" lon="8.9073"/>
            <trkpt lat="42.62347" lon="8.90593"/>
            <trkpt lat="42.62347" lon="8.90534"/>
            <trkpt lat="42.6235" lon="8.90487"/>
            <trkpt lat="42.62353" lon="8.90412"/>
            <trkpt lat="42.62351" lon="8.90383"/>
            <trkpt lat="42.62347" lon="8.90359"/>
            <trkpt lat="42.62343" lon="8.90336"/>
            <trkpt lat="42.62334" lon="8.90303"/>
            <trkpt lat="42.62307" lon="8.90223"/>
            <trkpt lat="42.62296" lon="8.90185"/>
            <trkpt lat="42.62291" lon="8.90168"/>
            <trkpt lat="42.62288" lon="8.90157"/>
            <trkpt lat="42.62287" lon="8.9015"/>
            <trkpt lat="42.62286" lon="8.90133"/>
            <trkpt lat="42.62286" lon="8.90117"/>
            <trkpt lat="42.62284" lon="8.90077"/>
            <trkpt lat="42.62284" lon="8.90065"/>
            <trkpt lat="42.62281" lon="8.9004"/>
            <trkpt lat="42.62276" lon="8.90022"/>
            <trkpt lat="42.62265" lon="8.89995"/>
            <trkpt lat="42.62246" lon="8.89962"/>
            <trkpt lat="42.62222" lon="8.89922"/>
            <trkpt lat="42.62204" lon="8.89893"/>
            <trkpt lat="42.62204" lon="8.89891"/>
            <trkpt lat="42.62184" lon="8.89865"/>
            <trkpt lat="42.62175" lon="8.89856"/>
            <trkpt lat="42.62154" lon="8.89841"/>
            <trkpt lat="42.62141" lon="8.89833"/>
            <trkpt lat="42.62131" lon="8.89826"/>
            <trkpt lat="42.62118" lon="8.89819"/>
            <trkpt lat="42.62112" lon="8.89815"/>
            <trkpt lat="42.62102" lon="8.89806"/>
            <trkpt lat="42.62099" lon="8.89801"/>
            <trkpt lat="42.62094" lon="8.89796"/>
            <trkpt lat="42.6209" lon="8.89791"/>
            <trkpt lat="42.62083" lon="8.89776"/>
            <trkpt lat="42.62081" lon="8.89768"/>
            <trkpt lat="42.62077" lon="8.89754"/>
            <trkpt lat="42.62075" lon="8.89737"/>
            <trkpt lat="42.62075" lon="8.89716"/>
            <trkpt lat="42.62081" lon="8.89656"/>
            <trkpt lat="42.62081" lon="8.89641"/>
            <trkpt lat="42.6208" lon="8.89633"/>
            <trkpt lat="42.62073" lon="8.89601"/>
            <trkpt lat="42.62066" lon="8.89581"/>
            <trkpt lat="42.62025" lon="8.89466"/>
            <trkpt lat="42.62005" lon="8.8941"/>
            <trkpt lat="42.62" lon="8.89394"/>
            <trkpt lat="42.61991" lon="8.8936"/>
            <trkpt lat="42.61989" lon="8.89345"/>
            <trkpt lat="42.61989" lon="8.89307"/>
            <trkpt lat="42.6199" lon="8.89298"/>
            <trkpt lat="42.62005" lon="8.89237"/>
            <trkpt lat="42.62005" lon="8.89234"/>
            <trkpt lat="42.62006" lon="8.89225"/>
            <trkpt lat="42.62008" lon="8.8922"/>
            <trkpt lat="42.6201" lon="8.89215"/>
            <trkpt lat="42.62011" lon="8.89208"/>
            <trkpt lat="42.62011" lon="8.89194"/>
            <trkpt lat="42.6201" lon="8.89183"/>
            <trkpt lat="42.62007" lon="8.89164"/>
            <trkpt lat="42.62005" lon="8.89158"/>
            <trkpt lat="42.61999" lon="8.89138"/>
            <trkpt lat="42.61998" lon="8.89133"/>
            <trkpt lat="42.61995" lon="8.89127"/>
            <trkpt lat="42.61996" lon="8.89123"/>
            <trkpt lat="42.61995" lon="8.89118"/>
            <trkpt lat="42.61995" lon="8.89115"/>
            <trkpt lat="42.61994" lon="8.89113"/>
            <trkpt lat="42.61992" lon="8.8911"/>
            <trkpt lat="42.6199" lon="8.89109"/>
            <trkpt lat="42.61988" lon="8.89107"/>
            <trkpt lat="42.61985" lon="8.89106"/>
            <trkpt lat="42.61983" lon="8.89107"/>
            <trkpt lat="42.61969" lon="8.891"/>
            <trkpt lat="42.61961" lon="8.89097"/>
            <trkpt lat="42.61956" lon="8.89095"/>
            <trkpt lat="42.61951" lon="8.89094"/>
            <trkpt lat="42.61945" lon="8.89093"/>
            <trkpt lat="42.61943" lon="8.89093"/>
            <trkpt lat="42.61941" lon="8.89096"/>
            <trkpt lat="42.61923" lon="8.89094"/>
            <trkpt lat="42.61915" lon="8.89095"/>
            <trkpt lat="42.61904" lon="8.89097"/>
            <trkpt lat="42.61899" lon="8.89099"/>
            <trkpt lat="42.61884" lon="8.89105"/>
            <trkpt lat="42.61879" lon="8.89109"/>
            <trkpt lat="42.6187" lon="8.89115"/>
            <trkpt lat="42.61862" lon="8.89122"/>
            <trkpt lat="42.61856" lon="8.89126"/>
            <trkpt lat="42.61826" lon="8.89153"/>
            <trkpt lat="42.61821" lon="8.89158"/>
            <trkpt lat="42.61801" lon="8.89173"/>
            <trkpt lat="42.61785" lon="8.89179"/>
            <trkpt lat="42.61772" lon="8.89182"/>
            <trkpt lat="42.61765" lon="8.89182"/>
            <trkpt lat="42.61743" lon="8.89182"/>
            <trkpt lat="42.61669" lon="8.89183"/>
            <trkpt lat="42.61621" lon="8.89186"/>
            <trkpt lat="42.6161" lon="8.89188"/>
            <trkpt lat="42.616" lon="8.89191"/>
            <trkpt lat="42.6159" lon="8.89194"/>
            <trkpt lat="42.61567" lon="8.89204"/>
            <trkpt lat="42.61553" lon="8.8921"/>
            <trkpt lat="42.61524" lon="8.89224"/>
            <trkpt lat="42.61464" lon="8.89255"/>
            <trkpt lat="42.61435" lon="8.89269"/>
            <trkpt lat="42.61408" lon="8.89278"/>
            <trkpt lat="42.61391" lon="8.89284"/>
            <trkpt lat="42.61385" lon="8.89282"/>
            <trkpt lat="42.61364" lon="8.89281"/>
            <trkpt lat="42.61344" lon="8.89278"/>
            <trkpt lat="42.61317" lon="8.89268"/>
            <trkpt lat="42.61286" lon="8.89256"/>
            <trkpt lat="42.61221" lon="8.89232"/>
            <trkpt lat="42.61216" lon="8.89231"/>
            <trkpt lat="42.61183" lon="8.89216"/>
            <trkpt lat="42.61163" lon="8.89204"/>
            <trkpt lat="42.61152" lon="8.89195"/>
            <trkpt lat="42.61129" lon="8.89169"/>
            <trkpt lat="42.61085" lon="8.89114"/>
            <trkpt lat="42.61074" lon="8.89101"/>
            <trkpt lat="42.61061" lon="8.89081"/>
            <trkpt lat="42.61056" lon="8.8907"/>
            <trkpt lat="42.61054" lon="8.89067"/>
            <trkpt lat="42.61048" lon="8.89049"/>
            <trkpt lat="42.61044" lon="8.89032"/>
            <trkpt lat="42.61039" lon="8.88995"/>
            <trkpt lat="42.61029" lon="8.88914"/>
            <trkpt lat="42.61021" lon="8.88838"/>
            <trkpt lat="42.61014" lon="8.88773"/>
            <trkpt lat="42.61001" lon="8.88671"/>
            <trkpt lat="42.60994" lon="8.88602"/>
            <trkpt lat="42.60987" lon="8.88536"/>
            <trkpt lat="42.60982" lon="8.88497"/>
            <trkpt lat="42.60969" lon="8.88416"/>
            <trkpt lat="42.60964" lon="8.88408"/>
            <trkpt lat="42.60963" lon="8.88396"/>
            <trkpt lat="42.60925" lon="8.8809"/>
            <trkpt lat="42.60923" lon="8.88073"/>
            <trkpt lat="42.60908" lon="8.87951"/>
            <trkpt lat="42.60904" lon="8.87916"/>
            <trkpt lat="42.60899" lon="8.87878"/>
            <trkpt lat="42.60896" lon="8.87851"/>
            <trkpt lat="42.60886" lon="8.87763"/>
            <trkpt lat="42.60878" lon="8.87695"/>
            <trkpt lat="42.60877" lon="8.8768"/>
            <trkpt lat="42.6086" lon="8.87541"/>
            <trkpt lat="42.60852" lon="8.87476"/>
            <trkpt lat="42.60847" lon="8.87429"/>
            <trkpt lat="42.60842" lon="8.87381"/>
            <trkpt lat="42.60835" lon="8.87315"/>
            <trkpt lat="42.60822" lon="8.87205"/>
            <trkpt lat="42.60823" lon="8.87197"/>
            <trkpt lat="42.60819" lon="8.87168"/>
            <trkpt lat="42.60817" lon="8.87138"/>
            <trkpt lat="42.60813" lon="8.87098"/>
            <trkpt lat="42.60816" lon="8.87095"/>
            <trkpt lat="42.60817" lon="8.87094"/>
            <trkpt lat="42.60819" lon="8.87088"/>
            <trkpt lat="42.60819" lon="8.87083"/>
            <trkpt lat="42.60818" lon="8.87081"/>
            <trkpt lat="42.60817" lon="8.87078"/>
            <trkpt lat="42.60815" lon="8.87075"/>
            <trkpt lat="42.60811" lon="8.87072"/>
            <trkpt lat="42.60794" lon="8.87006"/>
            <trkpt lat="42.60789" lon="8.86987"/>
            <trkpt lat="42.60772" lon="8.8692"/>
            <trkpt lat="42.60752" lon="8.86861"/>
            <trkpt lat="42.6073" lon="8.86805"/>
            <trkpt lat="42.60723" lon="8.86784"/>
            <trkpt lat="42.60715" lon="8.86757"/>
            <trkpt lat="42.60705" lon="8.86717"/>
            <trkpt lat="42.60703" lon="8.86707"/>
            <trkpt lat="42.60696" lon="8.86692"/>
            <trkpt lat="42.60693" lon="8.86685"/>
            <trkpt lat="42.60689" lon="8.86657"/>
            <trkpt lat="42.60676" lon="8.86576"/>
            <trkpt lat="42.60658" lon="8.86479"/>
            <trkpt lat="42.60651" lon="8.86441"/>
            <trkpt lat="42.60633" lon="8.86346"/>
            <trkpt lat="42.60632" lon="8.86339"/>
            <trkpt lat="42.60623" lon="8.86279"/>
            <trkpt lat="42.60623" lon="8.86261"/>
            <trkpt lat="42.60622" lon="8.86235"/>
            <trkpt lat="42.60624" lon="8.86184"/>
            <trkpt lat="42.60629" lon="8.86144"/>
            <trkpt lat="42.60636" lon="8.8611"/>
            <trkpt lat="42.60639" lon="8.86099"/>
            <trkpt lat="42.60643" lon="8.86086"/>
            <trkpt lat="42.60645" lon="8.86078"/>
            <trkpt lat="42.60651" lon="8.86059"/>
            <trkpt lat="42.60653" lon="8.86049"/>
            <trkpt lat="42.60679" lon="8.85986"/>
            <trkpt lat="42.60752" lon="8.8584"/>
            <trkpt lat="42.60791" lon="8.85757"/>
            <trkpt lat="42.608" lon="8.85727"/>
            <trkpt lat="42.60802" lon="8.85717"/>
            <trkpt lat="42.60805" lon="8.85688"/>
            <trkpt lat="42.60805" lon="8.8568"/>
            <trkpt lat="42.60802" lon="8.85652"/>
            <trkpt lat="42.60797" lon="8.8563"/>
            <trkpt lat="42.60786" lon="8.85599"/>
            <trkpt lat="42.60781" lon="8.8559"/>
            <trkpt lat="42.60755" lon="8.85552"/>
            <trkpt lat="42.60743" lon="8.85536"/>
            <trkpt lat="42.60723" lon="8.85511"/>
            <trkpt lat="42.60709" lon="8.85498"/>
            <trkpt lat="42.60702" lon="8.85493"/>
            <trkpt lat="42.60684" lon="8.85476"/>
            <trkpt lat="42.60641" lon="8.85434"/>
            <trkpt lat="42.60628" lon="8.85419"/>
            <trkpt lat="42.60617" lon="8.85403"/>
            <trkpt lat="42.60607" lon="8.8538"/>
            <trkpt lat="42.60591" lon="8.85344"/>
            <trkpt lat="42.60594" lon="8.85342"/>
            <trkpt lat="42.60596" lon="8.85341"/>
            <trkpt lat="42.60597" lon="8.85338"/>
            <trkpt lat="42.60597" lon="8.85334"/>
            <trkpt lat="42.60597" lon="8.85331"/>
            <trkpt lat="42.60597" lon="8.85328"/>
            <trkpt lat="42.60596" lon="8.85324"/>
            <trkpt lat="42.60593" lon="8.85319"/>
            <trkpt lat="42.60589" lon="8.85317"/>
            <trkpt lat="42.60585" lon="8.85316"/>
            <trkpt lat="42.6058" lon="8.85318"/>
            <trkpt lat="42.60579" lon="8.85319"/>
            <trkpt lat="42.60556" lon="8.85281"/>
            <trkpt lat="42.60545" lon="8.85261"/>
            <trkpt lat="42.60537" lon="8.85238"/>
            <trkpt lat="42.60534" lon="8.85226"/>
            <trkpt lat="42.60532" lon="8.8521"/>
            <trkpt lat="42.60532" lon="8.85183"/>
            <trkpt lat="42.60535" lon="8.85154"/>
            <trkpt lat="42.60566" lon="8.84955"/>
            <trkpt lat="42.60572" lon="8.84917"/>
            <trkpt lat="42.60607" lon="8.84684"/>
            <trkpt lat="42.60609" lon="8.84666"/>
            <trkpt lat="42.6061" lon="8.84645"/>
            <trkpt lat="42.6061" lon="8.84604"/>
            <trkpt lat="42.60607" lon="8.84566"/>
            <trkpt lat="42.60602" lon="8.8454"/>
            <trkpt lat="42.60599" lon="8.84524"/>
            <trkpt lat="42.60595" lon="8.84509"/>
            <trkpt lat="42.60591" lon="8.84497"/>
            <trkpt lat="42.60583" lon="8.84475"/>
            <trkpt lat="42.60578" lon="8.84466"/>
            <trkpt lat="42.60572" lon="8.84456"/>
            <trkpt lat="42.60552" lon="8.84435"/>
            <trkpt lat="42.60533" lon="8.84418"/>
            <trkpt lat="42.60502" lon="8.84397"/>
            <trkpt lat="42.60498" lon="8.84394"/>
            <trkpt lat="42.60496" lon="8.84392"/>
            <trkpt lat="42.60488" lon="8.84383"/>
            <trkpt lat="42.60483" lon="8.84376"/>
            <trkpt lat="42.60479" lon="8.84368"/>
            <trkpt lat="42.60459" lon="8.84328"/>
            <trkpt lat="42.60388" lon="8.84171"/>
            <trkpt lat="42.60384" lon="8.84163"/>
            <trkpt lat="42.60375" lon="8.84147"/>
            <trkpt lat="42.60371" lon="8.84141"/>
            <trkpt lat="42.60364" lon="8.84133"/>
            <trkpt lat="42.6036" lon="8.84129"/>
            <trkpt lat="42.60352" lon="8.84124"/>
            <trkpt lat="42.60348" lon="8.84122"/>
            <trkpt lat="42.60324" lon="8.8412"/>
            <trkpt lat="42.60311" lon="8.84122"/>
            <trkpt lat="42.60239" lon="8.84149"/>
            <trkpt lat="42.6022" lon="8.8415"/>
            <trkpt lat="42.60102" lon="8.84132"/>
            <trkpt lat="42.60092" lon="8.84129"/>
            <trkpt lat="42.60088" lon="8.84126"/>
            <trkpt lat="42.60076" lon="8.84117"/>
            <trkpt lat="42.60039" lon="8.84074"/>
            <trkpt lat="42.59973" lon="8.83994"/>
            <trkpt lat="42.59944" lon="8.83962"/>
            <trkpt lat="42.59929" lon="8.83948"/>
            <trkpt lat="42.59922" lon="8.83942"/>
            <trkpt lat="42.59916" lon="8.83939"/>
            <trkpt lat="42.59918" lon="8.8393"/>
            <trkpt lat="42.59918" lon="8.83924"/>
            <trkpt lat="42.59914" lon="8.83915"/>
            <trkpt lat="42.59903" lon="8.83901"/>
            <trkpt lat="42.59893" lon="8.83897"/>
            <trkpt lat="42.59863" lon="8.83886"/>
            <trkpt lat="42.59859" lon="8.83876"/>
            <trkpt lat="42.59859" lon="8.83862"/>
            <trkpt lat="42.59863" lon="8.8385"/>
            <trkpt lat="42.59874" lon="8.83835"/>
            <trkpt lat="42.59885" lon="8.8383"/>
            <trkpt lat="42.59925" lon="8.83823"/>
            <trkpt lat="42.5994" lon="8.83826"/>
            <trkpt lat="42.59955" lon="8.83836"/>
            <trkpt lat="42.59981" lon="8.83868"/>
            <trkpt lat="42.5999" lon="8.83873"/>
            <trkpt lat="42.6" lon="8.83876"/>
            <trkpt lat="42.60012" lon="8.8387"/>
            <trkpt lat="42.60019" lon="8.8386"/>
            <trkpt lat="42.60021" lon="8.83845"/>
            <trkpt lat="42.6002" lon="8.83822"/>
            <trkpt lat="42.60017" lon="8.83808"/>
            <trkpt lat="42.60011" lon="8.83763"/>
            <trkpt lat="42.6001" lon="8.83746"/>
            <trkpt lat="42.60011" lon="8.83734"/>
            <trkpt lat="42.60014" lon="8.83725"/>
            <trkpt lat="42.60019" lon="8.83719"/>
            <trkpt lat="42.60028" lon="8.83714"/>
            <trkpt lat="42.60034" lon="8.83715"/>
            <trkpt lat="42.60042" lon="8.83718"/>
            <trkpt lat="42.6005" lon="8.83728"/>
            <trkpt lat="42.60081" lon="8.83786"/>
            <trkpt lat="42.60106" lon="8.83825"/>
            <trkpt lat="42.60113" lon="8.83831"/>
            <trkpt lat="42.60121" lon="8.83831"/>
            <trkpt lat="42.60126" lon="8.83829"/>
            <trkpt lat="42.60131" lon="8.83825"/>
            <trkpt lat="42.60137" lon="8.83819"/>
            <trkpt lat="42.6014" lon="8.83808"/>
            <trkpt lat="42.6014" lon="8.838"/>
            <trkpt lat="42.6014" lon="8.83795"/>
            <trkpt lat="42.60138" lon="8.83788"/>
            <trkpt lat="42.6011" lon="8.83743"/>
            <trkpt lat="42.60101" lon="8.83729"/>
            <trkpt lat="42.60095" lon="8.8372"/>
            <trkpt lat="42.60081" lon="8.83688"/>
            <trkpt lat="42.60078" lon="8.83674"/>
            <trkpt lat="42.60075" lon="8.83641"/>
            <trkpt lat="42.60076" lon="8.83604"/>
            <trkpt lat="42.60075" lon="8.83589"/>
            <trkpt lat="42.60072" lon="8.83569"/>
            <trkpt lat="42.60066" lon="8.8355"/>
            <trkpt lat="42.60057" lon="8.8353"/>
            <trkpt lat="42.60046" lon="8.83516"/>
            <trkpt lat="42.60038" lon="8.83507"/>
            <trkpt lat="42.60018" lon="8.83491"/>
            <trkpt lat="42.6001" lon="8.83481"/>
            <trkpt lat="42.60002" lon="8.83467"/>
            <trkpt lat="42.59998" lon="8.83451"/>
            <trkpt lat="42.59996" lon="8.83439"/>
            <trkpt lat="42.59997" lon="8.83417"/>
            <trkpt lat="42.60002" lon="8.83375"/>
            <trkpt lat="42.60013" lon="8.83304"/>
            <trkpt lat="42.60014" lon="8.83301"/>
            <trkpt lat="42.60018" lon="8.83269"/>
            <trkpt lat="42.60018" lon="8.83243"/>
            <trkpt lat="42.60011" lon="8.83185"/>
            <trkpt lat="42.6001" lon="8.83173"/>
            <trkpt lat="42.60005" lon="8.83148"/>
            <trkpt lat="42.59996" lon="8.83092"/>
            <trkpt lat="42.59996" lon="8.83088"/>
            <trkpt lat="42.59993" lon="8.83059"/>
            <trkpt lat="42.59993" lon="8.83055"/>
            <trkpt lat="42.59993" lon="8.83048"/>
            <trkpt lat="42.59994" lon="8.83034"/>
            <trkpt lat="42.59996" lon="8.83018"/>
            <trkpt lat="42.60001" lon="8.8299"/>
            <trkpt lat="42.60002" lon="8.82986"/>
            <trkpt lat="42.60007" lon="8.82968"/>
            <trkpt lat="42.6001" lon="8.82959"/>
            <trkpt lat="42.60017" lon="8.82932"/>
            <trkpt lat="42.60028" lon="8.82904"/>
            <trkpt lat="42.60046" lon="8.82856"/>
            <trkpt lat="42.60053" lon="8.82838"/>
            <trkpt lat="42.6006" lon="8.8283"/>
            <trkpt lat="42.60062" lon="8.8283"/>
            <trkpt lat="42.60064" lon="8.82829"/>
            <trkpt lat="42.60066" lon="8.82827"/>
            <trkpt lat="42.60068" lon="8.82825"/>
            <trkpt lat="42.60069" lon="8.82822"/>
            <trkpt lat="42.60176" lon="8.8277"/>
            <trkpt lat="42.60191" lon="8.82764"/>
            <trkpt lat="42.6022" lon="8.82758"/>
            <trkpt lat="42.60231" lon="8.82755"/>
            <trkpt lat="42.6025" lon="8.82756"/>
            <trkpt lat="42.60261" lon="8.82752"/>
            <trkpt lat="42.60271" lon="8.82738"/>
            <trkpt lat="42.60299" lon="8.82671"/>
            <trkpt lat="42.60299" lon="8.82671"/>
            <trkpt lat="42.60308" lon="8.82671"/>
            <trkpt lat="42.60362" lon="8.82673"/>
            <trkpt lat="42.60397" lon="8.82672"/>
            <trkpt lat="42.60413" lon="8.82676"/>
            <trkpt lat="42.60434" lon="8.8269"/>
            <trkpt lat="42.60447" lon="8.82698"/>
            <trkpt lat="42.60452" lon="8.827"/>
            <trkpt lat="42.60458" lon="8.82698"/>
            <trkpt lat="42.60465" lon="8.82695"/>
            <trkpt lat="42.60468" lon="8.82692"/>
            <trkpt lat="42.60474" lon="8.82684"/>
            <trkpt lat="42.60477" lon="8.82676"/>
            <trkpt lat="42.60479" lon="8.82667"/>
            <trkpt lat="42.60478" lon="8.82656"/>
            <trkpt lat="42.60475" lon="8.82645"/>
            <trkpt lat="42.6047" lon="8.82635"/>
            <trkpt lat="42.6046" lon="8.82627"/>
            <trkpt lat="42.60411" lon="8.82595"/>
            <trkpt lat="42.60392" lon="8.82572"/>
            <trkpt lat="42.6038" lon="8.82557"/>
            <trkpt lat="42.6037" lon="8.82536"/>
            <trkpt lat="42.60358" lon="8.82507"/>
            <trkpt lat="42.60342" lon="8.82464"/>
            <trkpt lat="42.60337" lon="8.82452"/>
            <trkpt lat="42.60329" lon="8.82441"/>
            <trkpt lat="42.60309" lon="8.82427"/>
            <trkpt lat="42.603" lon="8.82424"/>
            <trkpt lat="42.60278" lon="8.82431"/>
            <trkpt lat="42.60261" lon="8.82438"/>
            <trkpt lat="42.60244" lon="8.82437"/>
            <trkpt lat="42.60235" lon="8.82433"/>
            <trkpt lat="42.60211" lon="8.82417"/>
            <trkpt lat="42.60203" lon="8.82409"/>
            <trkpt lat="42.60193" lon="8.82403"/>
            <trkpt lat="42.60183" lon="8.82399"/>
            <trkpt lat="42.60173" lon="8.82397"/>
            <trkpt lat="42.60163" lon="8.82398"/>
            <trkpt lat="42.60142" lon="8.82408"/>
            <trkpt lat="42.60133" lon="8.82418"/>
            <trkpt lat="42.60125" lon="8.82428"/>
            <trkpt lat="42.60118" lon="8.82442"/>
            <trkpt lat="42.60107" lon="8.82478"/>
            <trkpt lat="42.60095" lon="8.82532"/>
            <trkpt lat="42.60085" lon="8.82567"/>
            <trkpt lat="42.60059" lon="8.82658"/>
            <trkpt lat="42.60052" lon="8.82686"/>
            <trkpt lat="42.6005" lon="8.82695"/>
            <trkpt lat="42.60047" lon="8.8271"/>
            <trkpt lat="42.60048" lon="8.8273"/>
            <trkpt lat="42.60051" lon="8.82751"/>
            <trkpt lat="42.60057" lon="8.82779"/>
            <trkpt lat="42.60058" lon="8.82785"/>
            <trkpt lat="42.60059" lon="8.82792"/>
            <trkpt lat="42.60059" lon="8.82813"/>
            <trkpt lat="42.60058" lon="8.82816"/>
            <trkpt lat="42.60057" lon="8.82822"/>
            <trkpt lat="42.60058" lon="8.82824"/>
            <trkpt lat="42.60058" lon="8.82827"/>
            <trkpt lat="42.6006" lon="8.8283"/>
            <trkpt lat="42.60053" lon="8.82838"/>
            <trkpt lat="42.60046" lon="8.82856"/>
            <trkpt lat="42.60028" lon="8.82904"/>
            <trkpt lat="42.60017" lon="8.82932"/>
            <trkpt lat="42.6001" lon="8.82959"/>
            <trkpt lat="42.60007" lon="8.82968"/>
            <trkpt lat="42.60002" lon="8.82986"/>
            <trkpt lat="42.60001" lon="8.8299"/>
            <trkpt lat="42.59996" lon="8.83018"/>
            <trkpt lat="42.59994" lon="8.83034"/>
            <trkpt lat="42.59993" lon="8.83048"/>
            <trkpt lat="42.59993" lon="8.83055"/>
            <trkpt lat="42.59993" lon="8.83059"/>
            <trkpt lat="42.59996" lon="8.83088"/>
            <trkpt lat="42.59996" lon="8.83092"/>
            <trkpt lat="42.60005" lon="8.83148"/>
            <trkpt lat="42.6001" lon="8.83173"/>
            <trkpt lat="42.60011" lon="8.83185"/>
            <trkpt lat="42.60018" lon="8.83243"/>
            <trkpt lat="42.60018" lon="8.83269"/>
            <trkpt lat="42.60014" lon="8.83301"/>
            <trkpt lat="42.60013" lon="8.83304"/>
            <trkpt lat="42.60002" lon="8.83375"/>
            <trkpt lat="42.59997" lon="8.83417"/>
            <trkpt lat="42.59996" lon="8.83439"/>
            <trkpt lat="42.59998" lon="8.83451"/>
            <trkpt lat="42.60002" lon="8.83467"/>
            <trkpt lat="42.6001" lon="8.83481"/>
            <trkpt lat="42.60018" lon="8.83491"/>
            <trkpt lat="42.60038" lon="8.83507"/>
            <trkpt lat="42.60046" lon="8.83516"/>
            <trkpt lat="42.60057" lon="8.8353"/>
            <trkpt lat="42.60066" lon="8.8355"/>
            <trkpt lat="42.60072" lon="8.83569"/>
            <trkpt lat="42.60075" lon="8.83589"/>
            <trkpt lat="42.60076" lon="8.83604"/>
            <trkpt lat="42.60075" lon="8.83641"/>
            <trkpt lat="42.60078" lon="8.83674"/>
            <trkpt lat="42.60081" lon="8.83688"/>
            <trkpt lat="42.60095" lon="8.8372"/>
            <trkpt lat="42.60101" lon="8.83729"/>
            <trkpt lat="42.6011" lon="8.83743"/>
            <trkpt lat="42.60138" lon="8.83788"/>
            <trkpt lat="42.6014" lon="8.83795"/>
            <trkpt lat="42.6014" lon="8.838"/>
            <trkpt lat="42.6014" lon="8.83808"/>
            <trkpt lat="42.60137" lon="8.83819"/>
            <trkpt lat="42.60131" lon="8.83825"/>
            <trkpt lat="42.60126" lon="8.83829"/>
            <trkpt lat="42.60121" lon="8.83831"/>
            <trkpt lat="42.60113" lon="8.83831"/>
            <trkpt lat="42.60106" lon="8.83825"/>
            <trkpt lat="42.60081" lon="8.83786"/>
            <trkpt lat="42.6005" lon="8.83728"/>
            <trkpt lat="42.60042" lon="8.83718"/>
            <trkpt lat="42.60034" lon="8.83715"/>
            <trkpt lat="42.60028" lon="8.83714"/>
            <trkpt lat="42.60019" lon="8.83719"/>
            <trkpt lat="42.60014" lon="8.83725"/>
            <trkpt lat="42.60011" lon="8.83734"/>
            <trkpt lat="42.6001" lon="8.83746"/>
            <trkpt lat="42.60011" lon="8.83763"/>
            <trkpt lat="42.60017" lon="8.83808"/>
            <trkpt lat="42.6002" lon="8.83822"/>
            <trkpt lat="42.60021" lon="8.83845"/>
            <trkpt lat="42.60019" lon="8.8386"/>
            <trkpt lat="42.60012" lon="8.8387"/>
            <trkpt lat="42.6" lon="8.83876"/>
            <trkpt lat="42.5999" lon="8.83873"/>
            <trkpt lat="42.59981" lon="8.83868"/>
            <trkpt lat="42.59955" lon="8.83836"/>
            <trkpt lat="42.5994" lon="8.83826"/>
            <trkpt lat="42.59925" lon="8.83823"/>
            <trkpt lat="42.59885" lon="8.8383"/>
            <trkpt lat="42.59874" lon="8.83835"/>
            <trkpt lat="42.59863" lon="8.8385"/>
            <trkpt lat="42.59859" lon="8.83862"/>
            <trkpt lat="42.59859" lon="8.83876"/>
            <trkpt lat="42.59863" lon="8.83886"/>
            <trkpt lat="42.59893" lon="8.83897"/>
            <trkpt lat="42.59903" lon="8.83901"/>
            <trkpt lat="42.59914" lon="8.83915"/>
            <trkpt lat="42.59918" lon="8.83924"/>
            <trkpt lat="42.59918" lon="8.8393"/>
            <trkpt lat="42.59916" lon="8.83939"/>
            <trkpt lat="42.59905" lon="8.83934"/>
            <trkpt lat="42.59892" lon="8.83931"/>
            <trkpt lat="42.59885" lon="8.8393"/>
            <trkpt lat="42.59845" lon="8.83926"/>
            <trkpt lat="42.59835" lon="8.83924"/>
            <trkpt lat="42.59824" lon="8.8392"/>
            <trkpt lat="42.59817" lon="8.83917"/>
            <trkpt lat="42.59725" lon="8.83854"/>
            <trkpt lat="42.597" lon="8.8384"/>
            <trkpt lat="42.59677" lon="8.83833"/>
            <trkpt lat="42.59629" lon="8.83825"/>
            <trkpt lat="42.59554" lon="8.83814"/>
            <trkpt lat="42.59549" lon="8.83813"/>
            <trkpt lat="42.59539" lon="8.83809"/>
            <trkpt lat="42.59531" lon="8.83803"/>
            <trkpt lat="42.59527" lon="8.83799"/>
            <trkpt lat="42.59521" lon="8.83789"/>
            <trkpt lat="42.59517" lon="8.83783"/>
            <trkpt lat="42.59513" lon="8.83767"/>
            <trkpt lat="42.59506" lon="8.83724"/>
            <trkpt lat="42.59503" lon="8.83709"/>
            <trkpt lat="42.59496" lon="8.83693"/>
            <trkpt lat="42.59486" lon="8.83674"/>
            <trkpt lat="42.59473" lon="8.83659"/>
            <trkpt lat="42.59469" lon="8.83655"/>
            <trkpt lat="42.59457" lon="8.83645"/>
            <trkpt lat="42.59446" lon="8.83639"/>
            <trkpt lat="42.59442" lon="8.83637"/>
            <trkpt lat="42.59431" lon="8.83634"/>
            <trkpt lat="42.59428" lon="8.83634"/>
            <trkpt lat="42.59423" lon="8.83633"/>
            <trkpt lat="42.59417" lon="8.83633"/>
            <trkpt lat="42.59404" lon="8.83634"/>
            <trkpt lat="42.59391" lon="8.83639"/>
            <trkpt lat="42.59384" lon="8.83642"/>
            <trkpt lat="42.5938" lon="8.83644"/>
            <trkpt lat="42.59368" lon="8.83652"/>
            <trkpt lat="42.59359" lon="8.83658"/>
            <trkpt lat="42.59347" lon="8.83671"/>
            <trkpt lat="42.59339" lon="8.83683"/>
            <trkpt lat="42.59336" lon="8.83689"/>
            <trkpt lat="42.59324" lon="8.83715"/>
            <trkpt lat="42.59321" lon="8.83723"/>
            <trkpt lat="42.59306" lon="8.83758"/>
            <trkpt lat="42.59304" lon="8.83763"/>
            <trkpt lat="42.59294" lon="8.8378"/>
            <trkpt lat="42.59288" lon="8.83788"/>
            <trkpt lat="42.59285" lon="8.83791"/>
            <trkpt lat="42.59276" lon="8.83799"/>
            <trkpt lat="42.59265" lon="8.83805"/>
            <trkpt lat="42.59247" lon="8.83812"/>
            <trkpt lat="42.5924" lon="8.83814"/>
            <trkpt lat="42.59223" lon="8.83815"/>
            <trkpt lat="42.59204" lon="8.83813"/>
            <trkpt lat="42.59187" lon="8.83806"/>
            <trkpt lat="42.59183" lon="8.83803"/>
            <trkpt lat="42.59176" lon="8.83799"/>
            <trkpt lat="42.5916" lon="8.83785"/>
            <trkpt lat="42.5914" lon="8.83766"/>
            <trkpt lat="42.59128" lon="8.83755"/>
            <trkpt lat="42.59009" lon="8.83644"/>
            <trkpt lat="42.58986" lon="8.83622"/>
            <trkpt lat="42.58929" lon="8.83569"/>
            <trkpt lat="42.58914" lon="8.83555"/>
            <trkpt lat="42.58904" lon="8.83539"/>
            <trkpt lat="42.589" lon="8.83528"/>
            <trkpt lat="42.58895" lon="8.83513"/>
            <trkpt lat="42.58889" lon="8.83475"/>
            <trkpt lat="42.58878" lon="8.83404"/>
            <trkpt lat="42.58863" lon="8.83301"/>
            <trkpt lat="42.58861" lon="8.83288"/>
            <trkpt lat="42.58842" lon="8.83148"/>
            <trkpt lat="42.58841" lon="8.83134"/>
            <trkpt lat="42.58841" lon="8.83124"/>
            <trkpt lat="42.5884" lon="8.83111"/>
            <trkpt lat="42.58846" lon="8.83086"/>
            <trkpt lat="42.58855" lon="8.83055"/>
            <trkpt lat="42.5886" lon="8.83042"/>
            <trkpt lat="42.58866" lon="8.83022"/>
            <trkpt lat="42.58869" lon="8.83005"/>
            <trkpt lat="42.58872" lon="8.82973"/>
            <trkpt lat="42.58869" lon="8.82954"/>
            <trkpt lat="42.58866" lon="8.82935"/>
            <trkpt lat="42.5886" lon="8.82911"/>
            <trkpt lat="42.58854" lon="8.82894"/>
            <trkpt lat="42.58845" lon="8.82872"/>
            <trkpt lat="42.58839" lon="8.8286"/>
            <trkpt lat="42.58822" lon="8.82837"/>
            <trkpt lat="42.5882" lon="8.82835"/>
            <trkpt lat="42.58811" lon="8.82825"/>
            <trkpt lat="42.58797" lon="8.82815"/>
            <trkpt lat="42.58773" lon="8.82804"/>
            <trkpt lat="42.586" lon="8.82737"/>
            <trkpt lat="42.58594" lon="8.82731"/>
            <trkpt lat="42.58576" lon="8.82727"/>
            <trkpt lat="42.58571" lon="8.82726"/>
            <trkpt lat="42.58563" lon="8.82727"/>
            <trkpt lat="42.58555" lon="8.82729"/>
            <trkpt lat="42.58547" lon="8.82733"/>
            <trkpt lat="42.58545" lon="8.82735"/>
            <trkpt lat="42.58535" lon="8.82743"/>
            <trkpt lat="42.58529" lon="8.82753"/>
            <trkpt lat="42.58524" lon="8.8276"/>
            <trkpt lat="42.5852" lon="8.82772"/>
            <trkpt lat="42.58518" lon="8.82779"/>
            <trkpt lat="42.58517" lon="8.82794"/>
            <trkpt lat="42.58512" lon="8.82824"/>
            <trkpt lat="42.58493" lon="8.82956"/>
            <trkpt lat="42.5848" lon="8.83048"/>
            <trkpt lat="42.58474" lon="8.83081"/>
            <trkpt lat="42.58469" lon="8.83101"/>
            <trkpt lat="42.58462" lon="8.83117"/>
            <trkpt lat="42.58454" lon="8.83126"/>
            <trkpt lat="42.5844" lon="8.83135"/>
            <trkpt lat="42.58413" lon="8.83145"/>
            <trkpt lat="42.58322" lon="8.83173"/>
            <trkpt lat="42.58308" lon="8.83175"/>
            <trkpt lat="42.58301" lon="8.83175"/>
            <trkpt lat="42.58294" lon="8.83176"/>
            <trkpt lat="42.58278" lon="8.83174"/>
            <trkpt lat="42.58268" lon="8.83174"/>
            <trkpt lat="42.58208" lon="8.83166"/>
            <trkpt lat="42.58159" lon="8.83162"/>
            <trkpt lat="42.58148" lon="8.83163"/>
            <trkpt lat="42.58139" lon="8.83164"/>
            <trkpt lat="42.58134" lon="8.83166"/>
            <trkpt lat="42.58127" lon="8.83171"/>
            <trkpt lat="42.58103" lon="8.83199"/>
            <trkpt lat="42.58099" lon="8.83204"/>
            <trkpt lat="42.58091" lon="8.8321"/>
            <trkpt lat="42.58081" lon="8.83215"/>
            <trkpt lat="42.58069" lon="8.83218"/>
            <trkpt lat="42.58055" lon="8.83216"/>
            <trkpt lat="42.58035" lon="8.83204"/>
            <trkpt lat="42.58002" lon="8.83181"/>
            <trkpt lat="42.57966" lon="8.83155"/>
            <trkpt lat="42.57949" lon="8.83148"/>
            <trkpt lat="42.57935" lon="8.83144"/>
            <trkpt lat="42.57928" lon="8.83142"/>
            <trkpt lat="42.57907" lon="8.83138"/>
            <trkpt lat="42.57893" lon="8.83139"/>
            <trkpt lat="42.5788" lon="8.83141"/>
            <trkpt lat="42.57871" lon="8.83146"/>
            <trkpt lat="42.57859" lon="8.83162"/>
            <trkpt lat="42.5784" lon="8.83197"/>
            <trkpt lat="42.57833" lon="8.83208"/>
            <trkpt lat="42.57821" lon="8.83224"/>
            <trkpt lat="42.57793" lon="8.83249"/>
            <trkpt lat="42.57742" lon="8.83293"/>
            <trkpt lat="42.57736" lon="8.83301"/>
            <trkpt lat="42.57734" lon="8.83303"/>
            <trkpt lat="42.57702" lon="8.83354"/>
            <trkpt lat="42.57687" lon="8.83371"/>
            <trkpt lat="42.5768" lon="8.83377"/>
            <trkpt lat="42.57667" lon="8.83386"/>
            <trkpt lat="42.57649" lon="8.83394"/>
            <trkpt lat="42.57629" lon="8.83398"/>
            <trkpt lat="42.5762" lon="8.83397"/>
            <trkpt lat="42.57606" lon="8.83396"/>
            <trkpt lat="42.57601" lon="8.83395"/>
            <trkpt lat="42.57588" lon="8.8339"/>
            <trkpt lat="42.57579" lon="8.83385"/>
            <trkpt lat="42.5757" lon="8.83379"/>
            <trkpt lat="42.57552" lon="8.83362"/>
            <trkpt lat="42.57533" lon="8.83333"/>
            <trkpt lat="42.57515" lon="8.83301"/>
            <trkpt lat="42.57478" lon="8.83236"/>
            <trkpt lat="42.57438" lon="8.83163"/>
            <trkpt lat="42.57428" lon="8.83147"/>
            <trkpt lat="42.57425" lon="8.83136"/>
            <trkpt lat="42.57415" lon="8.83119"/>
            <trkpt lat="42.57404" lon="8.83103"/>
            <trkpt lat="42.57387" lon="8.83085"/>
            <trkpt lat="42.57376" lon="8.83076"/>
            <trkpt lat="42.57358" lon="8.83069"/>
            <trkpt lat="42.57325" lon="8.83066"/>
            <trkpt lat="42.57255" lon="8.83074"/>
            <trkpt lat="42.57233" lon="8.83076"/>
            <trkpt lat="42.57222" lon="8.83081"/>
            <trkpt lat="42.57165" lon="8.83086"/>
            <trkpt lat="42.5712" lon="8.83092"/>
            <trkpt lat="42.57097" lon="8.83091"/>
            <trkpt lat="42.57091" lon="8.8309"/>
            <trkpt lat="42.57078" lon="8.83085"/>
            <trkpt lat="42.57057" lon="8.83072"/>
            <trkpt lat="42.57048" lon="8.83063"/>
            <trkpt lat="42.57037" lon="8.8305"/>
            <trkpt lat="42.57026" lon="8.83032"/>
            <trkpt lat="42.57023" lon="8.83024"/>
            <trkpt lat="42.5702" lon="8.83017"/>
            <trkpt lat="42.57014" lon="8.82999"/>
            <trkpt lat="42.57012" lon="8.82985"/>
            <trkpt lat="42.5701" lon="8.82961"/>
            <trkpt lat="42.5701" lon="8.82943"/>
            <trkpt lat="42.5701" lon="8.82937"/>
            <trkpt lat="42.57011" lon="8.82928"/>
            <trkpt lat="42.57011" lon="8.82883"/>
            <trkpt lat="42.57008" lon="8.82857"/>
            <trkpt lat="42.57003" lon="8.82837"/>
            <trkpt lat="42.56995" lon="8.82815"/>
            <trkpt lat="42.56988" lon="8.828"/>
            <trkpt lat="42.56922" lon="8.82661"/>
            <trkpt lat="42.56836" lon="8.82473"/>
            <trkpt lat="42.56783" lon="8.82358"/>
            <trkpt lat="42.56757" lon="8.82302"/>
            <trkpt lat="42.56738" lon="8.82271"/>
            <trkpt lat="42.56714" lon="8.82237"/>
            <trkpt lat="42.56697" lon="8.82217"/>
            <trkpt lat="42.56674" lon="8.82187"/>
            <trkpt lat="42.56657" lon="8.8216"/>
            <trkpt lat="42.56643" lon="8.82133"/>
            <trkpt lat="42.56629" lon="8.821"/>
            <trkpt lat="42.56622" lon="8.82078"/>
            <trkpt lat="42.56617" lon="8.82061"/>
            <trkpt lat="42.56557" lon="8.81763"/>
            <trkpt lat="42.56526" lon="8.81612"/>
            <trkpt lat="42.56524" lon="8.81604"/>
            <trkpt lat="42.5644" lon="8.81171"/>
            <trkpt lat="42.56426" lon="8.81104"/>
            <trkpt lat="42.5642" lon="8.81073"/>
            <trkpt lat="42.56416" lon="8.81051"/>
            <trkpt lat="42.56411" lon="8.81029"/>
            <trkpt lat="42.56382" lon="8.80876"/>
            <trkpt lat="42.56357" lon="8.80752"/>
            <trkpt lat="42.56354" lon="8.80735"/>
            <trkpt lat="42.56348" lon="8.80703"/>
            <trkpt lat="42.56333" lon="8.80625"/>
            <trkpt lat="42.56319" lon="8.80555"/>
            <trkpt lat="42.56315" lon="8.80539"/>
            <trkpt lat="42.56308" lon="8.80521"/>
            <trkpt lat="42.56292" lon="8.80489"/>
            <trkpt lat="42.5622" lon="8.80365"/>
            <trkpt lat="42.56194" lon="8.80321"/>
            <trkpt lat="42.56104" lon="8.80158"/>
            <trkpt lat="42.56083" lon="8.80121"/>
            <trkpt lat="42.56073" lon="8.80104"/>
            <trkpt lat="42.56051" lon="8.80066"/>
            <trkpt lat="42.55943" lon="8.79876"/>
            <trkpt lat="42.55925" lon="8.79848"/>
            <trkpt lat="42.55902" lon="8.79805"/>
            <trkpt lat="42.55865" lon="8.79744"/>
            <trkpt lat="42.55827" lon="8.79676"/>
            <trkpt lat="42.55789" lon="8.79608"/>
            <trkpt lat="42.55734" lon="8.79516"/>
            <trkpt lat="42.55723" lon="8.79496"/>
            <trkpt lat="42.55656" lon="8.7938"/>
            <trkpt lat="42.55635" lon="8.79342"/>
            <trkpt lat="42.55608" lon="8.79302"/>
            <trkpt lat="42.55591" lon="8.79276"/>
            <trkpt lat="42.55593" lon="8.79273"/>
            <trkpt lat="42.55594" lon="8.79269"/>
            <trkpt lat="42.55594" lon="8.79264"/>
            <trkpt lat="42.55594" lon="8.79259"/>
            <trkpt lat="42.55593" lon="8.79256"/>
            <trkpt lat="42.55592" lon="8.79254"/>
            <trkpt lat="42.5559" lon="8.79251"/>
            <trkpt lat="42.55586" lon="8.79248"/>
            <trkpt lat="42.55583" lon="8.79247"/>
            <trkpt lat="42.5558" lon="8.79246"/>
            <trkpt lat="42.55577" lon="8.79247"/>
            <trkpt lat="42.55574" lon="8.79249"/>
            <trkpt lat="42.55557" lon="8.7922"/>
            <trkpt lat="42.55514" lon="8.79143"/>
            <trkpt lat="42.55484" lon="8.79091"/>
            <trkpt lat="42.55473" lon="8.79075"/>
            <trkpt lat="42.55454" lon="8.79053"/>
            <trkpt lat="42.5544" lon="8.79041"/>
            <trkpt lat="42.55418" lon="8.79026"/>
            <trkpt lat="42.55337" lon="8.78977"/>
            <trkpt lat="42.55304" lon="8.78958"/>
            <trkpt lat="42.55217" lon="8.78906"/>
            <trkpt lat="42.55081" lon="8.78826"/>
            <trkpt lat="42.55027" lon="8.78795"/>
            <trkpt lat="42.55009" lon="8.78783"/>
            <trkpt lat="42.54996" lon="8.78772"/>
            <trkpt lat="42.54973" lon="8.78748"/>
            <trkpt lat="42.54963" lon="8.78734"/>
            <trkpt lat="42.54947" lon="8.78706"/>
            <trkpt lat="42.54935" lon="8.78673"/>
            <trkpt lat="42.54925" lon="8.78635"/>
            <trkpt lat="42.54922" lon="8.78613"/>
            <trkpt lat="42.54921" lon="8.78598"/>
            <trkpt lat="42.5492" lon="8.78592"/>
            <trkpt lat="42.54921" lon="8.7857"/>
            <trkpt lat="42.54922" lon="8.78545"/>
            <trkpt lat="42.54925" lon="8.78523"/>
            <trkpt lat="42.5493" lon="8.78501"/>
            <trkpt lat="42.54938" lon="8.78471"/>
            <trkpt lat="42.54951" lon="8.78435"/>
            <trkpt lat="42.54957" lon="8.78424"/>
            <trkpt lat="42.54966" lon="8.78401"/>
            <trkpt lat="42.54977" lon="8.78375"/>
            <trkpt lat="42.54979" lon="8.78374"/>
            <trkpt lat="42.54983" lon="8.78373"/>
            <trkpt lat="42.54986" lon="8.78371"/>
            <trkpt lat="42.54989" lon="8.78369"/>
            <trkpt lat="42.54991" lon="8.78363"/>
            <trkpt lat="42.54992" lon="8.78359"/>
            <trkpt lat="42.54992" lon="8.78355"/>
            <trkpt lat="42.54992" lon="8.78352"/>
            <trkpt lat="42.54992" lon="8.78348"/>
            <trkpt lat="42.54991" lon="8.78345"/>
            <trkpt lat="42.5499" lon="8.78343"/>
            <trkpt lat="42.54988" lon="8.78341"/>
            <trkpt lat="42.5499" lon="8.78328"/>
            <trkpt lat="42.55003" lon="8.78281"/>
            <trkpt lat="42.55003" lon="8.78277"/>
            <trkpt lat="42.55013" lon="8.78246"/>
            <trkpt lat="42.55051" lon="8.7813"/>
            <trkpt lat="42.55079" lon="8.78045"/>
            <trkpt lat="42.55083" lon="8.78041"/>
            <trkpt lat="42.5512" lon="8.77942"/>
            <trkpt lat="42.55137" lon="8.77895"/>
            <trkpt lat="42.55182" lon="8.77761"/>
            <trkpt lat="42.55199" lon="8.77705"/>
            <trkpt lat="42.5521" lon="8.77663"/>
            <trkpt lat="42.55215" lon="8.77636"/>
            <trkpt lat="42.55222" lon="8.77588"/>
            <trkpt lat="42.55224" lon="8.7755"/>
            <trkpt lat="42.55223" lon="8.7752"/>
            <trkpt lat="42.55222" lon="8.7749"/>
            <trkpt lat="42.55218" lon="8.77449"/>
            <trkpt lat="42.55209" lon="8.77409"/>
            <trkpt lat="42.55202" lon="8.77385"/>
            <trkpt lat="42.55085" lon="8.76972"/>
            <trkpt lat="42.55066" lon="8.76902"/>
            <trkpt lat="42.55061" lon="8.76868"/>
            <trkpt lat="42.55056" lon="8.76829"/>
            <trkpt lat="42.55056" lon="8.76801"/>
            <trkpt lat="42.55057" lon="8.76771"/>
            <trkpt lat="42.55062" lon="8.7673"/>
            <trkpt lat="42.55066" lon="8.76709"/>
            <trkpt lat="42.55067" lon="8.76705"/>
            <trkpt lat="42.55076" lon="8.76674"/>
            <trkpt lat="42.55087" lon="8.76646"/>
            <trkpt lat="42.55096" lon="8.76626"/>
            <trkpt lat="42.5511" lon="8.76602"/>
            <trkpt lat="42.55133" lon="8.76568"/>
            <trkpt lat="42.5516" lon="8.76535"/>
            <trkpt lat="42.55165" lon="8.76526"/>
            <trkpt lat="42.55179" lon="8.76511"/>
            <trkpt lat="42.55203" lon="8.76481"/>
            <trkpt lat="42.5523" lon="8.76451"/>
            <trkpt lat="42.55329" lon="8.7634"/>
            <trkpt lat="42.55349" lon="8.76319"/>
            <trkpt lat="42.55371" lon="8.76299"/>
            <trkpt lat="42.55373" lon="8.76301"/>
            <trkpt lat="42.55375" lon="8.76302"/>
            <trkpt lat="42.55377" lon="8.76303"/>
            <trkpt lat="42.5538" lon="8.76304"/>
            <trkpt lat="42.55382" lon="8.76304"/>
            <trkpt lat="42.55383" lon="8.76303"/>
            <trkpt lat="42.55385" lon="8.76302"/>
            <trkpt lat="42.55387" lon="8.76301"/>
            <trkpt lat="42.55389" lon="8.76297"/>
            <trkpt lat="42.5539" lon="8.76295"/>
            <trkpt lat="42.5539" lon="8.76293"/>
            <trkpt lat="42.55391" lon="8.76289"/>
            <trkpt lat="42.55391" lon="8.76286"/>
            <trkpt lat="42.5539" lon="8.76283"/>
            <trkpt lat="42.55389" lon="8.7628"/>
            <trkpt lat="42.55388" lon="8.76278"/>
            <trkpt lat="42.55387" lon="8.76277"/>
            <trkpt lat="42.55397" lon="8.76263"/>
            <trkpt lat="42.55422" lon="8.76231"/>
            <trkpt lat="42.55461" lon="8.76186"/>
            <trkpt lat="42.55474" lon="8.76177"/>
            <trkpt lat="42.55507" lon="8.76139"/>
            <trkpt lat="42.55512" lon="8.76133"/>
            <trkpt lat="42.55548" lon="8.76092"/>
            <trkpt lat="42.55558" lon="8.76076"/>
            <trkpt lat="42.55591" lon="8.76038"/>
            <trkpt lat="42.5563" lon="8.75994"/>
            <trkpt lat="42.55649" lon="8.75972"/>
            <trkpt lat="42.55671" lon="8.75948"/>
            <trkpt lat="42.55711" lon="8.75904"/>
            <trkpt lat="42.55729" lon="8.75882"/>
            <trkpt lat="42.55737" lon="8.75876"/>
            <trkpt lat="42.55748" lon="8.75865"/>
            <trkpt lat="42.55784" lon="8.75825"/>
            <trkpt lat="42.55823" lon="8.75783"/>
            <trkpt lat="42.55824" lon="8.75781"/>
            <trkpt lat="42.55863" lon="8.75745"/>
            <trkpt lat="42.55869" lon="8.75741"/>
            <trkpt lat="42.55926" lon="8.75702"/>
            <trkpt lat="42.5595" lon="8.75682"/>
            <trkpt lat="42.55971" lon="8.75667"/>
            <trkpt lat="42.55977" lon="8.75659"/>
            <trkpt lat="42.56018" lon="8.75633"/>
            <trkpt lat="42.56069" lon="8.756"/>
            <trkpt lat="42.56071" lon="8.75602"/>
            <trkpt lat="42.56073" lon="8.75604"/>
            <trkpt lat="42.56075" lon="8.75605"/>
            <trkpt lat="42.56077" lon="8.75605"/>
            <trkpt lat="42.5608" lon="8.75605"/>
            <trkpt lat="42.56082" lon="8.75604"/>
            <trkpt lat="42.56083" lon="8.75603"/>
            <trkpt lat="42.56086" lon="8.756"/>
            <trkpt lat="42.56086" lon="8.75599"/>
            <trkpt lat="42.56087" lon="8.75596"/>
            <trkpt lat="42.56087" lon="8.75594"/>
            <trkpt lat="42.56087" lon="8.75592"/>
            <trkpt lat="42.56087" lon="8.75589"/>
            <trkpt lat="42.56086" lon="8.75587"/>
            <trkpt lat="42.56104" lon="8.75576"/>
            <trkpt lat="42.56161" lon="8.75538"/>
            <trkpt lat="42.56188" lon="8.7552"/>
            <trkpt lat="42.56215" lon="8.75501"/>
            <trkpt lat="42.56242" lon="8.75485"/>
            <trkpt lat="42.56255" lon="8.75479"/>
            <trkpt lat="42.56275" lon="8.75475"/>
            <trkpt lat="42.5629" lon="8.75473"/>
            <trkpt lat="42.56299" lon="8.75473"/>
            <trkpt lat="42.56321" lon="8.75478"/>
            <trkpt lat="42.56358" lon="8.75489"/>
            <trkpt lat="42.56364" lon="8.75492"/>
            <trkpt lat="42.56371" lon="8.75498"/>
            <trkpt lat="42.56405" lon="8.75516"/>
            <trkpt lat="42.56424" lon="8.75526"/>
            <trkpt lat="42.56549" lon="8.75597"/>
            <trkpt lat="42.56553" lon="8.756"/>
            <trkpt lat="42.56563" lon="8.75601"/>
            <trkpt lat="42.56575" lon="8.75608"/>
            <trkpt lat="42.56607" lon="8.75625"/>
            <trkpt lat="42.56618" lon="8.75633"/>
            <trkpt lat="42.56625" lon="8.7564"/>
            <trkpt lat="42.56635" lon="8.75654"/>
            <trkpt lat="42.56653" lon="8.75679"/>
            <trkpt lat="42.56677" lon="8.75713"/>
            <trkpt lat="42.56691" lon="8.75731"/>
        </trkseg>
    </trk>
</gpx>
