<?xml version="1.0" encoding="UTF-8" standalone="yes"?>
<gpx xmlns="http://www.topografix.com/GPX/1/1" xmlns:tt="TT" version="1.1" creator="TomTom MyDrive">
    <wpt lat="41.925301" lon="8.71412">
        <type>TT_HARD</type>
    </wpt>
    <wpt lat="41.927175" lon="8.622859">
        <type>TT_HARD</type>
    </wpt>
    <wpt lat="41.89541" lon="8.60848">
        <type>TT_HARD</type>
    </wpt>
    <wpt lat="41.91001" lon="8.64504">
        <type>TT_HARD</type>
    </wpt>
    <wpt lat="41.9092" lon="8.6895">
        <type>TT_HARD</type>
    </wpt>
    <rte>
        <name>31 luglio</name>
        <rtept lat="41.925301" lon="8.71412">
            <type>TT_HARD</type>
        </rtept>
        <rtept lat="41.927175" lon="8.622859">
            <type>TT_HARD</type>
        </rtept>
        <rtept lat="41.89541" lon="8.60848">
            <type>TT_HARD</type>
        </rtept>
        <rtept lat="41.91001" lon="8.64504">
            <type>TT_HARD</type>
        </rtept>
        <rtept lat="41.9092" lon="8.6895">
            <type>TT_HARD</type>
        </rtept>
    </rte>
    <trk>
        <name>31 luglio</name>
        <trkseg>
            <trkpt lat="41.92547" lon="8.71403"/>
            <trkpt lat="41.92551" lon="8.71416"/>
            <trkpt lat="41.92554" lon="8.71434"/>
            <trkpt lat="41.92557" lon="8.71426"/>
            <trkpt lat="41.92558" lon="8.71415"/>
            <trkpt lat="41.92558" lon="8.71409"/>
            <trkpt lat="41.92558" lon="8.71406"/>
            <trkpt lat="41.92558" lon="8.71395"/>
            <trkpt lat="41.92551" lon="8.71365"/>
            <trkpt lat="41.92545" lon="8.71337"/>
            <trkpt lat="41.92543" lon="8.71326"/>
            <trkpt lat="41.92545" lon="8.71302"/>
            <trkpt lat="41.92545" lon="8.71292"/>
            <trkpt lat="41.92543" lon="8.71283"/>
            <trkpt lat="41.92537" lon="8.71244"/>
            <trkpt lat="41.92537" lon="8.71235"/>
            <trkpt lat="41.92538" lon="8.71225"/>
            <trkpt lat="41.92539" lon="8.71217"/>
            <trkpt lat="41.92554" lon="8.71181"/>
            <trkpt lat="41.92555" lon="8.71171"/>
            <trkpt lat="41.92556" lon="8.71159"/>
            <trkpt lat="41.92554" lon="8.71122"/>
            <trkpt lat="41.92554" lon="8.71112"/>
            <trkpt lat="41.92556" lon="8.71103"/>
            <trkpt lat="41.92559" lon="8.71095"/>
            <trkpt lat="41.92561" lon="8.7109"/>
            <trkpt lat="41.92578" lon="8.71057"/>
            <trkpt lat="41.9258" lon="8.7105"/>
            <trkpt lat="41.9258" lon="8.71042"/>
            <trkpt lat="41.9258" lon="8.71035"/>
            <trkpt lat="41.92579" lon="8.71029"/>
            <trkpt lat="41.92575" lon="8.71022"/>
            <trkpt lat="41.92567" lon="8.71007"/>
            <trkpt lat="41.92558" lon="8.70995"/>
            <trkpt lat="41.92545" lon="8.7098"/>
            <trkpt lat="41.92535" lon="8.70972"/>
            <trkpt lat="41.92521" lon="8.70964"/>
            <trkpt lat="41.92507" lon="8.70957"/>
            <trkpt lat="41.92499" lon="8.70953"/>
            <trkpt lat="41.9249" lon="8.70947"/>
            <trkpt lat="41.92479" lon="8.70935"/>
            <trkpt lat="41.92475" lon="8.70928"/>
            <trkpt lat="41.92472" lon="8.70921"/>
            <trkpt lat="41.92471" lon="8.70914"/>
            <trkpt lat="41.92472" lon="8.70907"/>
            <trkpt lat="41.92474" lon="8.70901"/>
            <trkpt lat="41.92477" lon="8.70897"/>
            <trkpt lat="41.92482" lon="8.70892"/>
            <trkpt lat="41.92544" lon="8.70852"/>
            <trkpt lat="41.92591" lon="8.70833"/>
            <trkpt lat="41.92595" lon="8.70829"/>
            <trkpt lat="41.926" lon="8.70823"/>
            <trkpt lat="41.92607" lon="8.70813"/>
            <trkpt lat="41.92611" lon="8.70809"/>
            <trkpt lat="41.92615" lon="8.70805"/>
            <trkpt lat="41.92621" lon="8.70804"/>
            <trkpt lat="41.92631" lon="8.70803"/>
            <trkpt lat="41.92678" lon="8.70809"/>
            <trkpt lat="41.92681" lon="8.70809"/>
            <trkpt lat="41.92686" lon="8.70809"/>
            <trkpt lat="41.9269" lon="8.70807"/>
            <trkpt lat="41.92695" lon="8.70803"/>
            <trkpt lat="41.92699" lon="8.70799"/>
            <trkpt lat="41.92701" lon="8.70792"/>
            <trkpt lat="41.92703" lon="8.70785"/>
            <trkpt lat="41.92705" lon="8.70769"/>
            <trkpt lat="41.92705" lon="8.70759"/>
            <trkpt lat="41.92703" lon="8.7075"/>
            <trkpt lat="41.927" lon="8.7074"/>
            <trkpt lat="41.92694" lon="8.7073"/>
            <trkpt lat="41.92687" lon="8.7072"/>
            <trkpt lat="41.9266" lon="8.70695"/>
            <trkpt lat="41.92657" lon="8.7069"/>
            <trkpt lat="41.92655" lon="8.70686"/>
            <trkpt lat="41.92654" lon="8.70683"/>
            <trkpt lat="41.92654" lon="8.70678"/>
            <trkpt lat="41.92655" lon="8.70672"/>
            <trkpt lat="41.92657" lon="8.70668"/>
            <trkpt lat="41.9266" lon="8.70665"/>
            <trkpt lat="41.92668" lon="8.7066"/>
            <trkpt lat="41.92702" lon="8.70651"/>
            <trkpt lat="41.92729" lon="8.70649"/>
            <trkpt lat="41.9278" lon="8.70652"/>
            <trkpt lat="41.92785" lon="8.7065"/>
            <trkpt lat="41.9279" lon="8.70648"/>
            <trkpt lat="41.92793" lon="8.70644"/>
            <trkpt lat="41.92795" lon="8.70639"/>
            <trkpt lat="41.92796" lon="8.70633"/>
            <trkpt lat="41.92796" lon="8.70624"/>
            <trkpt lat="41.92795" lon="8.70608"/>
            <trkpt lat="41.92791" lon="8.70548"/>
            <trkpt lat="41.9279" lon="8.70493"/>
            <trkpt lat="41.92795" lon="8.70406"/>
            <trkpt lat="41.92799" lon="8.70362"/>
            <trkpt lat="41.928" lon="8.70354"/>
            <trkpt lat="41.92807" lon="8.7031"/>
            <trkpt lat="41.92818" lon="8.70258"/>
            <trkpt lat="41.92826" lon="8.70228"/>
            <trkpt lat="41.92833" lon="8.70207"/>
            <trkpt lat="41.92845" lon="8.70168"/>
            <trkpt lat="41.92853" lon="8.70123"/>
            <trkpt lat="41.92856" lon="8.70117"/>
            <trkpt lat="41.92861" lon="8.70106"/>
            <trkpt lat="41.92869" lon="8.70094"/>
            <trkpt lat="41.92879" lon="8.70077"/>
            <trkpt lat="41.92881" lon="8.7007"/>
            <trkpt lat="41.92885" lon="8.70037"/>
            <trkpt lat="41.92894" lon="8.6996"/>
            <trkpt lat="41.92896" lon="8.69952"/>
            <trkpt lat="41.92908" lon="8.69926"/>
            <trkpt lat="41.92921" lon="8.69884"/>
            <trkpt lat="41.92931" lon="8.69846"/>
            <trkpt lat="41.92938" lon="8.69811"/>
            <trkpt lat="41.92948" lon="8.69744"/>
            <trkpt lat="41.92953" lon="8.69715"/>
            <trkpt lat="41.92957" lon="8.69678"/>
            <trkpt lat="41.92959" lon="8.69666"/>
            <trkpt lat="41.92965" lon="8.6965"/>
            <trkpt lat="41.92983" lon="8.69602"/>
            <trkpt lat="41.92987" lon="8.69588"/>
            <trkpt lat="41.9299" lon="8.69571"/>
            <trkpt lat="41.92991" lon="8.69557"/>
            <trkpt lat="41.92991" lon="8.69542"/>
            <trkpt lat="41.92988" lon="8.69522"/>
            <trkpt lat="41.92972" lon="8.69462"/>
            <trkpt lat="41.92984" lon="8.69449"/>
            <trkpt lat="41.93023" lon="8.69418"/>
            <trkpt lat="41.93042" lon="8.69402"/>
            <trkpt lat="41.93057" lon="8.69385"/>
            <trkpt lat="41.9306" lon="8.6938"/>
            <trkpt lat="41.93069" lon="8.69362"/>
            <trkpt lat="41.93114" lon="8.69296"/>
            <trkpt lat="41.93124" lon="8.69276"/>
            <trkpt lat="41.9314" lon="8.69232"/>
            <trkpt lat="41.93147" lon="8.69217"/>
            <trkpt lat="41.93159" lon="8.69201"/>
            <trkpt lat="41.93164" lon="8.69197"/>
            <trkpt lat="41.93171" lon="8.69193"/>
            <trkpt lat="41.93185" lon="8.69188"/>
            <trkpt lat="41.93192" lon="8.69186"/>
            <trkpt lat="41.93202" lon="8.69182"/>
            <trkpt lat="41.93206" lon="8.69179"/>
            <trkpt lat="41.93209" lon="8.69176"/>
            <trkpt lat="41.93212" lon="8.69171"/>
            <trkpt lat="41.93214" lon="8.69165"/>
            <trkpt lat="41.93216" lon="8.69157"/>
            <trkpt lat="41.93216" lon="8.69146"/>
            <trkpt lat="41.93213" lon="8.69113"/>
            <trkpt lat="41.93214" lon="8.69091"/>
            <trkpt lat="41.93218" lon="8.69068"/>
            <trkpt lat="41.93224" lon="8.69048"/>
            <trkpt lat="41.93232" lon="8.69034"/>
            <trkpt lat="41.93238" lon="8.69029"/>
            <trkpt lat="41.93265" lon="8.6901"/>
            <trkpt lat="41.93274" lon="8.69002"/>
            <trkpt lat="41.9328" lon="8.68994"/>
            <trkpt lat="41.93285" lon="8.68984"/>
            <trkpt lat="41.93296" lon="8.68964"/>
            <trkpt lat="41.93303" lon="8.68945"/>
            <trkpt lat="41.93307" lon="8.68921"/>
            <trkpt lat="41.9331" lon="8.68889"/>
            <trkpt lat="41.93312" lon="8.68796"/>
            <trkpt lat="41.93315" lon="8.68769"/>
            <trkpt lat="41.93342" lon="8.68656"/>
            <trkpt lat="41.93343" lon="8.68649"/>
            <trkpt lat="41.93343" lon="8.68642"/>
            <trkpt lat="41.93342" lon="8.68636"/>
            <trkpt lat="41.93339" lon="8.68624"/>
            <trkpt lat="41.93335" lon="8.68613"/>
            <trkpt lat="41.93331" lon="8.68604"/>
            <trkpt lat="41.93327" lon="8.68598"/>
            <trkpt lat="41.93306" lon="8.68566"/>
            <trkpt lat="41.93301" lon="8.68556"/>
            <trkpt lat="41.93298" lon="8.68539"/>
            <trkpt lat="41.93298" lon="8.68535"/>
            <trkpt lat="41.93297" lon="8.6853"/>
            <trkpt lat="41.93299" lon="8.68519"/>
            <trkpt lat="41.93301" lon="8.68509"/>
            <trkpt lat="41.93304" lon="8.68503"/>
            <trkpt lat="41.93312" lon="8.68492"/>
            <trkpt lat="41.93335" lon="8.68462"/>
            <trkpt lat="41.93344" lon="8.68445"/>
            <trkpt lat="41.93366" lon="8.68394"/>
            <trkpt lat="41.93375" lon="8.68366"/>
            <trkpt lat="41.93377" lon="8.68354"/>
            <trkpt lat="41.93378" lon="8.68341"/>
            <trkpt lat="41.93377" lon="8.6833"/>
            <trkpt lat="41.93365" lon="8.68233"/>
            <trkpt lat="41.93362" lon="8.68185"/>
            <trkpt lat="41.93366" lon="8.68081"/>
            <trkpt lat="41.93368" lon="8.68064"/>
            <trkpt lat="41.93371" lon="8.68048"/>
            <trkpt lat="41.93375" lon="8.68037"/>
            <trkpt lat="41.93389" lon="8.68008"/>
            <trkpt lat="41.93399" lon="8.67992"/>
            <trkpt lat="41.93402" lon="8.67984"/>
            <trkpt lat="41.93404" lon="8.67976"/>
            <trkpt lat="41.93404" lon="8.67971"/>
            <trkpt lat="41.93402" lon="8.67967"/>
            <trkpt lat="41.93397" lon="8.67959"/>
            <trkpt lat="41.93392" lon="8.67956"/>
            <trkpt lat="41.93386" lon="8.67955"/>
            <trkpt lat="41.93381" lon="8.67956"/>
            <trkpt lat="41.93373" lon="8.6796"/>
            <trkpt lat="41.93349" lon="8.67981"/>
            <trkpt lat="41.93336" lon="8.67994"/>
            <trkpt lat="41.9333" lon="8.67998"/>
            <trkpt lat="41.93323" lon="8.68"/>
            <trkpt lat="41.93317" lon="8.68"/>
            <trkpt lat="41.93302" lon="8.67992"/>
            <trkpt lat="41.93299" lon="8.67988"/>
            <trkpt lat="41.93296" lon="8.67983"/>
            <trkpt lat="41.93294" lon="8.67976"/>
            <trkpt lat="41.93293" lon="8.67964"/>
            <trkpt lat="41.93293" lon="8.67934"/>
            <trkpt lat="41.93292" lon="8.6792"/>
            <trkpt lat="41.93292" lon="8.67908"/>
            <trkpt lat="41.93289" lon="8.67843"/>
            <trkpt lat="41.93288" lon="8.67823"/>
            <trkpt lat="41.93284" lon="8.67736"/>
            <trkpt lat="41.93279" lon="8.67688"/>
            <trkpt lat="41.93274" lon="8.67658"/>
            <trkpt lat="41.9326" lon="8.67601"/>
            <trkpt lat="41.93256" lon="8.67577"/>
            <trkpt lat="41.93253" lon="8.67544"/>
            <trkpt lat="41.93254" lon="8.67508"/>
            <trkpt lat="41.93259" lon="8.67413"/>
            <trkpt lat="41.9326" lon="8.67382"/>
            <trkpt lat="41.93258" lon="8.67347"/>
            <trkpt lat="41.93255" lon="8.67262"/>
            <trkpt lat="41.93256" lon="8.67246"/>
            <trkpt lat="41.9326" lon="8.67226"/>
            <trkpt lat="41.93263" lon="8.67218"/>
            <trkpt lat="41.93267" lon="8.67209"/>
            <trkpt lat="41.93274" lon="8.67201"/>
            <trkpt lat="41.933" lon="8.67174"/>
            <trkpt lat="41.93308" lon="8.67166"/>
            <trkpt lat="41.93313" lon="8.67158"/>
            <trkpt lat="41.93316" lon="8.67149"/>
            <trkpt lat="41.93318" lon="8.67138"/>
            <trkpt lat="41.93316" lon="8.67115"/>
            <trkpt lat="41.93312" lon="8.671"/>
            <trkpt lat="41.93308" lon="8.67088"/>
            <trkpt lat="41.93304" lon="8.67078"/>
            <trkpt lat="41.93285" lon="8.67018"/>
            <trkpt lat="41.9328" lon="8.66996"/>
            <trkpt lat="41.93279" lon="8.66985"/>
            <trkpt lat="41.93279" lon="8.66975"/>
            <trkpt lat="41.933" lon="8.66846"/>
            <trkpt lat="41.93301" lon="8.66839"/>
            <trkpt lat="41.93307" lon="8.66793"/>
            <trkpt lat="41.93308" lon="8.66775"/>
            <trkpt lat="41.93307" lon="8.66767"/>
            <trkpt lat="41.93305" lon="8.66761"/>
            <trkpt lat="41.93301" lon="8.66756"/>
            <trkpt lat="41.93298" lon="8.66752"/>
            <trkpt lat="41.93262" lon="8.66729"/>
            <trkpt lat="41.93258" lon="8.66727"/>
            <trkpt lat="41.93253" lon="8.66722"/>
            <trkpt lat="41.9325" lon="8.66716"/>
            <trkpt lat="41.93248" lon="8.66709"/>
            <trkpt lat="41.93246" lon="8.66702"/>
            <trkpt lat="41.93246" lon="8.66693"/>
            <trkpt lat="41.93248" lon="8.66655"/>
            <trkpt lat="41.93247" lon="8.66604"/>
            <trkpt lat="41.93245" lon="8.66587"/>
            <trkpt lat="41.93243" lon="8.6658"/>
            <trkpt lat="41.93239" lon="8.66573"/>
            <trkpt lat="41.93236" lon="8.66568"/>
            <trkpt lat="41.9323" lon="8.66562"/>
            <trkpt lat="41.93219" lon="8.66554"/>
            <trkpt lat="41.93199" lon="8.66544"/>
            <trkpt lat="41.93179" lon="8.66536"/>
            <trkpt lat="41.93139" lon="8.66524"/>
            <trkpt lat="41.93058" lon="8.66498"/>
            <trkpt lat="41.9305" lon="8.66494"/>
            <trkpt lat="41.93044" lon="8.66488"/>
            <trkpt lat="41.93039" lon="8.66479"/>
            <trkpt lat="41.93035" lon="8.66467"/>
            <trkpt lat="41.93035" lon="8.66458"/>
            <trkpt lat="41.93037" lon="8.66444"/>
            <trkpt lat="41.93039" lon="8.66439"/>
            <trkpt lat="41.93044" lon="8.66432"/>
            <trkpt lat="41.93125" lon="8.66326"/>
            <trkpt lat="41.93131" lon="8.66316"/>
            <trkpt lat="41.93137" lon="8.663"/>
            <trkpt lat="41.93138" lon="8.66295"/>
            <trkpt lat="41.93138" lon="8.66287"/>
            <trkpt lat="41.93137" lon="8.66281"/>
            <trkpt lat="41.93136" lon="8.66276"/>
            <trkpt lat="41.93125" lon="8.66247"/>
            <trkpt lat="41.93123" lon="8.66236"/>
            <trkpt lat="41.93116" lon="8.66167"/>
            <trkpt lat="41.93116" lon="8.6613"/>
            <trkpt lat="41.93115" lon="8.66067"/>
            <trkpt lat="41.93112" lon="8.66038"/>
            <trkpt lat="41.93099" lon="8.65975"/>
            <trkpt lat="41.93078" lon="8.65886"/>
            <trkpt lat="41.9305" lon="8.65745"/>
            <trkpt lat="41.93045" lon="8.65723"/>
            <trkpt lat="41.93038" lon="8.65692"/>
            <trkpt lat="41.93034" lon="8.6567"/>
            <trkpt lat="41.93032" lon="8.65634"/>
            <trkpt lat="41.93033" lon="8.65582"/>
            <trkpt lat="41.93044" lon="8.65515"/>
            <trkpt lat="41.9306" lon="8.65452"/>
            <trkpt lat="41.93063" lon="8.65432"/>
            <trkpt lat="41.93064" lon="8.65414"/>
            <trkpt lat="41.93062" lon="8.65341"/>
            <trkpt lat="41.93062" lon="8.65292"/>
            <trkpt lat="41.93057" lon="8.65238"/>
            <trkpt lat="41.93053" lon="8.65221"/>
            <trkpt lat="41.93023" lon="8.65138"/>
            <trkpt lat="41.92984" lon="8.65039"/>
            <trkpt lat="41.92982" lon="8.65028"/>
            <trkpt lat="41.92979" lon="8.65006"/>
            <trkpt lat="41.92979" lon="8.64982"/>
            <trkpt lat="41.92981" lon="8.64964"/>
            <trkpt lat="41.92997" lon="8.64896"/>
            <trkpt lat="41.93" lon="8.64892"/>
            <trkpt lat="41.93005" lon="8.6487"/>
            <trkpt lat="41.93006" lon="8.64859"/>
            <trkpt lat="41.93006" lon="8.64853"/>
            <trkpt lat="41.93005" lon="8.64844"/>
            <trkpt lat="41.93003" lon="8.64835"/>
            <trkpt lat="41.92996" lon="8.64822"/>
            <trkpt lat="41.92989" lon="8.64815"/>
            <trkpt lat="41.92985" lon="8.64813"/>
            <trkpt lat="41.92974" lon="8.6481"/>
            <trkpt lat="41.92966" lon="8.6481"/>
            <trkpt lat="41.92963" lon="8.64811"/>
            <trkpt lat="41.92955" lon="8.64814"/>
            <trkpt lat="41.92928" lon="8.64837"/>
            <trkpt lat="41.92924" lon="8.6484"/>
            <trkpt lat="41.92923" lon="8.64845"/>
            <trkpt lat="41.92915" lon="8.64854"/>
            <trkpt lat="41.92903" lon="8.64877"/>
            <trkpt lat="41.92894" lon="8.64891"/>
            <trkpt lat="41.92886" lon="8.64898"/>
            <trkpt lat="41.92874" lon="8.64907"/>
            <trkpt lat="41.92869" lon="8.6491"/>
            <trkpt lat="41.92861" lon="8.64912"/>
            <trkpt lat="41.92841" lon="8.64911"/>
            <trkpt lat="41.92823" lon="8.64906"/>
            <trkpt lat="41.92817" lon="8.64903"/>
            <trkpt lat="41.92795" lon="8.64898"/>
            <trkpt lat="41.92776" lon="8.64897"/>
            <trkpt lat="41.92654" lon="8.64908"/>
            <trkpt lat="41.92646" lon="8.64906"/>
            <trkpt lat="41.92623" lon="8.64897"/>
            <trkpt lat="41.92609" lon="8.64887"/>
            <trkpt lat="41.92602" lon="8.64879"/>
            <trkpt lat="41.92557" lon="8.64808"/>
            <trkpt lat="41.92535" lon="8.64788"/>
            <trkpt lat="41.92515" lon="8.64777"/>
            <trkpt lat="41.92476" lon="8.64765"/>
            <trkpt lat="41.92451" lon="8.64757"/>
            <trkpt lat="41.92438" lon="8.64751"/>
            <trkpt lat="41.9243" lon="8.64747"/>
            <trkpt lat="41.92421" lon="8.64737"/>
            <trkpt lat="41.92419" lon="8.64731"/>
            <trkpt lat="41.92411" lon="8.64693"/>
            <trkpt lat="41.9241" lon="8.64684"/>
            <trkpt lat="41.92411" lon="8.64671"/>
            <trkpt lat="41.92413" lon="8.64662"/>
            <trkpt lat="41.92422" lon="8.64632"/>
            <trkpt lat="41.92438" lon="8.6459"/>
            <trkpt lat="41.92442" lon="8.6458"/>
            <trkpt lat="41.92447" lon="8.64573"/>
            <trkpt lat="41.92461" lon="8.64556"/>
            <trkpt lat="41.92464" lon="8.64553"/>
            <trkpt lat="41.92468" lon="8.64552"/>
            <trkpt lat="41.92473" lon="8.64551"/>
            <trkpt lat="41.92486" lon="8.64554"/>
            <trkpt lat="41.92494" lon="8.64555"/>
            <trkpt lat="41.92497" lon="8.64554"/>
            <trkpt lat="41.92501" lon="8.64552"/>
            <trkpt lat="41.92511" lon="8.64545"/>
            <trkpt lat="41.92515" lon="8.64538"/>
            <trkpt lat="41.92516" lon="8.6453"/>
            <trkpt lat="41.92517" lon="8.64524"/>
            <trkpt lat="41.92517" lon="8.64509"/>
            <trkpt lat="41.92515" lon="8.64488"/>
            <trkpt lat="41.92516" lon="8.64483"/>
            <trkpt lat="41.92511" lon="8.64436"/>
            <trkpt lat="41.92515" lon="8.64428"/>
            <trkpt lat="41.92517" lon="8.64423"/>
            <trkpt lat="41.92517" lon="8.6442"/>
            <trkpt lat="41.92522" lon="8.64354"/>
            <trkpt lat="41.92521" lon="8.64335"/>
            <trkpt lat="41.92517" lon="8.64314"/>
            <trkpt lat="41.92514" lon="8.64306"/>
            <trkpt lat="41.92504" lon="8.64283"/>
            <trkpt lat="41.92498" lon="8.64271"/>
            <trkpt lat="41.92495" lon="8.64267"/>
            <trkpt lat="41.92463" lon="8.64236"/>
            <trkpt lat="41.92457" lon="8.64229"/>
            <trkpt lat="41.92454" lon="8.64225"/>
            <trkpt lat="41.92452" lon="8.6422"/>
            <trkpt lat="41.92448" lon="8.64207"/>
            <trkpt lat="41.92446" lon="8.64203"/>
            <trkpt lat="41.92443" lon="8.642"/>
            <trkpt lat="41.92441" lon="8.64198"/>
            <trkpt lat="41.92398" lon="8.64169"/>
            <trkpt lat="41.92392" lon="8.64161"/>
            <trkpt lat="41.9239" lon="8.64157"/>
            <trkpt lat="41.9239" lon="8.64153"/>
            <trkpt lat="41.92391" lon="8.64149"/>
            <trkpt lat="41.92393" lon="8.64146"/>
            <trkpt lat="41.92398" lon="8.64143"/>
            <trkpt lat="41.92416" lon="8.64135"/>
            <trkpt lat="41.92431" lon="8.64124"/>
            <trkpt lat="41.9245" lon="8.64104"/>
            <trkpt lat="41.92471" lon="8.64088"/>
            <trkpt lat="41.92477" lon="8.64079"/>
            <trkpt lat="41.9248" lon="8.64075"/>
            <trkpt lat="41.92485" lon="8.64071"/>
            <trkpt lat="41.92502" lon="8.64059"/>
            <trkpt lat="41.92508" lon="8.64053"/>
            <trkpt lat="41.92516" lon="8.64044"/>
            <trkpt lat="41.92532" lon="8.64023"/>
            <trkpt lat="41.92552" lon="8.63987"/>
            <trkpt lat="41.92555" lon="8.63985"/>
            <trkpt lat="41.92563" lon="8.63984"/>
            <trkpt lat="41.92572" lon="8.63983"/>
            <trkpt lat="41.92578" lon="8.63982"/>
            <trkpt lat="41.92582" lon="8.6398"/>
            <trkpt lat="41.92585" lon="8.63976"/>
            <trkpt lat="41.9259" lon="8.63964"/>
            <trkpt lat="41.92597" lon="8.63928"/>
            <trkpt lat="41.92599" lon="8.63922"/>
            <trkpt lat="41.92601" lon="8.63919"/>
            <trkpt lat="41.92604" lon="8.63915"/>
            <trkpt lat="41.92608" lon="8.6391"/>
            <trkpt lat="41.92615" lon="8.63904"/>
            <trkpt lat="41.92619" lon="8.639"/>
            <trkpt lat="41.92626" lon="8.63885"/>
            <trkpt lat="41.92631" lon="8.6387"/>
            <trkpt lat="41.9267" lon="8.63716"/>
            <trkpt lat="41.92673" lon="8.63697"/>
            <trkpt lat="41.92674" lon="8.63688"/>
            <trkpt lat="41.92674" lon="8.6366"/>
            <trkpt lat="41.92672" lon="8.63631"/>
            <trkpt lat="41.92664" lon="8.63595"/>
            <trkpt lat="41.92659" lon="8.63582"/>
            <trkpt lat="41.92657" lon="8.63578"/>
            <trkpt lat="41.92654" lon="8.63575"/>
            <trkpt lat="41.9265" lon="8.63573"/>
            <trkpt lat="41.92647" lon="8.63573"/>
            <trkpt lat="41.92617" lon="8.63582"/>
            <trkpt lat="41.92612" lon="8.63581"/>
            <trkpt lat="41.92608" lon="8.63581"/>
            <trkpt lat="41.92605" lon="8.63578"/>
            <trkpt lat="41.92604" lon="8.63575"/>
            <trkpt lat="41.92603" lon="8.6357"/>
            <trkpt lat="41.92604" lon="8.63565"/>
            <trkpt lat="41.92605" lon="8.63559"/>
            <trkpt lat="41.92616" lon="8.63529"/>
            <trkpt lat="41.92617" lon="8.63525"/>
            <trkpt lat="41.92617" lon="8.63522"/>
            <trkpt lat="41.92618" lon="8.63516"/>
            <trkpt lat="41.92617" lon="8.63509"/>
            <trkpt lat="41.92616" lon="8.635"/>
            <trkpt lat="41.92612" lon="8.63489"/>
            <trkpt lat="41.92609" lon="8.63484"/>
            <trkpt lat="41.92605" lon="8.6348"/>
            <trkpt lat="41.92591" lon="8.63468"/>
            <trkpt lat="41.92589" lon="8.63466"/>
            <trkpt lat="41.92588" lon="8.63463"/>
            <trkpt lat="41.92587" lon="8.6346"/>
            <trkpt lat="41.92587" lon="8.63456"/>
            <trkpt lat="41.92588" lon="8.63452"/>
            <trkpt lat="41.9259" lon="8.63446"/>
            <trkpt lat="41.92597" lon="8.63435"/>
            <trkpt lat="41.92603" lon="8.63429"/>
            <trkpt lat="41.9261" lon="8.63423"/>
            <trkpt lat="41.92624" lon="8.63414"/>
            <trkpt lat="41.92628" lon="8.63412"/>
            <trkpt lat="41.92631" lon="8.63408"/>
            <trkpt lat="41.92634" lon="8.63404"/>
            <trkpt lat="41.92639" lon="8.63396"/>
            <trkpt lat="41.92641" lon="8.6339"/>
            <trkpt lat="41.92643" lon="8.63384"/>
            <trkpt lat="41.92643" lon="8.63379"/>
            <trkpt lat="41.92643" lon="8.63375"/>
            <trkpt lat="41.92629" lon="8.63331"/>
            <trkpt lat="41.92627" lon="8.63326"/>
            <trkpt lat="41.92624" lon="8.63322"/>
            <trkpt lat="41.9262" lon="8.6332"/>
            <trkpt lat="41.92617" lon="8.63319"/>
            <trkpt lat="41.92614" lon="8.63319"/>
            <trkpt lat="41.92587" lon="8.63324"/>
            <trkpt lat="41.92584" lon="8.63324"/>
            <trkpt lat="41.92581" lon="8.63322"/>
            <trkpt lat="41.9258" lon="8.63319"/>
            <trkpt lat="41.92579" lon="8.63314"/>
            <trkpt lat="41.9258" lon="8.63309"/>
            <trkpt lat="41.92582" lon="8.63303"/>
            <trkpt lat="41.92587" lon="8.63292"/>
            <trkpt lat="41.92599" lon="8.6327"/>
            <trkpt lat="41.92604" lon="8.63261"/>
            <trkpt lat="41.92607" lon="8.63253"/>
            <trkpt lat="41.92608" lon="8.63248"/>
            <trkpt lat="41.92608" lon="8.63241"/>
            <trkpt lat="41.92607" lon="8.63235"/>
            <trkpt lat="41.92603" lon="8.63226"/>
            <trkpt lat="41.92598" lon="8.63218"/>
            <trkpt lat="41.92594" lon="8.63215"/>
            <trkpt lat="41.92589" lon="8.63212"/>
            <trkpt lat="41.92584" lon="8.63211"/>
            <trkpt lat="41.92568" lon="8.63211"/>
            <trkpt lat="41.92565" lon="8.6321"/>
            <trkpt lat="41.92563" lon="8.63208"/>
            <trkpt lat="41.92562" lon="8.63204"/>
            <trkpt lat="41.92563" lon="8.63198"/>
            <trkpt lat="41.92565" lon="8.6319"/>
            <trkpt lat="41.9257" lon="8.6318"/>
            <trkpt lat="41.92576" lon="8.63172"/>
            <trkpt lat="41.92588" lon="8.63162"/>
            <trkpt lat="41.92598" lon="8.63154"/>
            <trkpt lat="41.92608" lon="8.63146"/>
            <trkpt lat="41.92613" lon="8.63138"/>
            <trkpt lat="41.92617" lon="8.63132"/>
            <trkpt lat="41.92619" lon="8.63125"/>
            <trkpt lat="41.9262" lon="8.63119"/>
            <trkpt lat="41.9262" lon="8.63106"/>
            <trkpt lat="41.92619" lon="8.63101"/>
            <trkpt lat="41.92617" lon="8.63096"/>
            <trkpt lat="41.92608" lon="8.63081"/>
            <trkpt lat="41.92606" lon="8.63078"/>
            <trkpt lat="41.92605" lon="8.63073"/>
            <trkpt lat="41.92605" lon="8.63067"/>
            <trkpt lat="41.92606" lon="8.63063"/>
            <trkpt lat="41.92609" lon="8.63059"/>
            <trkpt lat="41.92614" lon="8.63051"/>
            <trkpt lat="41.92617" lon="8.63045"/>
            <trkpt lat="41.9262" lon="8.63036"/>
            <trkpt lat="41.92622" lon="8.6303"/>
            <trkpt lat="41.92622" lon="8.63024"/>
            <trkpt lat="41.92621" lon="8.6302"/>
            <trkpt lat="41.92619" lon="8.63016"/>
            <trkpt lat="41.92616" lon="8.63011"/>
            <trkpt lat="41.92613" lon="8.63007"/>
            <trkpt lat="41.92587" lon="8.62981"/>
            <trkpt lat="41.9258" lon="8.62973"/>
            <trkpt lat="41.92578" lon="8.62968"/>
            <trkpt lat="41.92576" lon="8.62964"/>
            <trkpt lat="41.92576" lon="8.6296"/>
            <trkpt lat="41.92578" lon="8.6295"/>
            <trkpt lat="41.92592" lon="8.62926"/>
            <trkpt lat="41.92594" lon="8.62919"/>
            <trkpt lat="41.92596" lon="8.62914"/>
            <trkpt lat="41.92596" lon="8.62907"/>
            <trkpt lat="41.92596" lon="8.62871"/>
            <trkpt lat="41.92596" lon="8.62863"/>
            <trkpt lat="41.92594" lon="8.62857"/>
            <trkpt lat="41.92592" lon="8.62852"/>
            <trkpt lat="41.92585" lon="8.62838"/>
            <trkpt lat="41.92583" lon="8.62833"/>
            <trkpt lat="41.92582" lon="8.62828"/>
            <trkpt lat="41.92582" lon="8.62821"/>
            <trkpt lat="41.92584" lon="8.62816"/>
            <trkpt lat="41.92586" lon="8.62808"/>
            <trkpt lat="41.92587" lon="8.62802"/>
            <trkpt lat="41.92588" lon="8.62795"/>
            <trkpt lat="41.9259" lon="8.62787"/>
            <trkpt lat="41.92592" lon="8.62783"/>
            <trkpt lat="41.92594" lon="8.62779"/>
            <trkpt lat="41.92602" lon="8.62773"/>
            <trkpt lat="41.92608" lon="8.62768"/>
            <trkpt lat="41.92611" lon="8.62764"/>
            <trkpt lat="41.92613" lon="8.62761"/>
            <trkpt lat="41.92616" lon="8.62755"/>
            <trkpt lat="41.92616" lon="8.62749"/>
            <trkpt lat="41.92617" lon="8.62741"/>
            <trkpt lat="41.9261" lon="8.6269"/>
            <trkpt lat="41.92623" lon="8.62644"/>
            <trkpt lat="41.9263" lon="8.62613"/>
            <trkpt lat="41.92643" lon="8.6258"/>
            <trkpt lat="41.92681" lon="8.62476"/>
            <trkpt lat="41.92703" lon="8.62421"/>
            <trkpt lat="41.92706" lon="8.62413"/>
            <trkpt lat="41.9273" lon="8.62345"/>
            <trkpt lat="41.92747" lon="8.62312"/>
            <trkpt lat="41.92747" lon="8.62312"/>
            <trkpt lat="41.9273" lon="8.62345"/>
            <trkpt lat="41.92706" lon="8.62413"/>
            <trkpt lat="41.92703" lon="8.62421"/>
            <trkpt lat="41.92681" lon="8.62476"/>
            <trkpt lat="41.92643" lon="8.6258"/>
            <trkpt lat="41.9263" lon="8.62613"/>
            <trkpt lat="41.92623" lon="8.62644"/>
            <trkpt lat="41.9261" lon="8.6269"/>
            <trkpt lat="41.92617" lon="8.62741"/>
            <trkpt lat="41.92616" lon="8.62749"/>
            <trkpt lat="41.92616" lon="8.62755"/>
            <trkpt lat="41.92613" lon="8.62761"/>
            <trkpt lat="41.92611" lon="8.62764"/>
            <trkpt lat="41.92608" lon="8.62768"/>
            <trkpt lat="41.92602" lon="8.62773"/>
            <trkpt lat="41.92594" lon="8.62779"/>
            <trkpt lat="41.92592" lon="8.62783"/>
            <trkpt lat="41.9259" lon="8.62787"/>
            <trkpt lat="41.92588" lon="8.62795"/>
            <trkpt lat="41.92587" lon="8.62802"/>
            <trkpt lat="41.92586" lon="8.62808"/>
            <trkpt lat="41.92584" lon="8.62816"/>
            <trkpt lat="41.92582" lon="8.62821"/>
            <trkpt lat="41.92582" lon="8.62828"/>
            <trkpt lat="41.92583" lon="8.62833"/>
            <trkpt lat="41.92585" lon="8.62838"/>
            <trkpt lat="41.92592" lon="8.62852"/>
            <trkpt lat="41.92594" lon="8.62857"/>
            <trkpt lat="41.92596" lon="8.62863"/>
            <trkpt lat="41.92596" lon="8.62871"/>
            <trkpt lat="41.92596" lon="8.62907"/>
            <trkpt lat="41.92596" lon="8.62914"/>
            <trkpt lat="41.92594" lon="8.62919"/>
            <trkpt lat="41.92592" lon="8.62926"/>
            <trkpt lat="41.92578" lon="8.6295"/>
            <trkpt lat="41.92576" lon="8.6296"/>
            <trkpt lat="41.92576" lon="8.62964"/>
            <trkpt lat="41.92578" lon="8.62968"/>
            <trkpt lat="41.9258" lon="8.62973"/>
            <trkpt lat="41.92587" lon="8.62981"/>
            <trkpt lat="41.92613" lon="8.63007"/>
            <trkpt lat="41.92616" lon="8.63011"/>
            <trkpt lat="41.92619" lon="8.63016"/>
            <trkpt lat="41.92621" lon="8.6302"/>
            <trkpt lat="41.92622" lon="8.63024"/>
            <trkpt lat="41.92622" lon="8.6303"/>
            <trkpt lat="41.9262" lon="8.63036"/>
            <trkpt lat="41.92617" lon="8.63045"/>
            <trkpt lat="41.92614" lon="8.63051"/>
            <trkpt lat="41.92609" lon="8.63059"/>
            <trkpt lat="41.92606" lon="8.63063"/>
            <trkpt lat="41.92605" lon="8.63067"/>
            <trkpt lat="41.92605" lon="8.63073"/>
            <trkpt lat="41.92606" lon="8.63078"/>
            <trkpt lat="41.92608" lon="8.63081"/>
            <trkpt lat="41.92617" lon="8.63096"/>
            <trkpt lat="41.92619" lon="8.63101"/>
            <trkpt lat="41.9262" lon="8.63106"/>
            <trkpt lat="41.9262" lon="8.63119"/>
            <trkpt lat="41.92619" lon="8.63125"/>
            <trkpt lat="41.92617" lon="8.63132"/>
            <trkpt lat="41.92613" lon="8.63138"/>
            <trkpt lat="41.92608" lon="8.63146"/>
            <trkpt lat="41.92598" lon="8.63154"/>
            <trkpt lat="41.92588" lon="8.63162"/>
            <trkpt lat="41.92576" lon="8.63172"/>
            <trkpt lat="41.9257" lon="8.6318"/>
            <trkpt lat="41.92565" lon="8.6319"/>
            <trkpt lat="41.92563" lon="8.63198"/>
            <trkpt lat="41.92562" lon="8.63204"/>
            <trkpt lat="41.92563" lon="8.63208"/>
            <trkpt lat="41.92565" lon="8.6321"/>
            <trkpt lat="41.92568" lon="8.63211"/>
            <trkpt lat="41.92584" lon="8.63211"/>
            <trkpt lat="41.92589" lon="8.63212"/>
            <trkpt lat="41.92594" lon="8.63215"/>
            <trkpt lat="41.92598" lon="8.63218"/>
            <trkpt lat="41.92603" lon="8.63226"/>
            <trkpt lat="41.92607" lon="8.63235"/>
            <trkpt lat="41.92608" lon="8.63241"/>
            <trkpt lat="41.92608" lon="8.63248"/>
            <trkpt lat="41.92607" lon="8.63253"/>
            <trkpt lat="41.92604" lon="8.63261"/>
            <trkpt lat="41.92599" lon="8.6327"/>
            <trkpt lat="41.92587" lon="8.63292"/>
            <trkpt lat="41.92582" lon="8.63303"/>
            <trkpt lat="41.9258" lon="8.63309"/>
            <trkpt lat="41.92579" lon="8.63314"/>
            <trkpt lat="41.9258" lon="8.63319"/>
            <trkpt lat="41.92581" lon="8.63322"/>
            <trkpt lat="41.92584" lon="8.63324"/>
            <trkpt lat="41.92587" lon="8.63324"/>
            <trkpt lat="41.92614" lon="8.63319"/>
            <trkpt lat="41.92617" lon="8.63319"/>
            <trkpt lat="41.9262" lon="8.6332"/>
            <trkpt lat="41.92624" lon="8.63322"/>
            <trkpt lat="41.92627" lon="8.63326"/>
            <trkpt lat="41.92629" lon="8.63331"/>
            <trkpt lat="41.92643" lon="8.63375"/>
            <trkpt lat="41.92643" lon="8.63379"/>
            <trkpt lat="41.92643" lon="8.63384"/>
            <trkpt lat="41.92641" lon="8.6339"/>
            <trkpt lat="41.92639" lon="8.63396"/>
            <trkpt lat="41.92634" lon="8.63404"/>
            <trkpt lat="41.92631" lon="8.63408"/>
            <trkpt lat="41.92628" lon="8.63412"/>
            <trkpt lat="41.92624" lon="8.63414"/>
            <trkpt lat="41.9261" lon="8.63423"/>
            <trkpt lat="41.92603" lon="8.63429"/>
            <trkpt lat="41.92597" lon="8.63435"/>
            <trkpt lat="41.9259" lon="8.63446"/>
            <trkpt lat="41.92588" lon="8.63452"/>
            <trkpt lat="41.92587" lon="8.63456"/>
            <trkpt lat="41.92587" lon="8.6346"/>
            <trkpt lat="41.92588" lon="8.63463"/>
            <trkpt lat="41.92589" lon="8.63466"/>
            <trkpt lat="41.92591" lon="8.63468"/>
            <trkpt lat="41.92605" lon="8.6348"/>
            <trkpt lat="41.92609" lon="8.63484"/>
            <trkpt lat="41.92612" lon="8.63489"/>
            <trkpt lat="41.92616" lon="8.635"/>
            <trkpt lat="41.92617" lon="8.63509"/>
            <trkpt lat="41.92618" lon="8.63516"/>
            <trkpt lat="41.92617" lon="8.63522"/>
            <trkpt lat="41.92617" lon="8.63525"/>
            <trkpt lat="41.92616" lon="8.63529"/>
            <trkpt lat="41.92605" lon="8.63559"/>
            <trkpt lat="41.92604" lon="8.63565"/>
            <trkpt lat="41.92603" lon="8.6357"/>
            <trkpt lat="41.92604" lon="8.63575"/>
            <trkpt lat="41.92605" lon="8.63578"/>
            <trkpt lat="41.92608" lon="8.63581"/>
            <trkpt lat="41.92612" lon="8.63581"/>
            <trkpt lat="41.92617" lon="8.63582"/>
            <trkpt lat="41.92647" lon="8.63573"/>
            <trkpt lat="41.9265" lon="8.63573"/>
            <trkpt lat="41.92654" lon="8.63575"/>
            <trkpt lat="41.92657" lon="8.63578"/>
            <trkpt lat="41.92659" lon="8.63582"/>
            <trkpt lat="41.92664" lon="8.63595"/>
            <trkpt lat="41.92672" lon="8.63631"/>
            <trkpt lat="41.92674" lon="8.6366"/>
            <trkpt lat="41.92674" lon="8.63688"/>
            <trkpt lat="41.92673" lon="8.63697"/>
            <trkpt lat="41.9267" lon="8.63716"/>
            <trkpt lat="41.92631" lon="8.6387"/>
            <trkpt lat="41.92626" lon="8.63885"/>
            <trkpt lat="41.92619" lon="8.639"/>
            <trkpt lat="41.92615" lon="8.63904"/>
            <trkpt lat="41.92608" lon="8.6391"/>
            <trkpt lat="41.92604" lon="8.63915"/>
            <trkpt lat="41.92601" lon="8.63919"/>
            <trkpt lat="41.92599" lon="8.63922"/>
            <trkpt lat="41.92597" lon="8.63928"/>
            <trkpt lat="41.9259" lon="8.63964"/>
            <trkpt lat="41.92585" lon="8.63976"/>
            <trkpt lat="41.92582" lon="8.6398"/>
            <trkpt lat="41.92578" lon="8.63982"/>
            <trkpt lat="41.92572" lon="8.63983"/>
            <trkpt lat="41.92563" lon="8.63984"/>
            <trkpt lat="41.92555" lon="8.63985"/>
            <trkpt lat="41.92552" lon="8.63987"/>
            <trkpt lat="41.92532" lon="8.64023"/>
            <trkpt lat="41.92516" lon="8.64044"/>
            <trkpt lat="41.92508" lon="8.64053"/>
            <trkpt lat="41.92502" lon="8.64059"/>
            <trkpt lat="41.92485" lon="8.64071"/>
            <trkpt lat="41.9248" lon="8.64075"/>
            <trkpt lat="41.92477" lon="8.64079"/>
            <trkpt lat="41.92471" lon="8.64088"/>
            <trkpt lat="41.9245" lon="8.64104"/>
            <trkpt lat="41.92431" lon="8.64124"/>
            <trkpt lat="41.92416" lon="8.64135"/>
            <trkpt lat="41.92398" lon="8.64143"/>
            <trkpt lat="41.92393" lon="8.64146"/>
            <trkpt lat="41.92391" lon="8.64149"/>
            <trkpt lat="41.9239" lon="8.64153"/>
            <trkpt lat="41.9239" lon="8.64157"/>
            <trkpt lat="41.92392" lon="8.64161"/>
            <trkpt lat="41.92398" lon="8.64169"/>
            <trkpt lat="41.92441" lon="8.64198"/>
            <trkpt lat="41.92443" lon="8.642"/>
            <trkpt lat="41.92446" lon="8.64203"/>
            <trkpt lat="41.92448" lon="8.64207"/>
            <trkpt lat="41.92452" lon="8.6422"/>
            <trkpt lat="41.92454" lon="8.64225"/>
            <trkpt lat="41.92457" lon="8.64229"/>
            <trkpt lat="41.92463" lon="8.64236"/>
            <trkpt lat="41.92495" lon="8.64267"/>
            <trkpt lat="41.92498" lon="8.64271"/>
            <trkpt lat="41.92504" lon="8.64283"/>
            <trkpt lat="41.92514" lon="8.64306"/>
            <trkpt lat="41.92517" lon="8.64314"/>
            <trkpt lat="41.92521" lon="8.64335"/>
            <trkpt lat="41.92522" lon="8.64354"/>
            <trkpt lat="41.92517" lon="8.6442"/>
            <trkpt lat="41.92517" lon="8.64423"/>
            <trkpt lat="41.92515" lon="8.64428"/>
            <trkpt lat="41.92511" lon="8.64436"/>
            <trkpt lat="41.92508" lon="8.64385"/>
            <trkpt lat="41.92505" lon="8.64372"/>
            <trkpt lat="41.92502" lon="8.64361"/>
            <trkpt lat="41.92501" lon="8.64358"/>
            <trkpt lat="41.92499" lon="8.64354"/>
            <trkpt lat="41.92485" lon="8.64336"/>
            <trkpt lat="41.92477" lon="8.6433"/>
            <trkpt lat="41.92457" lon="8.64316"/>
            <trkpt lat="41.92452" lon="8.64317"/>
            <trkpt lat="41.92428" lon="8.64301"/>
            <trkpt lat="41.9242" lon="8.64291"/>
            <trkpt lat="41.9241" lon="8.64275"/>
            <trkpt lat="41.92407" lon="8.64271"/>
            <trkpt lat="41.92402" lon="8.64267"/>
            <trkpt lat="41.92391" lon="8.64262"/>
            <trkpt lat="41.92383" lon="8.64259"/>
            <trkpt lat="41.92375" lon="8.64258"/>
            <trkpt lat="41.92316" lon="8.6425"/>
            <trkpt lat="41.92283" lon="8.64252"/>
            <trkpt lat="41.92251" lon="8.64263"/>
            <trkpt lat="41.92231" lon="8.64267"/>
            <trkpt lat="41.92192" lon="8.64259"/>
            <trkpt lat="41.92142" lon="8.64242"/>
            <trkpt lat="41.92094" lon="8.64231"/>
            <trkpt lat="41.92066" lon="8.6423"/>
            <trkpt lat="41.92065" lon="8.6423"/>
            <trkpt lat="41.92061" lon="8.64231"/>
            <trkpt lat="41.92057" lon="8.64232"/>
            <trkpt lat="41.92046" lon="8.64238"/>
            <trkpt lat="41.92042" lon="8.64242"/>
            <trkpt lat="41.92036" lon="8.64248"/>
            <trkpt lat="41.92034" lon="8.64254"/>
            <trkpt lat="41.92033" lon="8.6426"/>
            <trkpt lat="41.92031" lon="8.64274"/>
            <trkpt lat="41.9203" lon="8.64279"/>
            <trkpt lat="41.92028" lon="8.64292"/>
            <trkpt lat="41.92026" lon="8.64301"/>
            <trkpt lat="41.92023" lon="8.6431"/>
            <trkpt lat="41.92019" lon="8.64321"/>
            <trkpt lat="41.92013" lon="8.6433"/>
            <trkpt lat="41.92007" lon="8.64338"/>
            <trkpt lat="41.92" lon="8.64343"/>
            <trkpt lat="41.91993" lon="8.64346"/>
            <trkpt lat="41.91986" lon="8.64347"/>
            <trkpt lat="41.9198" lon="8.64347"/>
            <trkpt lat="41.91972" lon="8.64345"/>
            <trkpt lat="41.91968" lon="8.64343"/>
            <trkpt lat="41.91949" lon="8.64334"/>
            <trkpt lat="41.91921" lon="8.64318"/>
            <trkpt lat="41.91865" lon="8.64293"/>
            <trkpt lat="41.91857" lon="8.64288"/>
            <trkpt lat="41.91853" lon="8.64284"/>
            <trkpt lat="41.91849" lon="8.64279"/>
            <trkpt lat="41.91845" lon="8.64271"/>
            <trkpt lat="41.91843" lon="8.64264"/>
            <trkpt lat="41.9184" lon="8.64254"/>
            <trkpt lat="41.91838" lon="8.6424"/>
            <trkpt lat="41.91838" lon="8.64223"/>
            <trkpt lat="41.91851" lon="8.64159"/>
            <trkpt lat="41.91853" lon="8.64139"/>
            <trkpt lat="41.91853" lon="8.64134"/>
            <trkpt lat="41.91851" lon="8.64128"/>
            <trkpt lat="41.91848" lon="8.64122"/>
            <trkpt lat="41.91845" lon="8.64119"/>
            <trkpt lat="41.9184" lon="8.64113"/>
            <trkpt lat="41.91833" lon="8.64109"/>
            <trkpt lat="41.91826" lon="8.64107"/>
            <trkpt lat="41.9182" lon="8.64106"/>
            <trkpt lat="41.91817" lon="8.64106"/>
            <trkpt lat="41.91814" lon="8.64107"/>
            <trkpt lat="41.91772" lon="8.64136"/>
            <trkpt lat="41.91742" lon="8.64158"/>
            <trkpt lat="41.9174" lon="8.64159"/>
            <trkpt lat="41.9173" lon="8.64167"/>
            <trkpt lat="41.91719" lon="8.64177"/>
            <trkpt lat="41.91702" lon="8.64195"/>
            <trkpt lat="41.91673" lon="8.6423"/>
            <trkpt lat="41.91654" lon="8.64248"/>
            <trkpt lat="41.91642" lon="8.64261"/>
            <trkpt lat="41.91611" lon="8.64302"/>
            <trkpt lat="41.91604" lon="8.64319"/>
            <trkpt lat="41.91603" lon="8.64326"/>
            <trkpt lat="41.91601" lon="8.64333"/>
            <trkpt lat="41.91599" lon="8.64356"/>
            <trkpt lat="41.91593" lon="8.64376"/>
            <trkpt lat="41.91582" lon="8.64397"/>
            <trkpt lat="41.91572" lon="8.64406"/>
            <trkpt lat="41.91555" lon="8.64412"/>
            <trkpt lat="41.91536" lon="8.64413"/>
            <trkpt lat="41.91492" lon="8.64396"/>
            <trkpt lat="41.91437" lon="8.64383"/>
            <trkpt lat="41.91359" lon="8.6437"/>
            <trkpt lat="41.91273" lon="8.64371"/>
            <trkpt lat="41.91253" lon="8.64374"/>
            <trkpt lat="41.91235" lon="8.64379"/>
            <trkpt lat="41.912" lon="8.64392"/>
            <trkpt lat="41.91133" lon="8.64423"/>
            <trkpt lat="41.91107" lon="8.64429"/>
            <trkpt lat="41.91092" lon="8.64431"/>
            <trkpt lat="41.91092" lon="8.64428"/>
            <trkpt lat="41.91092" lon="8.64426"/>
            <trkpt lat="41.91091" lon="8.64424"/>
            <trkpt lat="41.91089" lon="8.6442"/>
            <trkpt lat="41.91087" lon="8.64419"/>
            <trkpt lat="41.91085" lon="8.64374"/>
            <trkpt lat="41.91084" lon="8.64353"/>
            <trkpt lat="41.91083" lon="8.64303"/>
            <trkpt lat="41.91076" lon="8.64227"/>
            <trkpt lat="41.91073" lon="8.64213"/>
            <trkpt lat="41.91063" lon="8.64188"/>
            <trkpt lat="41.91053" lon="8.6417"/>
            <trkpt lat="41.91032" lon="8.64128"/>
            <trkpt lat="41.91004" lon="8.64074"/>
            <trkpt lat="41.90993" lon="8.64046"/>
            <trkpt lat="41.90982" lon="8.64011"/>
            <trkpt lat="41.90949" lon="8.63898"/>
            <trkpt lat="41.90944" lon="8.63869"/>
            <trkpt lat="41.90941" lon="8.63808"/>
            <trkpt lat="41.9094" lon="8.63793"/>
            <trkpt lat="41.90937" lon="8.6378"/>
            <trkpt lat="41.90934" lon="8.63775"/>
            <trkpt lat="41.90921" lon="8.63747"/>
            <trkpt lat="41.90918" lon="8.6374"/>
            <trkpt lat="41.90867" lon="8.6364"/>
            <trkpt lat="41.90857" lon="8.63614"/>
            <trkpt lat="41.90853" lon="8.63602"/>
            <trkpt lat="41.90847" lon="8.63577"/>
            <trkpt lat="41.90836" lon="8.63532"/>
            <trkpt lat="41.90834" lon="8.63525"/>
            <trkpt lat="41.90832" lon="8.63519"/>
            <trkpt lat="41.90828" lon="8.63506"/>
            <trkpt lat="41.90816" lon="8.63471"/>
            <trkpt lat="41.90812" lon="8.6346"/>
            <trkpt lat="41.90806" lon="8.63438"/>
            <trkpt lat="41.90795" lon="8.63386"/>
            <trkpt lat="41.90793" lon="8.63368"/>
            <trkpt lat="41.9079" lon="8.63329"/>
            <trkpt lat="41.90787" lon="8.63289"/>
            <trkpt lat="41.90783" lon="8.63261"/>
            <trkpt lat="41.90776" lon="8.63233"/>
            <trkpt lat="41.90765" lon="8.63201"/>
            <trkpt lat="41.90754" lon="8.63168"/>
            <trkpt lat="41.9074" lon="8.63123"/>
            <trkpt lat="41.90718" lon="8.63038"/>
            <trkpt lat="41.9069" lon="8.62917"/>
            <trkpt lat="41.90686" lon="8.62902"/>
            <trkpt lat="41.90677" lon="8.62878"/>
            <trkpt lat="41.90627" lon="8.62768"/>
            <trkpt lat="41.90619" lon="8.62756"/>
            <trkpt lat="41.90609" lon="8.62739"/>
            <trkpt lat="41.90606" lon="8.62736"/>
            <trkpt lat="41.90596" lon="8.62726"/>
            <trkpt lat="41.90587" lon="8.62719"/>
            <trkpt lat="41.90585" lon="8.62718"/>
            <trkpt lat="41.90514" lon="8.62684"/>
            <trkpt lat="41.90484" lon="8.62665"/>
            <trkpt lat="41.90368" lon="8.62578"/>
            <trkpt lat="41.90334" lon="8.62551"/>
            <trkpt lat="41.90311" lon="8.62527"/>
            <trkpt lat="41.9029" lon="8.62496"/>
            <trkpt lat="41.90281" lon="8.62477"/>
            <trkpt lat="41.9027" lon="8.62451"/>
            <trkpt lat="41.9026" lon="8.62415"/>
            <trkpt lat="41.90253" lon="8.62384"/>
            <trkpt lat="41.9025" lon="8.62354"/>
            <trkpt lat="41.90246" lon="8.62202"/>
            <trkpt lat="41.90244" lon="8.62187"/>
            <trkpt lat="41.9024" lon="8.6216"/>
            <trkpt lat="41.9022" lon="8.62081"/>
            <trkpt lat="41.90218" lon="8.62074"/>
            <trkpt lat="41.90194" lon="8.61994"/>
            <trkpt lat="41.90186" lon="8.61966"/>
            <trkpt lat="41.90177" lon="8.61938"/>
            <trkpt lat="41.90159" lon="8.61876"/>
            <trkpt lat="41.90152" lon="8.61852"/>
            <trkpt lat="41.90146" lon="8.6183"/>
            <trkpt lat="41.90138" lon="8.61802"/>
            <trkpt lat="41.90129" lon="8.61771"/>
            <trkpt lat="41.9012" lon="8.6174"/>
            <trkpt lat="41.90109" lon="8.61709"/>
            <trkpt lat="41.90099" lon="8.61678"/>
            <trkpt lat="41.9009" lon="8.61657"/>
            <trkpt lat="41.9007" lon="8.6162"/>
            <trkpt lat="41.90057" lon="8.61601"/>
            <trkpt lat="41.9004" lon="8.61583"/>
            <trkpt lat="41.90011" lon="8.61557"/>
            <trkpt lat="41.89939" lon="8.61503"/>
            <trkpt lat="41.89921" lon="8.61488"/>
            <trkpt lat="41.89889" lon="8.61455"/>
            <trkpt lat="41.89878" lon="8.61441"/>
            <trkpt lat="41.89856" lon="8.61409"/>
            <trkpt lat="41.89825" lon="8.61346"/>
            <trkpt lat="41.89815" lon="8.61328"/>
            <trkpt lat="41.8978" lon="8.61265"/>
            <trkpt lat="41.89765" lon="8.61243"/>
            <trkpt lat="41.89761" lon="8.61234"/>
            <trkpt lat="41.89742" lon="8.61176"/>
            <trkpt lat="41.89739" lon="8.61169"/>
            <trkpt lat="41.89734" lon="8.6116"/>
            <trkpt lat="41.89719" lon="8.61138"/>
            <trkpt lat="41.89683" lon="8.6108"/>
            <trkpt lat="41.89683" lon="8.6108"/>
            <trkpt lat="41.89719" lon="8.61138"/>
            <trkpt lat="41.89734" lon="8.6116"/>
            <trkpt lat="41.89739" lon="8.61169"/>
            <trkpt lat="41.89742" lon="8.61176"/>
            <trkpt lat="41.89761" lon="8.61234"/>
            <trkpt lat="41.89765" lon="8.61243"/>
            <trkpt lat="41.8978" lon="8.61265"/>
            <trkpt lat="41.89815" lon="8.61328"/>
            <trkpt lat="41.89825" lon="8.61346"/>
            <trkpt lat="41.89856" lon="8.61409"/>
            <trkpt lat="41.89878" lon="8.61441"/>
            <trkpt lat="41.89889" lon="8.61455"/>
            <trkpt lat="41.89921" lon="8.61488"/>
            <trkpt lat="41.89939" lon="8.61503"/>
            <trkpt lat="41.90011" lon="8.61557"/>
            <trkpt lat="41.9004" lon="8.61583"/>
            <trkpt lat="41.90057" lon="8.61601"/>
            <trkpt lat="41.9007" lon="8.6162"/>
            <trkpt lat="41.9009" lon="8.61657"/>
            <trkpt lat="41.90099" lon="8.61678"/>
            <trkpt lat="41.90109" lon="8.61709"/>
            <trkpt lat="41.9012" lon="8.6174"/>
            <trkpt lat="41.90129" lon="8.61771"/>
            <trkpt lat="41.90138" lon="8.61802"/>
            <trkpt lat="41.90146" lon="8.6183"/>
            <trkpt lat="41.90152" lon="8.61852"/>
            <trkpt lat="41.90159" lon="8.61876"/>
            <trkpt lat="41.90177" lon="8.61938"/>
            <trkpt lat="41.90186" lon="8.61966"/>
            <trkpt lat="41.90194" lon="8.61994"/>
            <trkpt lat="41.90218" lon="8.62074"/>
            <trkpt lat="41.9022" lon="8.62081"/>
            <trkpt lat="41.9024" lon="8.6216"/>
            <trkpt lat="41.90244" lon="8.62187"/>
            <trkpt lat="41.90246" lon="8.62202"/>
            <trkpt lat="41.9025" lon="8.62354"/>
            <trkpt lat="41.90253" lon="8.62384"/>
            <trkpt lat="41.9026" lon="8.62415"/>
            <trkpt lat="41.9027" lon="8.62451"/>
            <trkpt lat="41.90281" lon="8.62477"/>
            <trkpt lat="41.9029" lon="8.62496"/>
            <trkpt lat="41.90311" lon="8.62527"/>
            <trkpt lat="41.90334" lon="8.62551"/>
            <trkpt lat="41.90368" lon="8.62578"/>
            <trkpt lat="41.90484" lon="8.62665"/>
            <trkpt lat="41.90514" lon="8.62684"/>
            <trkpt lat="41.90585" lon="8.62718"/>
            <trkpt lat="41.90587" lon="8.62719"/>
            <trkpt lat="41.90596" lon="8.62726"/>
            <trkpt lat="41.90606" lon="8.62736"/>
            <trkpt lat="41.90609" lon="8.62739"/>
            <trkpt lat="41.90619" lon="8.62756"/>
            <trkpt lat="41.90627" lon="8.62768"/>
            <trkpt lat="41.90677" lon="8.62878"/>
            <trkpt lat="41.90686" lon="8.62902"/>
            <trkpt lat="41.9069" lon="8.62917"/>
            <trkpt lat="41.90718" lon="8.63038"/>
            <trkpt lat="41.9074" lon="8.63123"/>
            <trkpt lat="41.90754" lon="8.63168"/>
            <trkpt lat="41.90765" lon="8.63201"/>
            <trkpt lat="41.90776" lon="8.63233"/>
            <trkpt lat="41.90783" lon="8.63261"/>
            <trkpt lat="41.90787" lon="8.63289"/>
            <trkpt lat="41.9079" lon="8.63329"/>
            <trkpt lat="41.90793" lon="8.63368"/>
            <trkpt lat="41.90795" lon="8.63386"/>
            <trkpt lat="41.90806" lon="8.63438"/>
            <trkpt lat="41.90812" lon="8.6346"/>
            <trkpt lat="41.90816" lon="8.63471"/>
            <trkpt lat="41.90828" lon="8.63506"/>
            <trkpt lat="41.90832" lon="8.63519"/>
            <trkpt lat="41.90834" lon="8.63525"/>
            <trkpt lat="41.90836" lon="8.63532"/>
            <trkpt lat="41.90847" lon="8.63577"/>
            <trkpt lat="41.90853" lon="8.63602"/>
            <trkpt lat="41.90857" lon="8.63614"/>
            <trkpt lat="41.90867" lon="8.6364"/>
            <trkpt lat="41.90918" lon="8.6374"/>
            <trkpt lat="41.90921" lon="8.63747"/>
            <trkpt lat="41.90934" lon="8.63775"/>
            <trkpt lat="41.90937" lon="8.6378"/>
            <trkpt lat="41.9094" lon="8.63793"/>
            <trkpt lat="41.90941" lon="8.63808"/>
            <trkpt lat="41.90944" lon="8.63869"/>
            <trkpt lat="41.90949" lon="8.63898"/>
            <trkpt lat="41.90982" lon="8.64011"/>
            <trkpt lat="41.90993" lon="8.64046"/>
            <trkpt lat="41.91004" lon="8.64074"/>
            <trkpt lat="41.91032" lon="8.64128"/>
            <trkpt lat="41.91053" lon="8.6417"/>
            <trkpt lat="41.91063" lon="8.64188"/>
            <trkpt lat="41.91073" lon="8.64213"/>
            <trkpt lat="41.91076" lon="8.64227"/>
            <trkpt lat="41.91083" lon="8.64303"/>
            <trkpt lat="41.91084" lon="8.64353"/>
            <trkpt lat="41.91085" lon="8.64374"/>
            <trkpt lat="41.91087" lon="8.64419"/>
            <trkpt lat="41.91084" lon="8.64419"/>
            <trkpt lat="41.91079" lon="8.64422"/>
            <trkpt lat="41.91078" lon="8.64424"/>
            <trkpt lat="41.91077" lon="8.64427"/>
            <trkpt lat="41.91076" lon="8.6443"/>
            <trkpt lat="41.91076" lon="8.64432"/>
            <trkpt lat="41.91071" lon="8.64431"/>
            <trkpt lat="41.91045" lon="8.64432"/>
            <trkpt lat="41.91041" lon="8.64431"/>
            <trkpt lat="41.91035" lon="8.64423"/>
            <trkpt lat="41.9103" lon="8.6443"/>
            <trkpt lat="41.91028" lon="8.64436"/>
            <trkpt lat="41.91025" lon="8.64457"/>
            <trkpt lat="41.91015" lon="8.64477"/>
            <trkpt lat="41.91011" lon="8.64499"/>
            <trkpt lat="41.9101" lon="8.64506"/>
            <trkpt lat="41.9101" lon="8.64506"/>
            <trkpt lat="41.91002" lon="8.64578"/>
            <trkpt lat="41.91001" lon="8.64599"/>
            <trkpt lat="41.91004" lon="8.64605"/>
            <trkpt lat="41.91015" lon="8.64608"/>
            <trkpt lat="41.91023" lon="8.64612"/>
            <trkpt lat="41.9103" lon="8.64626"/>
            <trkpt lat="41.91047" lon="8.64661"/>
            <trkpt lat="41.91048" lon="8.64667"/>
            <trkpt lat="41.9105" lon="8.64682"/>
            <trkpt lat="41.91053" lon="8.64694"/>
            <trkpt lat="41.91058" lon="8.64712"/>
            <trkpt lat="41.91058" lon="8.64718"/>
            <trkpt lat="41.9105" lon="8.64734"/>
            <trkpt lat="41.91047" lon="8.64747"/>
            <trkpt lat="41.91059" lon="8.64775"/>
            <trkpt lat="41.91044" lon="8.648"/>
            <trkpt lat="41.91027" lon="8.64825"/>
            <trkpt lat="41.91003" lon="8.64863"/>
            <trkpt lat="41.90973" lon="8.64908"/>
            <trkpt lat="41.90954" lon="8.64938"/>
            <trkpt lat="41.90943" lon="8.64965"/>
            <trkpt lat="41.9094" lon="8.64976"/>
            <trkpt lat="41.90936" lon="8.64999"/>
            <trkpt lat="41.90934" lon="8.65025"/>
            <trkpt lat="41.90933" lon="8.65041"/>
            <trkpt lat="41.90949" lon="8.6524"/>
            <trkpt lat="41.90959" lon="8.65398"/>
            <trkpt lat="41.90959" lon="8.65405"/>
            <trkpt lat="41.90958" lon="8.65427"/>
            <trkpt lat="41.90957" lon="8.65442"/>
            <trkpt lat="41.90954" lon="8.65462"/>
            <trkpt lat="41.90945" lon="8.65488"/>
            <trkpt lat="41.90935" lon="8.65511"/>
            <trkpt lat="41.90929" lon="8.65521"/>
            <trkpt lat="41.90889" lon="8.65578"/>
            <trkpt lat="41.90849" lon="8.65633"/>
            <trkpt lat="41.90837" lon="8.65654"/>
            <trkpt lat="41.90832" lon="8.65665"/>
            <trkpt lat="41.90819" lon="8.65703"/>
            <trkpt lat="41.90816" lon="8.65723"/>
            <trkpt lat="41.90813" lon="8.6574"/>
            <trkpt lat="41.90809" lon="8.65792"/>
            <trkpt lat="41.90806" lon="8.65845"/>
            <trkpt lat="41.90805" lon="8.65909"/>
            <trkpt lat="41.90802" lon="8.65998"/>
            <trkpt lat="41.90799" lon="8.66121"/>
            <trkpt lat="41.90798" lon="8.66169"/>
            <trkpt lat="41.90797" lon="8.66214"/>
            <trkpt lat="41.90794" lon="8.66392"/>
            <trkpt lat="41.90793" lon="8.66434"/>
            <trkpt lat="41.90783" lon="8.66533"/>
            <trkpt lat="41.90774" lon="8.6659"/>
            <trkpt lat="41.90765" lon="8.66618"/>
            <trkpt lat="41.9072" lon="8.66717"/>
            <trkpt lat="41.90711" lon="8.66741"/>
            <trkpt lat="41.90699" lon="8.66778"/>
            <trkpt lat="41.90693" lon="8.6679"/>
            <trkpt lat="41.9069" lon="8.66796"/>
            <trkpt lat="41.90686" lon="8.66803"/>
            <trkpt lat="41.90682" lon="8.66808"/>
            <trkpt lat="41.90671" lon="8.66821"/>
            <trkpt lat="41.90641" lon="8.66853"/>
            <trkpt lat="41.90635" lon="8.66861"/>
            <trkpt lat="41.9063" lon="8.6687"/>
            <trkpt lat="41.90627" lon="8.66878"/>
            <trkpt lat="41.90623" lon="8.66888"/>
            <trkpt lat="41.90618" lon="8.66912"/>
            <trkpt lat="41.90608" lon="8.67002"/>
            <trkpt lat="41.90602" lon="8.67061"/>
            <trkpt lat="41.90597" lon="8.6712"/>
            <trkpt lat="41.90594" lon="8.67179"/>
            <trkpt lat="41.90594" lon="8.67205"/>
            <trkpt lat="41.90594" lon="8.67218"/>
            <trkpt lat="41.90594" lon="8.6723"/>
            <trkpt lat="41.90597" lon="8.67298"/>
            <trkpt lat="41.90598" lon="8.67315"/>
            <trkpt lat="41.906" lon="8.67361"/>
            <trkpt lat="41.90607" lon="8.67457"/>
            <trkpt lat="41.90614" lon="8.6752"/>
            <trkpt lat="41.90619" lon="8.67552"/>
            <trkpt lat="41.90631" lon="8.67611"/>
            <trkpt lat="41.90637" lon="8.67631"/>
            <trkpt lat="41.90644" lon="8.67656"/>
            <trkpt lat="41.90657" lon="8.6768"/>
            <trkpt lat="41.90665" lon="8.67694"/>
            <trkpt lat="41.9071" lon="8.67761"/>
            <trkpt lat="41.90717" lon="8.67774"/>
            <trkpt lat="41.90729" lon="8.67798"/>
            <trkpt lat="41.90735" lon="8.67812"/>
            <trkpt lat="41.90735" lon="8.67813"/>
            <trkpt lat="41.90734" lon="8.67816"/>
            <trkpt lat="41.90734" lon="8.6782"/>
            <trkpt lat="41.90734" lon="8.67823"/>
            <trkpt lat="41.90735" lon="8.67827"/>
            <trkpt lat="41.90736" lon="8.67829"/>
            <trkpt lat="41.90737" lon="8.67831"/>
            <trkpt lat="41.90739" lon="8.67832"/>
            <trkpt lat="41.90742" lon="8.67833"/>
            <trkpt lat="41.90742" lon="8.67839"/>
            <trkpt lat="41.90745" lon="8.67854"/>
            <trkpt lat="41.90758" lon="8.67909"/>
            <trkpt lat="41.90759" lon="8.6792"/>
            <trkpt lat="41.9076" lon="8.6793"/>
            <trkpt lat="41.90762" lon="8.67949"/>
            <trkpt lat="41.90776" lon="8.68115"/>
            <trkpt lat="41.90791" lon="8.68235"/>
            <trkpt lat="41.90794" lon="8.68251"/>
            <trkpt lat="41.90795" lon="8.68254"/>
            <trkpt lat="41.90797" lon="8.68257"/>
            <trkpt lat="41.90799" lon="8.68261"/>
            <trkpt lat="41.90797" lon="8.68262"/>
            <trkpt lat="41.90796" lon="8.68264"/>
            <trkpt lat="41.90795" lon="8.68268"/>
            <trkpt lat="41.90795" lon="8.68271"/>
            <trkpt lat="41.90795" lon="8.68273"/>
            <trkpt lat="41.90797" lon="8.68277"/>
            <trkpt lat="41.90797" lon="8.68278"/>
            <trkpt lat="41.90798" lon="8.68279"/>
            <trkpt lat="41.908" lon="8.68281"/>
            <trkpt lat="41.90803" lon="8.68282"/>
            <trkpt lat="41.90801" lon="8.68288"/>
            <trkpt lat="41.908" lon="8.68293"/>
            <trkpt lat="41.90801" lon="8.68313"/>
            <trkpt lat="41.90805" lon="8.68354"/>
            <trkpt lat="41.90815" lon="8.68436"/>
            <trkpt lat="41.90816" lon="8.68447"/>
            <trkpt lat="41.90816" lon="8.68456"/>
            <trkpt lat="41.90816" lon="8.68464"/>
            <trkpt lat="41.9081" lon="8.68506"/>
            <trkpt lat="41.90808" lon="8.68528"/>
            <trkpt lat="41.90809" lon="8.68554"/>
            <trkpt lat="41.90811" lon="8.68564"/>
            <trkpt lat="41.90814" lon="8.68572"/>
            <trkpt lat="41.9082" lon="8.68584"/>
            <trkpt lat="41.90832" lon="8.68603"/>
            <trkpt lat="41.90865" lon="8.68644"/>
            <trkpt lat="41.90878" lon="8.68661"/>
            <trkpt lat="41.90886" lon="8.68677"/>
            <trkpt lat="41.90917" lon="8.68746"/>
            <trkpt lat="41.90925" lon="8.68765"/>
            <trkpt lat="41.90929" lon="8.68778"/>
            <trkpt lat="41.90934" lon="8.68789"/>
            <trkpt lat="41.90937" lon="8.68805"/>
            <trkpt lat="41.90942" lon="8.68848"/>
            <trkpt lat="41.90944" lon="8.68894"/>
            <trkpt lat="41.90948" lon="8.68946"/>
        </trkseg>
    </trk>
</gpx>
