<?xml version="1.0" encoding="UTF-8" standalone="yes"?>
<gpx xmlns="http://www.topografix.com/GPX/1/1" xmlns:tt="TT" version="1.1" creator="TomTom MyDrive">
    <wpt lat="41.8579" lon="9.4013">
        <type>TT_HARD</type>
    </wpt>
    <wpt lat="41.8234" lon="9.2548">
        <type>TT_HARD</type>
    </wpt>
    <rte>
        <name>4 agosto</name>
        <rtept lat="41.8579" lon="9.4013">
            <type>TT_HARD</type>
        </rtept>
        <rtept lat="41.8234" lon="9.2548">
            <type>TT_HARD</type>
        </rtept>
    </rte>
    <trk>
        <name>4 agosto</name>
        <trkseg>
            <trkpt lat="41.85791" lon="9.40138"/>
            <trkpt lat="41.85791" lon="9.40138"/>
            <trkpt lat="41.85809" lon="9.40135"/>
            <trkpt lat="41.85791" lon="9.40053"/>
            <trkpt lat="41.85787" lon="9.40036"/>
            <trkpt lat="41.8578" lon="9.40005"/>
            <trkpt lat="41.85776" lon="9.39984"/>
            <trkpt lat="41.85768" lon="9.3995"/>
            <trkpt lat="41.85761" lon="9.39917"/>
            <trkpt lat="41.85775" lon="9.3991"/>
            <trkpt lat="41.85791" lon="9.39902"/>
            <trkpt lat="41.85824" lon="9.39885"/>
            <trkpt lat="41.85843" lon="9.39875"/>
            <trkpt lat="41.85848" lon="9.39872"/>
            <trkpt lat="41.85859" lon="9.39864"/>
            <trkpt lat="41.85865" lon="9.39859"/>
            <trkpt lat="41.8587" lon="9.39854"/>
            <trkpt lat="41.85875" lon="9.39848"/>
            <trkpt lat="41.85879" lon="9.39841"/>
            <trkpt lat="41.85886" lon="9.3982"/>
            <trkpt lat="41.85889" lon="9.39806"/>
            <trkpt lat="41.85901" lon="9.39742"/>
            <trkpt lat="41.85903" lon="9.39732"/>
            <trkpt lat="41.85909" lon="9.39701"/>
            <trkpt lat="41.8593" lon="9.3961"/>
            <trkpt lat="41.85939" lon="9.39569"/>
            <trkpt lat="41.85948" lon="9.39526"/>
            <trkpt lat="41.85952" lon="9.39513"/>
            <trkpt lat="41.85972" lon="9.39456"/>
            <trkpt lat="41.85979" lon="9.39441"/>
            <trkpt lat="41.85985" lon="9.39429"/>
            <trkpt lat="41.85994" lon="9.39415"/>
            <trkpt lat="41.86028" lon="9.39374"/>
            <trkpt lat="41.86043" lon="9.39357"/>
            <trkpt lat="41.86046" lon="9.39355"/>
            <trkpt lat="41.86054" lon="9.39348"/>
            <trkpt lat="41.86064" lon="9.39342"/>
            <trkpt lat="41.86154" lon="9.39304"/>
            <trkpt lat="41.86202" lon="9.39288"/>
            <trkpt lat="41.86203" lon="9.39291"/>
            <trkpt lat="41.86205" lon="9.39293"/>
            <trkpt lat="41.86207" lon="9.39295"/>
            <trkpt lat="41.86209" lon="9.39296"/>
            <trkpt lat="41.86212" lon="9.39298"/>
            <trkpt lat="41.86215" lon="9.39298"/>
            <trkpt lat="41.86218" lon="9.39297"/>
            <trkpt lat="41.86221" lon="9.39296"/>
            <trkpt lat="41.86222" lon="9.39294"/>
            <trkpt lat="41.86223" lon="9.39293"/>
            <trkpt lat="41.86225" lon="9.39289"/>
            <trkpt lat="41.86226" lon="9.39285"/>
            <trkpt lat="41.86225" lon="9.39282"/>
            <trkpt lat="41.86224" lon="9.39278"/>
            <trkpt lat="41.86223" lon="9.39276"/>
            <trkpt lat="41.86221" lon="9.39274"/>
            <trkpt lat="41.86219" lon="9.39272"/>
            <trkpt lat="41.86217" lon="9.39271"/>
            <trkpt lat="41.86213" lon="9.3927"/>
            <trkpt lat="41.86211" lon="9.3927"/>
            <trkpt lat="41.86211" lon="9.39259"/>
            <trkpt lat="41.86213" lon="9.39234"/>
            <trkpt lat="41.86217" lon="9.39224"/>
            <trkpt lat="41.86219" lon="9.39217"/>
            <trkpt lat="41.86222" lon="9.39197"/>
            <trkpt lat="41.8622" lon="9.39186"/>
            <trkpt lat="41.86209" lon="9.39144"/>
            <trkpt lat="41.86205" lon="9.39105"/>
            <trkpt lat="41.86203" lon="9.39065"/>
            <trkpt lat="41.86204" lon="9.39048"/>
            <trkpt lat="41.86207" lon="9.39037"/>
            <trkpt lat="41.86209" lon="9.3903"/>
            <trkpt lat="41.86213" lon="9.39014"/>
            <trkpt lat="41.86217" lon="9.38979"/>
            <trkpt lat="41.86222" lon="9.38959"/>
            <trkpt lat="41.86227" lon="9.38956"/>
            <trkpt lat="41.86231" lon="9.38953"/>
            <trkpt lat="41.86235" lon="9.38953"/>
            <trkpt lat="41.8624" lon="9.38954"/>
            <trkpt lat="41.86245" lon="9.38957"/>
            <trkpt lat="41.86246" lon="9.3896"/>
            <trkpt lat="41.86248" lon="9.38966"/>
            <trkpt lat="41.86249" lon="9.38975"/>
            <trkpt lat="41.86246" lon="9.39025"/>
            <trkpt lat="41.86249" lon="9.39069"/>
            <trkpt lat="41.86254" lon="9.39077"/>
            <trkpt lat="41.86259" lon="9.39083"/>
            <trkpt lat="41.86263" lon="9.39086"/>
            <trkpt lat="41.86272" lon="9.39087"/>
            <trkpt lat="41.86283" lon="9.39085"/>
            <trkpt lat="41.86292" lon="9.3908"/>
            <trkpt lat="41.86347" lon="9.39022"/>
            <trkpt lat="41.86353" lon="9.39016"/>
            <trkpt lat="41.86373" lon="9.38992"/>
            <trkpt lat="41.86387" lon="9.38979"/>
            <trkpt lat="41.86399" lon="9.38972"/>
            <trkpt lat="41.86425" lon="9.38963"/>
            <trkpt lat="41.86435" lon="9.38958"/>
            <trkpt lat="41.86441" lon="9.38953"/>
            <trkpt lat="41.86469" lon="9.38922"/>
            <trkpt lat="41.86476" lon="9.38909"/>
            <trkpt lat="41.8648" lon="9.38885"/>
            <trkpt lat="41.86479" lon="9.38822"/>
            <trkpt lat="41.86484" lon="9.38776"/>
            <trkpt lat="41.86485" lon="9.38748"/>
            <trkpt lat="41.86485" lon="9.38711"/>
            <trkpt lat="41.86487" lon="9.38676"/>
            <trkpt lat="41.86486" lon="9.38661"/>
            <trkpt lat="41.86488" lon="9.38641"/>
            <trkpt lat="41.86494" lon="9.38615"/>
            <trkpt lat="41.86495" lon="9.38602"/>
            <trkpt lat="41.86493" lon="9.38579"/>
            <trkpt lat="41.86493" lon="9.38574"/>
            <trkpt lat="41.86483" lon="9.38519"/>
            <trkpt lat="41.86482" lon="9.38509"/>
            <trkpt lat="41.86482" lon="9.38497"/>
            <trkpt lat="41.86484" lon="9.38485"/>
            <trkpt lat="41.86495" lon="9.38445"/>
            <trkpt lat="41.86496" lon="9.38435"/>
            <trkpt lat="41.86495" lon="9.38426"/>
            <trkpt lat="41.86465" lon="9.38324"/>
            <trkpt lat="41.86461" lon="9.38314"/>
            <trkpt lat="41.86457" lon="9.38306"/>
            <trkpt lat="41.86439" lon="9.38282"/>
            <trkpt lat="41.86397" lon="9.38232"/>
            <trkpt lat="41.86395" lon="9.3823"/>
            <trkpt lat="41.86353" lon="9.38189"/>
            <trkpt lat="41.86343" lon="9.38177"/>
            <trkpt lat="41.86319" lon="9.3814"/>
            <trkpt lat="41.86309" lon="9.3813"/>
            <trkpt lat="41.86298" lon="9.38123"/>
            <trkpt lat="41.8626" lon="9.38102"/>
            <trkpt lat="41.86248" lon="9.38089"/>
            <trkpt lat="41.86245" lon="9.38082"/>
            <trkpt lat="41.86245" lon="9.38074"/>
            <trkpt lat="41.86248" lon="9.38066"/>
            <trkpt lat="41.86254" lon="9.38054"/>
            <trkpt lat="41.86258" lon="9.38045"/>
            <trkpt lat="41.86259" lon="9.38036"/>
            <trkpt lat="41.86258" lon="9.38018"/>
            <trkpt lat="41.86255" lon="9.38008"/>
            <trkpt lat="41.86237" lon="9.37975"/>
            <trkpt lat="41.8622" lon="9.37951"/>
            <trkpt lat="41.86196" lon="9.37904"/>
            <trkpt lat="41.86183" lon="9.37867"/>
            <trkpt lat="41.86159" lon="9.37829"/>
            <trkpt lat="41.8611" lon="9.37769"/>
            <trkpt lat="41.86092" lon="9.3775"/>
            <trkpt lat="41.86063" lon="9.37719"/>
            <trkpt lat="41.86038" lon="9.37693"/>
            <trkpt lat="41.86015" lon="9.37674"/>
            <trkpt lat="41.85952" lon="9.37632"/>
            <trkpt lat="41.85941" lon="9.37621"/>
            <trkpt lat="41.85915" lon="9.37583"/>
            <trkpt lat="41.85912" lon="9.37562"/>
            <trkpt lat="41.85912" lon="9.37558"/>
            <trkpt lat="41.85914" lon="9.37553"/>
            <trkpt lat="41.85919" lon="9.37549"/>
            <trkpt lat="41.86009" lon="9.37486"/>
            <trkpt lat="41.86043" lon="9.37463"/>
            <trkpt lat="41.86058" lon="9.37451"/>
            <trkpt lat="41.86084" lon="9.37421"/>
            <trkpt lat="41.86094" lon="9.37407"/>
            <trkpt lat="41.86115" lon="9.37366"/>
            <trkpt lat="41.8612" lon="9.37356"/>
            <trkpt lat="41.86126" lon="9.37353"/>
            <trkpt lat="41.86142" lon="9.37349"/>
            <trkpt lat="41.86158" lon="9.37344"/>
            <trkpt lat="41.86206" lon="9.37341"/>
            <trkpt lat="41.86211" lon="9.3734"/>
            <trkpt lat="41.8622" lon="9.37335"/>
            <trkpt lat="41.86228" lon="9.37328"/>
            <trkpt lat="41.86248" lon="9.37311"/>
            <trkpt lat="41.86263" lon="9.37301"/>
            <trkpt lat="41.86272" lon="9.37296"/>
            <trkpt lat="41.86281" lon="9.3729"/>
            <trkpt lat="41.86286" lon="9.37283"/>
            <trkpt lat="41.86287" lon="9.37274"/>
            <trkpt lat="41.86287" lon="9.37262"/>
            <trkpt lat="41.86285" lon="9.37255"/>
            <trkpt lat="41.86275" lon="9.37237"/>
            <trkpt lat="41.86268" lon="9.37231"/>
            <trkpt lat="41.86246" lon="9.37214"/>
            <trkpt lat="41.8621" lon="9.37195"/>
            <trkpt lat="41.86197" lon="9.37191"/>
            <trkpt lat="41.86187" lon="9.3719"/>
            <trkpt lat="41.86177" lon="9.37191"/>
            <trkpt lat="41.86141" lon="9.37202"/>
            <trkpt lat="41.86115" lon="9.37206"/>
            <trkpt lat="41.86047" lon="9.37195"/>
            <trkpt lat="41.86038" lon="9.37192"/>
            <trkpt lat="41.86022" lon="9.37181"/>
            <trkpt lat="41.86005" lon="9.37164"/>
            <trkpt lat="41.85943" lon="9.37115"/>
            <trkpt lat="41.85899" lon="9.37077"/>
            <trkpt lat="41.85886" lon="9.37068"/>
            <trkpt lat="41.85868" lon="9.37058"/>
            <trkpt lat="41.85851" lon="9.37054"/>
            <trkpt lat="41.85835" lon="9.37053"/>
            <trkpt lat="41.85817" lon="9.37054"/>
            <trkpt lat="41.85796" lon="9.3706"/>
            <trkpt lat="41.85791" lon="9.37062"/>
            <trkpt lat="41.85777" lon="9.37066"/>
            <trkpt lat="41.85757" lon="9.37078"/>
            <trkpt lat="41.85734" lon="9.37093"/>
            <trkpt lat="41.85722" lon="9.37101"/>
            <trkpt lat="41.85713" lon="9.37105"/>
            <trkpt lat="41.85703" lon="9.37107"/>
            <trkpt lat="41.85696" lon="9.37106"/>
            <trkpt lat="41.85692" lon="9.37103"/>
            <trkpt lat="41.85688" lon="9.37098"/>
            <trkpt lat="41.85687" lon="9.3709"/>
            <trkpt lat="41.85689" lon="9.37084"/>
            <trkpt lat="41.85697" lon="9.37076"/>
            <trkpt lat="41.85715" lon="9.37058"/>
            <trkpt lat="41.85738" lon="9.37024"/>
            <trkpt lat="41.85744" lon="9.37008"/>
            <trkpt lat="41.85744" lon="9.36997"/>
            <trkpt lat="41.85744" lon="9.36986"/>
            <trkpt lat="41.85741" lon="9.36972"/>
            <trkpt lat="41.85715" lon="9.36897"/>
            <trkpt lat="41.85704" lon="9.3685"/>
            <trkpt lat="41.85692" lon="9.3678"/>
            <trkpt lat="41.85693" lon="9.36767"/>
            <trkpt lat="41.85695" lon="9.36758"/>
            <trkpt lat="41.85699" lon="9.36749"/>
            <trkpt lat="41.85709" lon="9.36735"/>
            <trkpt lat="41.85731" lon="9.36712"/>
            <trkpt lat="41.85746" lon="9.36693"/>
            <trkpt lat="41.8577" lon="9.36659"/>
            <trkpt lat="41.8578" lon="9.36633"/>
            <trkpt lat="41.85782" lon="9.36624"/>
            <trkpt lat="41.85783" lon="9.36553"/>
            <trkpt lat="41.85786" lon="9.36542"/>
            <trkpt lat="41.85791" lon="9.36526"/>
            <trkpt lat="41.85803" lon="9.36492"/>
            <trkpt lat="41.85804" lon="9.36482"/>
            <trkpt lat="41.85803" lon="9.36464"/>
            <trkpt lat="41.858" lon="9.3645"/>
            <trkpt lat="41.85792" lon="9.36436"/>
            <trkpt lat="41.85791" lon="9.36434"/>
            <trkpt lat="41.85761" lon="9.36388"/>
            <trkpt lat="41.85744" lon="9.36351"/>
            <trkpt lat="41.8573" lon="9.36334"/>
            <trkpt lat="41.85709" lon="9.36316"/>
            <trkpt lat="41.85664" lon="9.36286"/>
            <trkpt lat="41.8564" lon="9.36268"/>
            <trkpt lat="41.85634" lon="9.36263"/>
            <trkpt lat="41.85619" lon="9.36252"/>
            <trkpt lat="41.85598" lon="9.36232"/>
            <trkpt lat="41.85583" lon="9.36222"/>
            <trkpt lat="41.85567" lon="9.36215"/>
            <trkpt lat="41.85558" lon="9.36209"/>
            <trkpt lat="41.85555" lon="9.36204"/>
            <trkpt lat="41.85551" lon="9.36196"/>
            <trkpt lat="41.85544" lon="9.36166"/>
            <trkpt lat="41.85538" lon="9.36155"/>
            <trkpt lat="41.85534" lon="9.36149"/>
            <trkpt lat="41.85528" lon="9.36142"/>
            <trkpt lat="41.85521" lon="9.36139"/>
            <trkpt lat="41.85512" lon="9.36138"/>
            <trkpt lat="41.85485" lon="9.36145"/>
            <trkpt lat="41.85477" lon="9.36144"/>
            <trkpt lat="41.85472" lon="9.36142"/>
            <trkpt lat="41.85466" lon="9.36134"/>
            <trkpt lat="41.85455" lon="9.36107"/>
            <trkpt lat="41.85447" lon="9.36097"/>
            <trkpt lat="41.85439" lon="9.3609"/>
            <trkpt lat="41.85407" lon="9.36066"/>
            <trkpt lat="41.85393" lon="9.36054"/>
            <trkpt lat="41.85374" lon="9.36035"/>
            <trkpt lat="41.85373" lon="9.36034"/>
            <trkpt lat="41.85336" lon="9.35983"/>
            <trkpt lat="41.85289" lon="9.35919"/>
            <trkpt lat="41.85271" lon="9.35887"/>
            <trkpt lat="41.85264" lon="9.35867"/>
            <trkpt lat="41.8525" lon="9.35845"/>
            <trkpt lat="41.85226" lon="9.3581"/>
            <trkpt lat="41.85203" lon="9.35776"/>
            <trkpt lat="41.85181" lon="9.35746"/>
            <trkpt lat="41.85138" lon="9.35712"/>
            <trkpt lat="41.85119" lon="9.35699"/>
            <trkpt lat="41.85103" lon="9.35692"/>
            <trkpt lat="41.85081" lon="9.35687"/>
            <trkpt lat="41.85043" lon="9.35684"/>
            <trkpt lat="41.85027" lon="9.35684"/>
            <trkpt lat="41.85008" lon="9.35682"/>
            <trkpt lat="41.84994" lon="9.35679"/>
            <trkpt lat="41.84991" lon="9.35677"/>
            <trkpt lat="41.84985" lon="9.35672"/>
            <trkpt lat="41.84982" lon="9.35667"/>
            <trkpt lat="41.84972" lon="9.35644"/>
            <trkpt lat="41.84967" lon="9.35628"/>
            <trkpt lat="41.84965" lon="9.35617"/>
            <trkpt lat="41.84963" lon="9.35596"/>
            <trkpt lat="41.84965" lon="9.3555"/>
            <trkpt lat="41.84963" lon="9.35538"/>
            <trkpt lat="41.84949" lon="9.35487"/>
            <trkpt lat="41.84948" lon="9.35473"/>
            <trkpt lat="41.84947" lon="9.35453"/>
            <trkpt lat="41.84949" lon="9.35443"/>
            <trkpt lat="41.84956" lon="9.35418"/>
            <trkpt lat="41.84956" lon="9.35409"/>
            <trkpt lat="41.84954" lon="9.35401"/>
            <trkpt lat="41.8495" lon="9.35391"/>
            <trkpt lat="41.84945" lon="9.35383"/>
            <trkpt lat="41.84938" lon="9.35376"/>
            <trkpt lat="41.84917" lon="9.35361"/>
            <trkpt lat="41.84891" lon="9.35348"/>
            <trkpt lat="41.84869" lon="9.35341"/>
            <trkpt lat="41.84846" lon="9.35336"/>
            <trkpt lat="41.84813" lon="9.35335"/>
            <trkpt lat="41.84799" lon="9.3533"/>
            <trkpt lat="41.84787" lon="9.35324"/>
            <trkpt lat="41.84745" lon="9.35291"/>
            <trkpt lat="41.84735" lon="9.35285"/>
            <trkpt lat="41.84728" lon="9.35283"/>
            <trkpt lat="41.84712" lon="9.3528"/>
            <trkpt lat="41.84699" lon="9.3528"/>
            <trkpt lat="41.84681" lon="9.35285"/>
            <trkpt lat="41.84668" lon="9.35293"/>
            <trkpt lat="41.84642" lon="9.35315"/>
            <trkpt lat="41.84639" lon="9.35316"/>
            <trkpt lat="41.84633" lon="9.35317"/>
            <trkpt lat="41.84626" lon="9.35316"/>
            <trkpt lat="41.8462" lon="9.35313"/>
            <trkpt lat="41.84614" lon="9.35306"/>
            <trkpt lat="41.84606" lon="9.3529"/>
            <trkpt lat="41.84603" lon="9.3528"/>
            <trkpt lat="41.84604" lon="9.35269"/>
            <trkpt lat="41.84606" lon="9.35262"/>
            <trkpt lat="41.84614" lon="9.35247"/>
            <trkpt lat="41.8462" lon="9.35231"/>
            <trkpt lat="41.84628" lon="9.35187"/>
            <trkpt lat="41.84637" lon="9.35152"/>
            <trkpt lat="41.84641" lon="9.35143"/>
            <trkpt lat="41.84645" lon="9.35136"/>
            <trkpt lat="41.84656" lon="9.35129"/>
            <trkpt lat="41.84695" lon="9.35112"/>
            <trkpt lat="41.84697" lon="9.3511"/>
            <trkpt lat="41.84702" lon="9.35106"/>
            <trkpt lat="41.84706" lon="9.35102"/>
            <trkpt lat="41.84712" lon="9.35093"/>
            <trkpt lat="41.84717" lon="9.35081"/>
            <trkpt lat="41.84718" lon="9.35073"/>
            <trkpt lat="41.84719" lon="9.35066"/>
            <trkpt lat="41.84717" lon="9.3506"/>
            <trkpt lat="41.84712" lon="9.35053"/>
            <trkpt lat="41.84702" lon="9.35044"/>
            <trkpt lat="41.84685" lon="9.35027"/>
            <trkpt lat="41.84678" lon="9.35019"/>
            <trkpt lat="41.84673" lon="9.3501"/>
            <trkpt lat="41.84666" lon="9.34991"/>
            <trkpt lat="41.84647" lon="9.34939"/>
            <trkpt lat="41.84641" lon="9.34927"/>
            <trkpt lat="41.84632" lon="9.34915"/>
            <trkpt lat="41.84609" lon="9.34886"/>
            <trkpt lat="41.84604" lon="9.34877"/>
            <trkpt lat="41.84602" lon="9.34869"/>
            <trkpt lat="41.84601" lon="9.34857"/>
            <trkpt lat="41.846" lon="9.3484"/>
            <trkpt lat="41.84598" lon="9.34824"/>
            <trkpt lat="41.84593" lon="9.34806"/>
            <trkpt lat="41.84582" lon="9.34779"/>
            <trkpt lat="41.84569" lon="9.34759"/>
            <trkpt lat="41.84531" lon="9.34707"/>
            <trkpt lat="41.84518" lon="9.34692"/>
            <trkpt lat="41.84456" lon="9.34624"/>
            <trkpt lat="41.84449" lon="9.3461"/>
            <trkpt lat="41.84438" lon="9.34573"/>
            <trkpt lat="41.84432" lon="9.34564"/>
            <trkpt lat="41.84413" lon="9.34548"/>
            <trkpt lat="41.84408" lon="9.34547"/>
            <trkpt lat="41.84398" lon="9.34546"/>
            <trkpt lat="41.84377" lon="9.34551"/>
            <trkpt lat="41.84371" lon="9.34552"/>
            <trkpt lat="41.84363" lon="9.34551"/>
            <trkpt lat="41.84353" lon="9.34546"/>
            <trkpt lat="41.84292" lon="9.3449"/>
            <trkpt lat="41.84278" lon="9.34474"/>
            <trkpt lat="41.84269" lon="9.3446"/>
            <trkpt lat="41.84262" lon="9.34446"/>
            <trkpt lat="41.84259" lon="9.34433"/>
            <trkpt lat="41.84257" lon="9.34418"/>
            <trkpt lat="41.84257" lon="9.34406"/>
            <trkpt lat="41.8426" lon="9.34394"/>
            <trkpt lat="41.84264" lon="9.34382"/>
            <trkpt lat="41.84268" lon="9.34375"/>
            <trkpt lat="41.84275" lon="9.34365"/>
            <trkpt lat="41.84349" lon="9.3429"/>
            <trkpt lat="41.84386" lon="9.34246"/>
            <trkpt lat="41.84498" lon="9.34099"/>
            <trkpt lat="41.84546" lon="9.34048"/>
            <trkpt lat="41.84572" lon="9.34012"/>
            <trkpt lat="41.84585" lon="9.33977"/>
            <trkpt lat="41.84588" lon="9.33959"/>
            <trkpt lat="41.8459" lon="9.33939"/>
            <trkpt lat="41.8459" lon="9.33908"/>
            <trkpt lat="41.84587" lon="9.33892"/>
            <trkpt lat="41.84583" lon="9.3388"/>
            <trkpt lat="41.84578" lon="9.33872"/>
            <trkpt lat="41.84568" lon="9.33863"/>
            <trkpt lat="41.84526" lon="9.33842"/>
            <trkpt lat="41.8452" lon="9.33838"/>
            <trkpt lat="41.84491" lon="9.33811"/>
            <trkpt lat="41.84448" lon="9.33766"/>
            <trkpt lat="41.84441" lon="9.33759"/>
            <trkpt lat="41.84436" lon="9.33756"/>
            <trkpt lat="41.84424" lon="9.33752"/>
            <trkpt lat="41.84414" lon="9.33747"/>
            <trkpt lat="41.84396" lon="9.3373"/>
            <trkpt lat="41.84317" lon="9.33648"/>
            <trkpt lat="41.84305" lon="9.33642"/>
            <trkpt lat="41.84263" lon="9.33634"/>
            <trkpt lat="41.84245" lon="9.3363"/>
            <trkpt lat="41.84223" lon="9.33623"/>
            <trkpt lat="41.84209" lon="9.33617"/>
            <trkpt lat="41.84199" lon="9.3361"/>
            <trkpt lat="41.84183" lon="9.33595"/>
            <trkpt lat="41.8417" lon="9.33586"/>
            <trkpt lat="41.84155" lon="9.33579"/>
            <trkpt lat="41.8411" lon="9.33563"/>
            <trkpt lat="41.84097" lon="9.33553"/>
            <trkpt lat="41.84092" lon="9.33545"/>
            <trkpt lat="41.84078" lon="9.3352"/>
            <trkpt lat="41.84062" lon="9.33489"/>
            <trkpt lat="41.84049" lon="9.33445"/>
            <trkpt lat="41.84046" lon="9.33429"/>
            <trkpt lat="41.84045" lon="9.33416"/>
            <trkpt lat="41.84047" lon="9.33404"/>
            <trkpt lat="41.84056" lon="9.33364"/>
            <trkpt lat="41.84056" lon="9.33353"/>
            <trkpt lat="41.84056" lon="9.33349"/>
            <trkpt lat="41.84054" lon="9.33338"/>
            <trkpt lat="41.84048" lon="9.3332"/>
            <trkpt lat="41.84042" lon="9.33305"/>
            <trkpt lat="41.84027" lon="9.33279"/>
            <trkpt lat="41.84007" lon="9.3325"/>
            <trkpt lat="41.84001" lon="9.33238"/>
            <trkpt lat="41.83998" lon="9.33227"/>
            <trkpt lat="41.83996" lon="9.33216"/>
            <trkpt lat="41.83991" lon="9.33184"/>
            <trkpt lat="41.83983" lon="9.33163"/>
            <trkpt lat="41.8396" lon="9.3312"/>
            <trkpt lat="41.83952" lon="9.33109"/>
            <trkpt lat="41.83916" lon="9.33079"/>
            <trkpt lat="41.83908" lon="9.33076"/>
            <trkpt lat="41.839" lon="9.33076"/>
            <trkpt lat="41.8388" lon="9.33084"/>
            <trkpt lat="41.83838" lon="9.33098"/>
            <trkpt lat="41.83828" lon="9.33102"/>
            <trkpt lat="41.83811" lon="9.33116"/>
            <trkpt lat="41.83798" lon="9.33128"/>
            <trkpt lat="41.83779" lon="9.33144"/>
            <trkpt lat="41.83771" lon="9.33148"/>
            <trkpt lat="41.83757" lon="9.3315"/>
            <trkpt lat="41.83718" lon="9.33153"/>
            <trkpt lat="41.83694" lon="9.33151"/>
            <trkpt lat="41.83685" lon="9.33148"/>
            <trkpt lat="41.83681" lon="9.33143"/>
            <trkpt lat="41.83678" lon="9.33137"/>
            <trkpt lat="41.83674" lon="9.33126"/>
            <trkpt lat="41.83673" lon="9.33113"/>
            <trkpt lat="41.83671" lon="9.33104"/>
            <trkpt lat="41.83672" lon="9.33095"/>
            <trkpt lat="41.83673" lon="9.33088"/>
            <trkpt lat="41.83686" lon="9.33072"/>
            <trkpt lat="41.83689" lon="9.33062"/>
            <trkpt lat="41.8369" lon="9.33054"/>
            <trkpt lat="41.83688" lon="9.33044"/>
            <trkpt lat="41.83684" lon="9.33037"/>
            <trkpt lat="41.83679" lon="9.3303"/>
            <trkpt lat="41.83671" lon="9.33023"/>
            <trkpt lat="41.83647" lon="9.33009"/>
            <trkpt lat="41.83641" lon="9.33004"/>
            <trkpt lat="41.83637" lon="9.32999"/>
            <trkpt lat="41.83632" lon="9.32987"/>
            <trkpt lat="41.83618" lon="9.32934"/>
            <trkpt lat="41.83613" lon="9.32904"/>
            <trkpt lat="41.83604" lon="9.32874"/>
            <trkpt lat="41.83594" lon="9.32847"/>
            <trkpt lat="41.83591" lon="9.32841"/>
            <trkpt lat="41.83577" lon="9.328"/>
            <trkpt lat="41.83569" lon="9.32781"/>
            <trkpt lat="41.83561" lon="9.32765"/>
            <trkpt lat="41.83548" lon="9.32748"/>
            <trkpt lat="41.83516" lon="9.32718"/>
            <trkpt lat="41.83495" lon="9.32704"/>
            <trkpt lat="41.83461" lon="9.32688"/>
            <trkpt lat="41.83447" lon="9.32678"/>
            <trkpt lat="41.83411" lon="9.32648"/>
            <trkpt lat="41.83403" lon="9.32639"/>
            <trkpt lat="41.83397" lon="9.32627"/>
            <trkpt lat="41.83388" lon="9.32605"/>
            <trkpt lat="41.83384" lon="9.32586"/>
            <trkpt lat="41.83382" lon="9.32569"/>
            <trkpt lat="41.83378" lon="9.32514"/>
            <trkpt lat="41.83378" lon="9.32495"/>
            <trkpt lat="41.83367" lon="9.32412"/>
            <trkpt lat="41.83366" lon="9.32404"/>
            <trkpt lat="41.83367" lon="9.32373"/>
            <trkpt lat="41.83368" lon="9.32362"/>
            <trkpt lat="41.83373" lon="9.32344"/>
            <trkpt lat="41.834" lon="9.32287"/>
            <trkpt lat="41.83414" lon="9.32264"/>
            <trkpt lat="41.83446" lon="9.32208"/>
            <trkpt lat="41.83459" lon="9.32186"/>
            <trkpt lat="41.83471" lon="9.32168"/>
            <trkpt lat="41.83496" lon="9.32141"/>
            <trkpt lat="41.83497" lon="9.3214"/>
            <trkpt lat="41.83517" lon="9.32122"/>
            <trkpt lat="41.83531" lon="9.32111"/>
            <trkpt lat="41.83544" lon="9.32097"/>
            <trkpt lat="41.83551" lon="9.32087"/>
            <trkpt lat="41.83558" lon="9.32074"/>
            <trkpt lat="41.8356" lon="9.32067"/>
            <trkpt lat="41.83561" lon="9.32057"/>
            <trkpt lat="41.83559" lon="9.32046"/>
            <trkpt lat="41.83551" lon="9.3202"/>
            <trkpt lat="41.8354" lon="9.32"/>
            <trkpt lat="41.83484" lon="9.31914"/>
            <trkpt lat="41.83396" lon="9.31785"/>
            <trkpt lat="41.8339" lon="9.31773"/>
            <trkpt lat="41.83386" lon="9.31758"/>
            <trkpt lat="41.83385" lon="9.31738"/>
            <trkpt lat="41.8339" lon="9.31711"/>
            <trkpt lat="41.83391" lon="9.31693"/>
            <trkpt lat="41.83388" lon="9.31677"/>
            <trkpt lat="41.83376" lon="9.31641"/>
            <trkpt lat="41.83358" lon="9.31588"/>
            <trkpt lat="41.83349" lon="9.31572"/>
            <trkpt lat="41.8333" lon="9.31547"/>
            <trkpt lat="41.83323" lon="9.31533"/>
            <trkpt lat="41.83317" lon="9.31514"/>
            <trkpt lat="41.83315" lon="9.31493"/>
            <trkpt lat="41.83313" lon="9.31454"/>
            <trkpt lat="41.83316" lon="9.31435"/>
            <trkpt lat="41.83324" lon="9.31405"/>
            <trkpt lat="41.83333" lon="9.31392"/>
            <trkpt lat="41.83358" lon="9.3137"/>
            <trkpt lat="41.83364" lon="9.31362"/>
            <trkpt lat="41.83373" lon="9.31349"/>
            <trkpt lat="41.83383" lon="9.31306"/>
            <trkpt lat="41.83392" lon="9.31222"/>
            <trkpt lat="41.83394" lon="9.31181"/>
            <trkpt lat="41.83391" lon="9.31154"/>
            <trkpt lat="41.83385" lon="9.31132"/>
            <trkpt lat="41.83374" lon="9.31101"/>
            <trkpt lat="41.83356" lon="9.31059"/>
            <trkpt lat="41.83349" lon="9.31034"/>
            <trkpt lat="41.83347" lon="9.31016"/>
            <trkpt lat="41.83352" lon="9.30942"/>
            <trkpt lat="41.83343" lon="9.30855"/>
            <trkpt lat="41.83347" lon="9.30844"/>
            <trkpt lat="41.8335" lon="9.30839"/>
            <trkpt lat="41.83355" lon="9.30838"/>
            <trkpt lat="41.83367" lon="9.30838"/>
            <trkpt lat="41.83376" lon="9.30841"/>
            <trkpt lat="41.83388" lon="9.30841"/>
            <trkpt lat="41.83401" lon="9.30835"/>
            <trkpt lat="41.83424" lon="9.30822"/>
            <trkpt lat="41.83436" lon="9.3082"/>
            <trkpt lat="41.83448" lon="9.30822"/>
            <trkpt lat="41.83502" lon="9.30843"/>
            <trkpt lat="41.83531" lon="9.30861"/>
            <trkpt lat="41.8354" lon="9.30865"/>
            <trkpt lat="41.83548" lon="9.30865"/>
            <trkpt lat="41.83559" lon="9.30862"/>
            <trkpt lat="41.83574" lon="9.30856"/>
            <trkpt lat="41.83586" lon="9.30854"/>
            <trkpt lat="41.83594" lon="9.30853"/>
            <trkpt lat="41.83622" lon="9.30852"/>
            <trkpt lat="41.83686" lon="9.30856"/>
            <trkpt lat="41.837" lon="9.30859"/>
            <trkpt lat="41.83718" lon="9.30866"/>
            <trkpt lat="41.83735" lon="9.30876"/>
            <trkpt lat="41.83793" lon="9.30919"/>
            <trkpt lat="41.83801" lon="9.30923"/>
            <trkpt lat="41.83808" lon="9.30924"/>
            <trkpt lat="41.83818" lon="9.30923"/>
            <trkpt lat="41.83823" lon="9.3092"/>
            <trkpt lat="41.83827" lon="9.30916"/>
            <trkpt lat="41.8383" lon="9.30912"/>
            <trkpt lat="41.83834" lon="9.30902"/>
            <trkpt lat="41.83836" lon="9.30896"/>
            <trkpt lat="41.83838" lon="9.3089"/>
            <trkpt lat="41.83838" lon="9.30885"/>
            <trkpt lat="41.83838" lon="9.30878"/>
            <trkpt lat="41.83836" lon="9.30873"/>
            <trkpt lat="41.83834" lon="9.30869"/>
            <trkpt lat="41.83832" lon="9.30866"/>
            <trkpt lat="41.83819" lon="9.30853"/>
            <trkpt lat="41.83793" lon="9.30831"/>
            <trkpt lat="41.83768" lon="9.30801"/>
            <trkpt lat="41.83743" lon="9.30774"/>
            <trkpt lat="41.83729" lon="9.30764"/>
            <trkpt lat="41.83681" lon="9.30738"/>
            <trkpt lat="41.83635" lon="9.30706"/>
            <trkpt lat="41.83626" lon="9.30698"/>
            <trkpt lat="41.83613" lon="9.30681"/>
            <trkpt lat="41.83602" lon="9.3067"/>
            <trkpt lat="41.83594" lon="9.30663"/>
            <trkpt lat="41.83568" lon="9.30641"/>
            <trkpt lat="41.83557" lon="9.30628"/>
            <trkpt lat="41.83553" lon="9.3062"/>
            <trkpt lat="41.83539" lon="9.30592"/>
            <trkpt lat="41.8353" lon="9.30573"/>
            <trkpt lat="41.83521" lon="9.30561"/>
            <trkpt lat="41.83513" lon="9.30554"/>
            <trkpt lat="41.83508" lon="9.3055"/>
            <trkpt lat="41.83506" lon="9.30548"/>
            <trkpt lat="41.83487" lon="9.30529"/>
            <trkpt lat="41.83475" lon="9.30518"/>
            <trkpt lat="41.83457" lon="9.30506"/>
            <trkpt lat="41.83445" lon="9.30494"/>
            <trkpt lat="41.83438" lon="9.3048"/>
            <trkpt lat="41.83416" lon="9.30442"/>
            <trkpt lat="41.83402" lon="9.3041"/>
            <trkpt lat="41.83389" lon="9.3039"/>
            <trkpt lat="41.83383" lon="9.30383"/>
            <trkpt lat="41.83378" lon="9.30381"/>
            <trkpt lat="41.8337" lon="9.30378"/>
            <trkpt lat="41.8336" lon="9.30379"/>
            <trkpt lat="41.83353" lon="9.3038"/>
            <trkpt lat="41.8334" lon="9.30385"/>
            <trkpt lat="41.83306" lon="9.30413"/>
            <trkpt lat="41.83297" lon="9.30417"/>
            <trkpt lat="41.83291" lon="9.30417"/>
            <trkpt lat="41.83286" lon="9.30416"/>
            <trkpt lat="41.83278" lon="9.30412"/>
            <trkpt lat="41.83275" lon="9.30409"/>
            <trkpt lat="41.83266" lon="9.30401"/>
            <trkpt lat="41.83262" lon="9.30395"/>
            <trkpt lat="41.83258" lon="9.30386"/>
            <trkpt lat="41.83258" lon="9.30382"/>
            <trkpt lat="41.83258" lon="9.3038"/>
            <trkpt lat="41.83263" lon="9.30375"/>
            <trkpt lat="41.8328" lon="9.30365"/>
            <trkpt lat="41.83285" lon="9.30361"/>
            <trkpt lat="41.83292" lon="9.30353"/>
            <trkpt lat="41.83346" lon="9.30284"/>
            <trkpt lat="41.83356" lon="9.30275"/>
            <trkpt lat="41.8336" lon="9.30274"/>
            <trkpt lat="41.83369" lon="9.30273"/>
            <trkpt lat="41.83374" lon="9.30274"/>
            <trkpt lat="41.83387" lon="9.30278"/>
            <trkpt lat="41.83398" lon="9.30284"/>
            <trkpt lat="41.83408" lon="9.30293"/>
            <trkpt lat="41.83416" lon="9.30304"/>
            <trkpt lat="41.83427" lon="9.30322"/>
            <trkpt lat="41.83438" lon="9.30335"/>
            <trkpt lat="41.83445" lon="9.30342"/>
            <trkpt lat="41.83482" lon="9.30367"/>
            <trkpt lat="41.83492" lon="9.30376"/>
            <trkpt lat="41.83509" lon="9.30393"/>
            <trkpt lat="41.83538" lon="9.30416"/>
            <trkpt lat="41.83548" lon="9.30422"/>
            <trkpt lat="41.83554" lon="9.30424"/>
            <trkpt lat="41.83565" lon="9.30427"/>
            <trkpt lat="41.83594" lon="9.3043"/>
            <trkpt lat="41.83594" lon="9.3043"/>
            <trkpt lat="41.8361" lon="9.30437"/>
            <trkpt lat="41.83636" lon="9.30455"/>
            <trkpt lat="41.83646" lon="9.3046"/>
            <trkpt lat="41.83658" lon="9.30465"/>
            <trkpt lat="41.83668" lon="9.30467"/>
            <trkpt lat="41.8367" lon="9.30467"/>
            <trkpt lat="41.83687" lon="9.30466"/>
            <trkpt lat="41.83725" lon="9.30474"/>
            <trkpt lat="41.83734" lon="9.30474"/>
            <trkpt lat="41.8377" lon="9.30468"/>
            <trkpt lat="41.83805" lon="9.30455"/>
            <trkpt lat="41.83817" lon="9.30452"/>
            <trkpt lat="41.8383" lon="9.30451"/>
            <trkpt lat="41.83849" lon="9.30453"/>
            <trkpt lat="41.83869" lon="9.30457"/>
            <trkpt lat="41.83891" lon="9.30459"/>
            <trkpt lat="41.83913" lon="9.30454"/>
            <trkpt lat="41.83928" lon="9.30448"/>
            <trkpt lat="41.83943" lon="9.30445"/>
            <trkpt lat="41.83959" lon="9.30444"/>
            <trkpt lat="41.83967" lon="9.30443"/>
            <trkpt lat="41.83975" lon="9.3044"/>
            <trkpt lat="41.84013" lon="9.30422"/>
            <trkpt lat="41.84024" lon="9.30415"/>
            <trkpt lat="41.8403" lon="9.30409"/>
            <trkpt lat="41.84037" lon="9.30398"/>
            <trkpt lat="41.8404" lon="9.30371"/>
            <trkpt lat="41.84041" lon="9.3032"/>
            <trkpt lat="41.84043" lon="9.3031"/>
            <trkpt lat="41.84046" lon="9.30301"/>
            <trkpt lat="41.8407" lon="9.30246"/>
            <trkpt lat="41.84079" lon="9.3023"/>
            <trkpt lat="41.84088" lon="9.3022"/>
            <trkpt lat="41.84143" lon="9.30177"/>
            <trkpt lat="41.8416" lon="9.3016"/>
            <trkpt lat="41.84164" lon="9.30153"/>
            <trkpt lat="41.84167" lon="9.30143"/>
            <trkpt lat="41.84174" lon="9.30104"/>
            <trkpt lat="41.84178" lon="9.30094"/>
            <trkpt lat="41.84184" lon="9.30087"/>
            <trkpt lat="41.84191" lon="9.30084"/>
            <trkpt lat="41.84203" lon="9.30083"/>
            <trkpt lat="41.84252" lon="9.30092"/>
            <trkpt lat="41.84259" lon="9.30092"/>
            <trkpt lat="41.84266" lon="9.3009"/>
            <trkpt lat="41.8427" lon="9.30086"/>
            <trkpt lat="41.84274" lon="9.30079"/>
            <trkpt lat="41.84291" lon="9.30021"/>
            <trkpt lat="41.84292" lon="9.30015"/>
            <trkpt lat="41.84295" lon="9.29995"/>
            <trkpt lat="41.84293" lon="9.2998"/>
            <trkpt lat="41.84289" lon="9.2997"/>
            <trkpt lat="41.84278" lon="9.29938"/>
            <trkpt lat="41.84269" lon="9.29902"/>
            <trkpt lat="41.84267" lon="9.29895"/>
            <trkpt lat="41.84266" lon="9.29892"/>
            <trkpt lat="41.8426" lon="9.29885"/>
            <trkpt lat="41.84257" lon="9.29881"/>
            <trkpt lat="41.84199" lon="9.29837"/>
            <trkpt lat="41.84157" lon="9.29799"/>
            <trkpt lat="41.84154" lon="9.29796"/>
            <trkpt lat="41.84131" lon="9.2977"/>
            <trkpt lat="41.84118" lon="9.29747"/>
            <trkpt lat="41.84111" lon="9.29723"/>
            <trkpt lat="41.84109" lon="9.29706"/>
            <trkpt lat="41.84109" lon="9.297"/>
            <trkpt lat="41.84111" lon="9.29693"/>
            <trkpt lat="41.84114" lon="9.29687"/>
            <trkpt lat="41.84137" lon="9.29663"/>
            <trkpt lat="41.84143" lon="9.29654"/>
            <trkpt lat="41.84145" lon="9.29646"/>
            <trkpt lat="41.84145" lon="9.29633"/>
            <trkpt lat="41.84144" lon="9.29622"/>
            <trkpt lat="41.8413" lon="9.2957"/>
            <trkpt lat="41.84114" lon="9.2952"/>
            <trkpt lat="41.84095" lon="9.2949"/>
            <trkpt lat="41.84087" lon="9.29484"/>
            <trkpt lat="41.84074" lon="9.29478"/>
            <trkpt lat="41.84059" lon="9.29476"/>
            <trkpt lat="41.8405" lon="9.29478"/>
            <trkpt lat="41.8404" lon="9.29483"/>
            <trkpt lat="41.84029" lon="9.29492"/>
            <trkpt lat="41.84021" lon="9.29501"/>
            <trkpt lat="41.84015" lon="9.29507"/>
            <trkpt lat="41.84004" lon="9.29511"/>
            <trkpt lat="41.83993" lon="9.29514"/>
            <trkpt lat="41.83974" lon="9.29513"/>
            <trkpt lat="41.83959" lon="9.29508"/>
            <trkpt lat="41.83925" lon="9.29486"/>
            <trkpt lat="41.83904" lon="9.29476"/>
            <trkpt lat="41.83875" lon="9.29464"/>
            <trkpt lat="41.83852" lon="9.29453"/>
            <trkpt lat="41.83842" lon="9.29446"/>
            <trkpt lat="41.8384" lon="9.29443"/>
            <trkpt lat="41.8383" lon="9.29435"/>
            <trkpt lat="41.83768" lon="9.29346"/>
            <trkpt lat="41.83762" lon="9.29333"/>
            <trkpt lat="41.83761" lon="9.29319"/>
            <trkpt lat="41.83764" lon="9.2931"/>
            <trkpt lat="41.83768" lon="9.29303"/>
            <trkpt lat="41.83798" lon="9.2928"/>
            <trkpt lat="41.83807" lon="9.29271"/>
            <trkpt lat="41.83812" lon="9.29258"/>
            <trkpt lat="41.83813" lon="9.29248"/>
            <trkpt lat="41.83811" lon="9.29236"/>
            <trkpt lat="41.83786" lon="9.29184"/>
            <trkpt lat="41.83771" lon="9.29157"/>
            <trkpt lat="41.8376" lon="9.29142"/>
            <trkpt lat="41.83755" lon="9.29134"/>
            <trkpt lat="41.83739" lon="9.291"/>
            <trkpt lat="41.83739" lon="9.29093"/>
            <trkpt lat="41.83739" lon="9.29087"/>
            <trkpt lat="41.8374" lon="9.29083"/>
            <trkpt lat="41.83742" lon="9.2908"/>
            <trkpt lat="41.83752" lon="9.29074"/>
            <trkpt lat="41.83782" lon="9.29047"/>
            <trkpt lat="41.83786" lon="9.29042"/>
            <trkpt lat="41.8379" lon="9.29035"/>
            <trkpt lat="41.83792" lon="9.29028"/>
            <trkpt lat="41.83794" lon="9.29022"/>
            <trkpt lat="41.83794" lon="9.29003"/>
            <trkpt lat="41.83792" lon="9.2899"/>
            <trkpt lat="41.83787" lon="9.28979"/>
            <trkpt lat="41.8378" lon="9.28968"/>
            <trkpt lat="41.83755" lon="9.28946"/>
            <trkpt lat="41.83751" lon="9.28937"/>
            <trkpt lat="41.8375" lon="9.28925"/>
            <trkpt lat="41.8375" lon="9.28919"/>
            <trkpt lat="41.83752" lon="9.28913"/>
            <trkpt lat="41.83757" lon="9.28904"/>
            <trkpt lat="41.83791" lon="9.28873"/>
            <trkpt lat="41.83826" lon="9.28832"/>
            <trkpt lat="41.83836" lon="9.28816"/>
            <trkpt lat="41.83841" lon="9.28805"/>
            <trkpt lat="41.83844" lon="9.28792"/>
            <trkpt lat="41.83845" lon="9.28777"/>
            <trkpt lat="41.83844" lon="9.28763"/>
            <trkpt lat="41.83838" lon="9.28744"/>
            <trkpt lat="41.83824" lon="9.28721"/>
            <trkpt lat="41.83778" lon="9.2864"/>
            <trkpt lat="41.83769" lon="9.28626"/>
            <trkpt lat="41.83745" lon="9.28593"/>
            <trkpt lat="41.83714" lon="9.28566"/>
            <trkpt lat="41.83695" lon="9.28544"/>
            <trkpt lat="41.83664" lon="9.28486"/>
            <trkpt lat="41.83651" lon="9.28461"/>
            <trkpt lat="41.83626" lon="9.2842"/>
            <trkpt lat="41.83607" lon="9.28377"/>
            <trkpt lat="41.83601" lon="9.28365"/>
            <trkpt lat="41.83595" lon="9.28359"/>
            <trkpt lat="41.83594" lon="9.28357"/>
            <trkpt lat="41.83588" lon="9.28352"/>
            <trkpt lat="41.83524" lon="9.28318"/>
            <trkpt lat="41.83464" lon="9.28291"/>
            <trkpt lat="41.83431" lon="9.28279"/>
            <trkpt lat="41.8342" lon="9.28273"/>
            <trkpt lat="41.83416" lon="9.28267"/>
            <trkpt lat="41.83411" lon="9.28259"/>
            <trkpt lat="41.83403" lon="9.28233"/>
            <trkpt lat="41.83397" lon="9.28207"/>
            <trkpt lat="41.8339" lon="9.28156"/>
            <trkpt lat="41.83387" lon="9.28148"/>
            <trkpt lat="41.83381" lon="9.28143"/>
            <trkpt lat="41.83373" lon="9.28138"/>
            <trkpt lat="41.83364" lon="9.28136"/>
            <trkpt lat="41.83351" lon="9.28135"/>
            <trkpt lat="41.833" lon="9.28143"/>
            <trkpt lat="41.83293" lon="9.28142"/>
            <trkpt lat="41.83287" lon="9.28141"/>
            <trkpt lat="41.83282" lon="9.28137"/>
            <trkpt lat="41.83278" lon="9.28129"/>
            <trkpt lat="41.83274" lon="9.28108"/>
            <trkpt lat="41.83268" lon="9.28097"/>
            <trkpt lat="41.83254" lon="9.28079"/>
            <trkpt lat="41.83247" lon="9.28066"/>
            <trkpt lat="41.83246" lon="9.28057"/>
            <trkpt lat="41.83248" lon="9.28046"/>
            <trkpt lat="41.83261" lon="9.28011"/>
            <trkpt lat="41.83265" lon="9.2799"/>
            <trkpt lat="41.83266" lon="9.2798"/>
            <trkpt lat="41.83265" lon="9.2797"/>
            <trkpt lat="41.83262" lon="9.27962"/>
            <trkpt lat="41.83258" lon="9.27952"/>
            <trkpt lat="41.83247" lon="9.27931"/>
            <trkpt lat="41.8324" lon="9.27912"/>
            <trkpt lat="41.8323" lon="9.27842"/>
            <trkpt lat="41.83225" lon="9.27823"/>
            <trkpt lat="41.8322" lon="9.27809"/>
            <trkpt lat="41.83208" lon="9.27781"/>
            <trkpt lat="41.83206" lon="9.27771"/>
            <trkpt lat="41.83206" lon="9.27734"/>
            <trkpt lat="41.83203" lon="9.27716"/>
            <trkpt lat="41.83198" lon="9.27699"/>
            <trkpt lat="41.83194" lon="9.27663"/>
            <trkpt lat="41.83193" lon="9.27573"/>
            <trkpt lat="41.83191" lon="9.27559"/>
            <trkpt lat="41.83178" lon="9.27524"/>
            <trkpt lat="41.83151" lon="9.27439"/>
            <trkpt lat="41.83145" lon="9.27407"/>
            <trkpt lat="41.83143" lon="9.27395"/>
            <trkpt lat="41.83145" lon="9.27353"/>
            <trkpt lat="41.83145" lon="9.27338"/>
            <trkpt lat="41.83139" lon="9.27314"/>
            <trkpt lat="41.83118" lon="9.27246"/>
            <trkpt lat="41.83116" lon="9.27241"/>
            <trkpt lat="41.83111" lon="9.27228"/>
            <trkpt lat="41.83107" lon="9.27222"/>
            <trkpt lat="41.83102" lon="9.27218"/>
            <trkpt lat="41.83096" lon="9.27218"/>
            <trkpt lat="41.8309" lon="9.2722"/>
            <trkpt lat="41.83087" lon="9.27223"/>
            <trkpt lat="41.83086" lon="9.27229"/>
            <trkpt lat="41.83087" lon="9.27235"/>
            <trkpt lat="41.83091" lon="9.27246"/>
            <trkpt lat="41.83113" lon="9.27305"/>
            <trkpt lat="41.83116" lon="9.27316"/>
            <trkpt lat="41.83117" lon="9.27325"/>
            <trkpt lat="41.83117" lon="9.27335"/>
            <trkpt lat="41.83108" lon="9.2738"/>
            <trkpt lat="41.83101" lon="9.27447"/>
            <trkpt lat="41.83098" lon="9.27463"/>
            <trkpt lat="41.83094" lon="9.27472"/>
            <trkpt lat="41.83089" lon="9.27477"/>
            <trkpt lat="41.83085" lon="9.27479"/>
            <trkpt lat="41.83079" lon="9.27478"/>
            <trkpt lat="41.83055" lon="9.27458"/>
            <trkpt lat="41.83044" lon="9.2745"/>
            <trkpt lat="41.83013" lon="9.27441"/>
            <trkpt lat="41.82987" lon="9.27432"/>
            <trkpt lat="41.82981" lon="9.27428"/>
            <trkpt lat="41.82974" lon="9.27421"/>
            <trkpt lat="41.82964" lon="9.27408"/>
            <trkpt lat="41.82952" lon="9.27395"/>
            <trkpt lat="41.829" lon="9.27365"/>
            <trkpt lat="41.8289" lon="9.27357"/>
            <trkpt lat="41.82885" lon="9.27349"/>
            <trkpt lat="41.8288" lon="9.27338"/>
            <trkpt lat="41.82878" lon="9.27326"/>
            <trkpt lat="41.82873" lon="9.27309"/>
            <trkpt lat="41.82869" lon="9.27303"/>
            <trkpt lat="41.82851" lon="9.27287"/>
            <trkpt lat="41.82839" lon="9.27278"/>
            <trkpt lat="41.82826" lon="9.27271"/>
            <trkpt lat="41.82819" lon="9.27268"/>
            <trkpt lat="41.82812" lon="9.27269"/>
            <trkpt lat="41.82807" lon="9.27273"/>
            <trkpt lat="41.82802" lon="9.27279"/>
            <trkpt lat="41.82791" lon="9.27301"/>
            <trkpt lat="41.82785" lon="9.27309"/>
            <trkpt lat="41.82778" lon="9.27316"/>
            <trkpt lat="41.8277" lon="9.27319"/>
            <trkpt lat="41.8274" lon="9.27315"/>
            <trkpt lat="41.82725" lon="9.27318"/>
            <trkpt lat="41.82708" lon="9.27326"/>
            <trkpt lat="41.82675" lon="9.27345"/>
            <trkpt lat="41.82664" lon="9.27347"/>
            <trkpt lat="41.82656" lon="9.27346"/>
            <trkpt lat="41.82614" lon="9.27333"/>
            <trkpt lat="41.82605" lon="9.27327"/>
            <trkpt lat="41.82598" lon="9.27321"/>
            <trkpt lat="41.82592" lon="9.27316"/>
            <trkpt lat="41.82577" lon="9.27286"/>
            <trkpt lat="41.82571" lon="9.27276"/>
            <trkpt lat="41.82565" lon="9.27271"/>
            <trkpt lat="41.82558" lon="9.27269"/>
            <trkpt lat="41.82551" lon="9.2727"/>
            <trkpt lat="41.82539" lon="9.27274"/>
            <trkpt lat="41.82531" lon="9.27275"/>
            <trkpt lat="41.82522" lon="9.27273"/>
            <trkpt lat="41.82505" lon="9.27262"/>
            <trkpt lat="41.825" lon="9.27255"/>
            <trkpt lat="41.82496" lon="9.27247"/>
            <trkpt lat="41.82496" lon="9.27246"/>
            <trkpt lat="41.82494" lon="9.27238"/>
            <trkpt lat="41.82496" lon="9.27228"/>
            <trkpt lat="41.82499" lon="9.27221"/>
            <trkpt lat="41.82504" lon="9.27214"/>
            <trkpt lat="41.8251" lon="9.27212"/>
            <trkpt lat="41.82516" lon="9.27211"/>
            <trkpt lat="41.82524" lon="9.27214"/>
            <trkpt lat="41.82542" lon="9.27224"/>
            <trkpt lat="41.82548" lon="9.27227"/>
            <trkpt lat="41.82577" lon="9.27244"/>
            <trkpt lat="41.8258" lon="9.27246"/>
            <trkpt lat="41.826" lon="9.27261"/>
            <trkpt lat="41.82608" lon="9.27266"/>
            <trkpt lat="41.82618" lon="9.27269"/>
            <trkpt lat="41.82627" lon="9.27267"/>
            <trkpt lat="41.82635" lon="9.27263"/>
            <trkpt lat="41.82642" lon="9.27257"/>
            <trkpt lat="41.82647" lon="9.27246"/>
            <trkpt lat="41.82664" lon="9.27212"/>
            <trkpt lat="41.82672" lon="9.272"/>
            <trkpt lat="41.8268" lon="9.27194"/>
            <trkpt lat="41.82701" lon="9.27189"/>
            <trkpt lat="41.8271" lon="9.27184"/>
            <trkpt lat="41.8273" lon="9.27166"/>
            <trkpt lat="41.8274" lon="9.27163"/>
            <trkpt lat="41.82829" lon="9.27155"/>
            <trkpt lat="41.82849" lon="9.27154"/>
            <trkpt lat="41.82858" lon="9.27152"/>
            <trkpt lat="41.82861" lon="9.2715"/>
            <trkpt lat="41.82864" lon="9.27146"/>
            <trkpt lat="41.82866" lon="9.27138"/>
            <trkpt lat="41.82864" lon="9.27131"/>
            <trkpt lat="41.82843" lon="9.27083"/>
            <trkpt lat="41.8284" lon="9.27071"/>
            <trkpt lat="41.82835" lon="9.2706"/>
            <trkpt lat="41.82821" lon="9.27038"/>
            <trkpt lat="41.82814" lon="9.27023"/>
            <trkpt lat="41.82804" lon="9.26998"/>
            <trkpt lat="41.82799" lon="9.2699"/>
            <trkpt lat="41.82793" lon="9.26984"/>
            <trkpt lat="41.82779" lon="9.26979"/>
            <trkpt lat="41.82769" lon="9.26979"/>
            <trkpt lat="41.82752" lon="9.26977"/>
            <trkpt lat="41.82743" lon="9.26974"/>
            <trkpt lat="41.82738" lon="9.2697"/>
            <trkpt lat="41.82733" lon="9.2696"/>
            <trkpt lat="41.82728" lon="9.26948"/>
            <trkpt lat="41.82725" lon="9.26938"/>
            <trkpt lat="41.82725" lon="9.26915"/>
            <trkpt lat="41.82727" lon="9.26904"/>
            <trkpt lat="41.82737" lon="9.26874"/>
            <trkpt lat="41.82737" lon="9.26867"/>
            <trkpt lat="41.82735" lon="9.26856"/>
            <trkpt lat="41.8271" lon="9.26806"/>
            <trkpt lat="41.82695" lon="9.26755"/>
            <trkpt lat="41.82684" lon="9.26706"/>
            <trkpt lat="41.82683" lon="9.26693"/>
            <trkpt lat="41.82684" lon="9.26676"/>
            <trkpt lat="41.82686" lon="9.26659"/>
            <trkpt lat="41.82695" lon="9.26624"/>
            <trkpt lat="41.82703" lon="9.2657"/>
            <trkpt lat="41.82702" lon="9.26551"/>
            <trkpt lat="41.82701" lon="9.26546"/>
            <trkpt lat="41.82698" lon="9.26535"/>
            <trkpt lat="41.82692" lon="9.26518"/>
            <trkpt lat="41.82675" lon="9.26481"/>
            <trkpt lat="41.82656" lon="9.26454"/>
            <trkpt lat="41.82649" lon="9.26447"/>
            <trkpt lat="41.82642" lon="9.26443"/>
            <trkpt lat="41.82635" lon="9.26443"/>
            <trkpt lat="41.82624" lon="9.26446"/>
            <trkpt lat="41.82614" lon="9.26452"/>
            <trkpt lat="41.82597" lon="9.2646"/>
            <trkpt lat="41.82591" lon="9.2646"/>
            <trkpt lat="41.82585" lon="9.26459"/>
            <trkpt lat="41.82579" lon="9.26455"/>
            <trkpt lat="41.82513" lon="9.26369"/>
            <trkpt lat="41.82494" lon="9.26326"/>
            <trkpt lat="41.82487" lon="9.26315"/>
            <trkpt lat="41.82456" lon="9.26292"/>
            <trkpt lat="41.82438" lon="9.26277"/>
            <trkpt lat="41.82423" lon="9.2626"/>
            <trkpt lat="41.82416" lon="9.26252"/>
            <trkpt lat="41.82403" lon="9.26228"/>
            <trkpt lat="41.82391" lon="9.26212"/>
            <trkpt lat="41.82382" lon="9.26205"/>
            <trkpt lat="41.82375" lon="9.26203"/>
            <trkpt lat="41.82367" lon="9.26204"/>
            <trkpt lat="41.82358" lon="9.26208"/>
            <trkpt lat="41.82337" lon="9.26222"/>
            <trkpt lat="41.8233" lon="9.26225"/>
            <trkpt lat="41.82309" lon="9.26228"/>
            <trkpt lat="41.82294" lon="9.26226"/>
            <trkpt lat="41.82263" lon="9.26208"/>
            <trkpt lat="41.82236" lon="9.2619"/>
            <trkpt lat="41.82203" lon="9.26163"/>
            <trkpt lat="41.82192" lon="9.26151"/>
            <trkpt lat="41.82176" lon="9.26125"/>
            <trkpt lat="41.82168" lon="9.26103"/>
            <trkpt lat="41.82165" lon="9.2609"/>
            <trkpt lat="41.82165" lon="9.26079"/>
            <trkpt lat="41.82168" lon="9.26048"/>
            <trkpt lat="41.82167" lon="9.26041"/>
            <trkpt lat="41.82158" lon="9.26025"/>
            <trkpt lat="41.82152" lon="9.26018"/>
            <trkpt lat="41.82146" lon="9.26011"/>
            <trkpt lat="41.8214" lon="9.26008"/>
            <trkpt lat="41.82135" lon="9.26007"/>
            <trkpt lat="41.8213" lon="9.26007"/>
            <trkpt lat="41.82127" lon="9.26008"/>
            <trkpt lat="41.82117" lon="9.26015"/>
            <trkpt lat="41.82105" lon="9.26032"/>
            <trkpt lat="41.82073" lon="9.26085"/>
            <trkpt lat="41.82067" lon="9.26094"/>
            <trkpt lat="41.82063" lon="9.26099"/>
            <trkpt lat="41.82058" lon="9.26103"/>
            <trkpt lat="41.82054" lon="9.26106"/>
            <trkpt lat="41.8205" lon="9.26108"/>
            <trkpt lat="41.82044" lon="9.26109"/>
            <trkpt lat="41.82039" lon="9.26107"/>
            <trkpt lat="41.82037" lon="9.26106"/>
            <trkpt lat="41.82029" lon="9.26099"/>
            <trkpt lat="41.82023" lon="9.26088"/>
            <trkpt lat="41.82014" lon="9.26072"/>
            <trkpt lat="41.82008" lon="9.26051"/>
            <trkpt lat="41.82005" lon="9.26032"/>
            <trkpt lat="41.82004" lon="9.26006"/>
            <trkpt lat="41.82006" lon="9.25987"/>
            <trkpt lat="41.82022" lon="9.25915"/>
            <trkpt lat="41.82024" lon="9.25897"/>
            <trkpt lat="41.82023" lon="9.25884"/>
            <trkpt lat="41.82021" lon="9.25877"/>
            <trkpt lat="41.82018" lon="9.25868"/>
            <trkpt lat="41.82009" lon="9.25857"/>
            <trkpt lat="41.8196" lon="9.25823"/>
            <trkpt lat="41.81951" lon="9.25816"/>
            <trkpt lat="41.81949" lon="9.25813"/>
            <trkpt lat="41.81947" lon="9.25809"/>
            <trkpt lat="41.81946" lon="9.25804"/>
            <trkpt lat="41.81946" lon="9.25797"/>
            <trkpt lat="41.81947" lon="9.25791"/>
            <trkpt lat="41.81947" lon="9.2579"/>
            <trkpt lat="41.81951" lon="9.25784"/>
            <trkpt lat="41.81955" lon="9.2578"/>
            <trkpt lat="41.81968" lon="9.25771"/>
            <trkpt lat="41.81989" lon="9.25764"/>
            <trkpt lat="41.82013" lon="9.25759"/>
            <trkpt lat="41.82034" lon="9.25753"/>
            <trkpt lat="41.82047" lon="9.25745"/>
            <trkpt lat="41.82053" lon="9.25738"/>
            <trkpt lat="41.82056" lon="9.25727"/>
            <trkpt lat="41.82058" lon="9.25705"/>
            <trkpt lat="41.82052" lon="9.25613"/>
            <trkpt lat="41.82049" lon="9.25601"/>
        </trkseg>
    </trk>
</gpx>
