<?xml version="1.0" encoding="UTF-8" standalone="yes"?>
<gpx xmlns="http://www.topografix.com/GPX/1/1" xmlns:tt="TT" version="1.1" creator="TomTom MyDrive">
    <wpt lat="41.8579" lon="9.4013">
        <type>TT_HARD</type>
    </wpt>
    <wpt lat="42.330793" lon="9.491696">
        <type>TT_HARD</type>
    </wpt>
    <rte>
        <name>5 agosto</name>
        <rtept lat="41.8579" lon="9.4013">
            <type>TT_HARD</type>
        </rtept>
        <rtept lat="42.330793" lon="9.491696">
            <type>TT_HARD</type>
        </rtept>
    </rte>
    <trk>
        <name>5 agosto</name>
        <trkseg>
            <trkpt lat="41.85791" lon="9.40138"/>
            <trkpt lat="41.85791" lon="9.40138"/>
            <trkpt lat="41.85809" lon="9.40135"/>
            <trkpt lat="41.85791" lon="9.40053"/>
            <trkpt lat="41.85787" lon="9.40036"/>
            <trkpt lat="41.8578" lon="9.40005"/>
            <trkpt lat="41.85776" lon="9.39984"/>
            <trkpt lat="41.85768" lon="9.3995"/>
            <trkpt lat="41.85761" lon="9.39917"/>
            <trkpt lat="41.85775" lon="9.3991"/>
            <trkpt lat="41.85791" lon="9.39902"/>
            <trkpt lat="41.85824" lon="9.39885"/>
            <trkpt lat="41.85843" lon="9.39875"/>
            <trkpt lat="41.85848" lon="9.39872"/>
            <trkpt lat="41.85859" lon="9.39864"/>
            <trkpt lat="41.85865" lon="9.39859"/>
            <trkpt lat="41.8587" lon="9.39854"/>
            <trkpt lat="41.85875" lon="9.39848"/>
            <trkpt lat="41.85879" lon="9.39841"/>
            <trkpt lat="41.85886" lon="9.3982"/>
            <trkpt lat="41.85889" lon="9.39806"/>
            <trkpt lat="41.85901" lon="9.39742"/>
            <trkpt lat="41.85903" lon="9.39732"/>
            <trkpt lat="41.85909" lon="9.39701"/>
            <trkpt lat="41.8593" lon="9.3961"/>
            <trkpt lat="41.85939" lon="9.39569"/>
            <trkpt lat="41.85948" lon="9.39526"/>
            <trkpt lat="41.85952" lon="9.39513"/>
            <trkpt lat="41.85972" lon="9.39456"/>
            <trkpt lat="41.85979" lon="9.39441"/>
            <trkpt lat="41.85985" lon="9.39429"/>
            <trkpt lat="41.85994" lon="9.39415"/>
            <trkpt lat="41.86028" lon="9.39374"/>
            <trkpt lat="41.86043" lon="9.39357"/>
            <trkpt lat="41.86046" lon="9.39355"/>
            <trkpt lat="41.86054" lon="9.39348"/>
            <trkpt lat="41.86064" lon="9.39342"/>
            <trkpt lat="41.86154" lon="9.39304"/>
            <trkpt lat="41.86202" lon="9.39288"/>
            <trkpt lat="41.86203" lon="9.39291"/>
            <trkpt lat="41.86205" lon="9.39293"/>
            <trkpt lat="41.86207" lon="9.39295"/>
            <trkpt lat="41.86209" lon="9.39296"/>
            <trkpt lat="41.86212" lon="9.39298"/>
            <trkpt lat="41.86215" lon="9.39298"/>
            <trkpt lat="41.86218" lon="9.39297"/>
            <trkpt lat="41.86221" lon="9.39296"/>
            <trkpt lat="41.86222" lon="9.39294"/>
            <trkpt lat="41.86257" lon="9.39323"/>
            <trkpt lat="41.86264" lon="9.39329"/>
            <trkpt lat="41.86281" lon="9.39348"/>
            <trkpt lat="41.86309" lon="9.39385"/>
            <trkpt lat="41.8632" lon="9.39398"/>
            <trkpt lat="41.8634" lon="9.39424"/>
            <trkpt lat="41.86389" lon="9.39488"/>
            <trkpt lat="41.86402" lon="9.39506"/>
            <trkpt lat="41.86411" lon="9.39516"/>
            <trkpt lat="41.86434" lon="9.39548"/>
            <trkpt lat="41.86475" lon="9.39598"/>
            <trkpt lat="41.86501" lon="9.39625"/>
            <trkpt lat="41.86506" lon="9.39637"/>
            <trkpt lat="41.86517" lon="9.39648"/>
            <trkpt lat="41.86528" lon="9.39657"/>
            <trkpt lat="41.86554" lon="9.39677"/>
            <trkpt lat="41.86575" lon="9.39689"/>
            <trkpt lat="41.86593" lon="9.39699"/>
            <trkpt lat="41.86628" lon="9.39713"/>
            <trkpt lat="41.86667" lon="9.39724"/>
            <trkpt lat="41.86678" lon="9.39723"/>
            <trkpt lat="41.8669" lon="9.39726"/>
            <trkpt lat="41.86728" lon="9.39731"/>
            <trkpt lat="41.86857" lon="9.39737"/>
            <trkpt lat="41.86902" lon="9.39737"/>
            <trkpt lat="41.86926" lon="9.39734"/>
            <trkpt lat="41.87379" lon="9.3965"/>
            <trkpt lat="41.87596" lon="9.39609"/>
            <trkpt lat="41.87755" lon="9.39578"/>
            <trkpt lat="41.87859" lon="9.3956"/>
            <trkpt lat="41.87988" lon="9.39535"/>
            <trkpt lat="41.88143" lon="9.39506"/>
            <trkpt lat="41.88151" lon="9.39504"/>
            <trkpt lat="41.88162" lon="9.39502"/>
            <trkpt lat="41.88194" lon="9.39497"/>
            <trkpt lat="41.88235" lon="9.39488"/>
            <trkpt lat="41.8829" lon="9.39478"/>
            <trkpt lat="41.88402" lon="9.39455"/>
            <trkpt lat="41.88421" lon="9.39452"/>
            <trkpt lat="41.88453" lon="9.39446"/>
            <trkpt lat="41.88487" lon="9.39439"/>
            <trkpt lat="41.88625" lon="9.39406"/>
            <trkpt lat="41.88641" lon="9.39402"/>
            <trkpt lat="41.88982" lon="9.39318"/>
            <trkpt lat="41.89051" lon="9.39302"/>
            <trkpt lat="41.8907" lon="9.39298"/>
            <trkpt lat="41.89246" lon="9.39254"/>
            <trkpt lat="41.8926" lon="9.39255"/>
            <trkpt lat="41.8932" lon="9.39244"/>
            <trkpt lat="41.89374" lon="9.39226"/>
            <trkpt lat="41.8946" lon="9.39203"/>
            <trkpt lat="41.89496" lon="9.39194"/>
            <trkpt lat="41.89503" lon="9.3919"/>
            <trkpt lat="41.89554" lon="9.39178"/>
            <trkpt lat="41.89593" lon="9.39169"/>
            <trkpt lat="41.89635" lon="9.39158"/>
            <trkpt lat="41.89656" lon="9.39153"/>
            <trkpt lat="41.89672" lon="9.39149"/>
            <trkpt lat="41.89856" lon="9.39104"/>
            <trkpt lat="41.90053" lon="9.39055"/>
            <trkpt lat="41.90122" lon="9.39038"/>
            <trkpt lat="41.90148" lon="9.39032"/>
            <trkpt lat="41.90178" lon="9.39024"/>
            <trkpt lat="41.90186" lon="9.39023"/>
            <trkpt lat="41.90324" lon="9.3899"/>
            <trkpt lat="41.90359" lon="9.38981"/>
            <trkpt lat="41.9046" lon="9.38956"/>
            <trkpt lat="41.90471" lon="9.38953"/>
            <trkpt lat="41.90488" lon="9.38949"/>
            <trkpt lat="41.90512" lon="9.38943"/>
            <trkpt lat="41.90534" lon="9.38937"/>
            <trkpt lat="41.90554" lon="9.38932"/>
            <trkpt lat="41.90589" lon="9.38923"/>
            <trkpt lat="41.90656" lon="9.38908"/>
            <trkpt lat="41.90696" lon="9.38898"/>
            <trkpt lat="41.90712" lon="9.38894"/>
            <trkpt lat="41.90826" lon="9.38865"/>
            <trkpt lat="41.90942" lon="9.38836"/>
            <trkpt lat="41.90967" lon="9.38835"/>
            <trkpt lat="41.90972" lon="9.38834"/>
            <trkpt lat="41.90999" lon="9.38835"/>
            <trkpt lat="41.91178" lon="9.38865"/>
            <trkpt lat="41.91209" lon="9.38869"/>
            <trkpt lat="41.91224" lon="9.38872"/>
            <trkpt lat="41.9124" lon="9.38875"/>
            <trkpt lat="41.9126" lon="9.38878"/>
            <trkpt lat="41.91276" lon="9.38881"/>
            <trkpt lat="41.91291" lon="9.38884"/>
            <trkpt lat="41.91424" lon="9.38905"/>
            <trkpt lat="41.91478" lon="9.38915"/>
            <trkpt lat="41.91497" lon="9.38919"/>
            <trkpt lat="41.9169" lon="9.38952"/>
            <trkpt lat="41.91731" lon="9.38958"/>
            <trkpt lat="41.91743" lon="9.38961"/>
            <trkpt lat="41.91804" lon="9.38971"/>
            <trkpt lat="41.9181" lon="9.38974"/>
            <trkpt lat="41.91842" lon="9.38983"/>
            <trkpt lat="41.91855" lon="9.38988"/>
            <trkpt lat="41.91864" lon="9.38992"/>
            <trkpt lat="41.91866" lon="9.38997"/>
            <trkpt lat="41.91867" lon="9.39"/>
            <trkpt lat="41.9187" lon="9.39003"/>
            <trkpt lat="41.91873" lon="9.39005"/>
            <trkpt lat="41.91878" lon="9.39007"/>
            <trkpt lat="41.91881" lon="9.39007"/>
            <trkpt lat="41.91888" lon="9.39004"/>
            <trkpt lat="41.9189" lon="9.39002"/>
            <trkpt lat="41.91895" lon="9.38998"/>
            <trkpt lat="41.91901" lon="9.38996"/>
            <trkpt lat="41.91914" lon="9.38994"/>
            <trkpt lat="41.91923" lon="9.38994"/>
            <trkpt lat="41.91957" lon="9.39"/>
            <trkpt lat="41.92012" lon="9.39009"/>
            <trkpt lat="41.92022" lon="9.39008"/>
            <trkpt lat="41.92052" lon="9.39013"/>
            <trkpt lat="41.92059" lon="9.39015"/>
            <trkpt lat="41.92195" lon="9.39037"/>
            <trkpt lat="41.92339" lon="9.39061"/>
            <trkpt lat="41.92372" lon="9.39067"/>
            <trkpt lat="41.9238" lon="9.39071"/>
            <trkpt lat="41.92383" lon="9.39072"/>
            <trkpt lat="41.92449" lon="9.39084"/>
            <trkpt lat="41.92485" lon="9.3909"/>
            <trkpt lat="41.92541" lon="9.39099"/>
            <trkpt lat="41.92567" lon="9.39104"/>
            <trkpt lat="41.92611" lon="9.39111"/>
            <trkpt lat="41.92633" lon="9.39114"/>
            <trkpt lat="41.92694" lon="9.39124"/>
            <trkpt lat="41.92712" lon="9.39124"/>
            <trkpt lat="41.92966" lon="9.39166"/>
            <trkpt lat="41.93008" lon="9.39173"/>
            <trkpt lat="41.93104" lon="9.39189"/>
            <trkpt lat="41.93261" lon="9.39215"/>
            <trkpt lat="41.93381" lon="9.39236"/>
            <trkpt lat="41.93623" lon="9.39276"/>
            <trkpt lat="41.93673" lon="9.39285"/>
            <trkpt lat="41.93965" lon="9.39333"/>
            <trkpt lat="41.94119" lon="9.39359"/>
            <trkpt lat="41.94373" lon="9.39402"/>
            <trkpt lat="41.94563" lon="9.39432"/>
            <trkpt lat="41.9458" lon="9.39435"/>
            <trkpt lat="41.9472" lon="9.39458"/>
            <trkpt lat="41.94937" lon="9.39496"/>
            <trkpt lat="41.94996" lon="9.39506"/>
            <trkpt lat="41.95166" lon="9.39534"/>
            <trkpt lat="41.95197" lon="9.3954"/>
            <trkpt lat="41.95229" lon="9.39546"/>
            <trkpt lat="41.95264" lon="9.39552"/>
            <trkpt lat="41.95294" lon="9.39557"/>
            <trkpt lat="41.95446" lon="9.39582"/>
            <trkpt lat="41.95479" lon="9.39588"/>
            <trkpt lat="41.95583" lon="9.39604"/>
            <trkpt lat="41.95624" lon="9.39612"/>
            <trkpt lat="41.9566" lon="9.39618"/>
            <trkpt lat="41.95727" lon="9.39629"/>
            <trkpt lat="41.95745" lon="9.39632"/>
            <trkpt lat="41.95756" lon="9.39634"/>
            <trkpt lat="41.95814" lon="9.39644"/>
            <trkpt lat="41.95845" lon="9.39649"/>
            <trkpt lat="41.95883" lon="9.39655"/>
            <trkpt lat="41.96036" lon="9.39681"/>
            <trkpt lat="41.96089" lon="9.39689"/>
            <trkpt lat="41.962" lon="9.39708"/>
            <trkpt lat="41.96289" lon="9.39724"/>
            <trkpt lat="41.96296" lon="9.39727"/>
            <trkpt lat="41.96317" lon="9.39731"/>
            <trkpt lat="41.96341" lon="9.39736"/>
            <trkpt lat="41.96376" lon="9.39741"/>
            <trkpt lat="41.96392" lon="9.39743"/>
            <trkpt lat="41.96417" lon="9.39747"/>
            <trkpt lat="41.96471" lon="9.39758"/>
            <trkpt lat="41.96496" lon="9.39761"/>
            <trkpt lat="41.9651" lon="9.39763"/>
            <trkpt lat="41.96515" lon="9.39765"/>
            <trkpt lat="41.96541" lon="9.39769"/>
            <trkpt lat="41.96592" lon="9.39778"/>
            <trkpt lat="41.96609" lon="9.3978"/>
            <trkpt lat="41.96615" lon="9.39778"/>
            <trkpt lat="41.96777" lon="9.39806"/>
            <trkpt lat="41.96825" lon="9.39814"/>
            <trkpt lat="41.96841" lon="9.39817"/>
            <trkpt lat="41.96856" lon="9.39819"/>
            <trkpt lat="41.9687" lon="9.39822"/>
            <trkpt lat="41.96918" lon="9.39829"/>
            <trkpt lat="41.97563" lon="9.39938"/>
            <trkpt lat="41.97576" lon="9.3994"/>
            <trkpt lat="41.97582" lon="9.39941"/>
            <trkpt lat="41.9759" lon="9.39942"/>
            <trkpt lat="41.9783" lon="9.39983"/>
            <trkpt lat="41.98083" lon="9.40023"/>
            <trkpt lat="41.98154" lon="9.40035"/>
            <trkpt lat="41.98181" lon="9.40038"/>
            <trkpt lat="41.98188" lon="9.40045"/>
            <trkpt lat="41.98249" lon="9.40056"/>
            <trkpt lat="41.98294" lon="9.40063"/>
            <trkpt lat="41.98356" lon="9.40073"/>
            <trkpt lat="41.98366" lon="9.4007"/>
            <trkpt lat="41.98381" lon="9.40073"/>
            <trkpt lat="41.98532" lon="9.40101"/>
            <trkpt lat="41.98545" lon="9.40108"/>
            <trkpt lat="41.98562" lon="9.40113"/>
            <trkpt lat="41.98582" lon="9.40117"/>
            <trkpt lat="41.98585" lon="9.40118"/>
            <trkpt lat="41.98599" lon="9.4012"/>
            <trkpt lat="41.98612" lon="9.40122"/>
            <trkpt lat="41.98638" lon="9.40123"/>
            <trkpt lat="41.98647" lon="9.40119"/>
            <trkpt lat="41.98689" lon="9.40121"/>
            <trkpt lat="41.98705" lon="9.40127"/>
            <trkpt lat="41.98748" lon="9.40132"/>
            <trkpt lat="41.98824" lon="9.40143"/>
            <trkpt lat="41.98953" lon="9.40163"/>
            <trkpt lat="41.98975" lon="9.40166"/>
            <trkpt lat="41.98986" lon="9.40167"/>
            <trkpt lat="41.98999" lon="9.4017"/>
            <trkpt lat="41.99019" lon="9.40175"/>
            <trkpt lat="41.99057" lon="9.40182"/>
            <trkpt lat="41.99064" lon="9.4018"/>
            <trkpt lat="41.99077" lon="9.40183"/>
            <trkpt lat="41.99088" lon="9.40185"/>
            <trkpt lat="41.99118" lon="9.4019"/>
            <trkpt lat="41.99159" lon="9.40197"/>
            <trkpt lat="41.99189" lon="9.40203"/>
            <trkpt lat="41.99211" lon="9.40207"/>
            <trkpt lat="41.99222" lon="9.40216"/>
            <trkpt lat="41.99303" lon="9.40227"/>
            <trkpt lat="41.99501" lon="9.40255"/>
            <trkpt lat="41.99524" lon="9.40257"/>
            <trkpt lat="41.9962" lon="9.40275"/>
            <trkpt lat="41.99701" lon="9.40284"/>
            <trkpt lat="41.99775" lon="9.40288"/>
            <trkpt lat="41.9984" lon="9.40293"/>
            <trkpt lat="41.99857" lon="9.40295"/>
            <trkpt lat="41.99902" lon="9.40298"/>
            <trkpt lat="41.99918" lon="9.40302"/>
            <trkpt lat="41.9992" lon="9.40306"/>
            <trkpt lat="41.99922" lon="9.40308"/>
            <trkpt lat="41.99925" lon="9.40309"/>
            <trkpt lat="41.99928" lon="9.4031"/>
            <trkpt lat="41.99931" lon="9.40309"/>
            <trkpt lat="41.99934" lon="9.40308"/>
            <trkpt lat="41.99936" lon="9.40305"/>
            <trkpt lat="41.99978" lon="9.40305"/>
            <trkpt lat="42.00063" lon="9.40305"/>
            <trkpt lat="42.00101" lon="9.40307"/>
            <trkpt lat="42.0012" lon="9.40308"/>
            <trkpt lat="42.00178" lon="9.40307"/>
            <trkpt lat="42.00214" lon="9.40308"/>
            <trkpt lat="42.00267" lon="9.40311"/>
            <trkpt lat="42.00299" lon="9.40314"/>
            <trkpt lat="42.00314" lon="9.40315"/>
            <trkpt lat="42.00342" lon="9.40318"/>
            <trkpt lat="42.00425" lon="9.40322"/>
            <trkpt lat="42.00453" lon="9.40322"/>
            <trkpt lat="42.00457" lon="9.40319"/>
            <trkpt lat="42.00484" lon="9.40321"/>
            <trkpt lat="42.00499" lon="9.40322"/>
            <trkpt lat="42.00693" lon="9.40338"/>
            <trkpt lat="42.00719" lon="9.4034"/>
            <trkpt lat="42.00907" lon="9.40351"/>
            <trkpt lat="42.00925" lon="9.40352"/>
            <trkpt lat="42.00992" lon="9.40356"/>
            <trkpt lat="42.01065" lon="9.4036"/>
            <trkpt lat="42.01105" lon="9.40363"/>
            <trkpt lat="42.01118" lon="9.40363"/>
            <trkpt lat="42.01126" lon="9.40362"/>
            <trkpt lat="42.0113" lon="9.40362"/>
            <trkpt lat="42.01133" lon="9.40361"/>
            <trkpt lat="42.01141" lon="9.40356"/>
            <trkpt lat="42.0115" lon="9.40352"/>
            <trkpt lat="42.01154" lon="9.40351"/>
            <trkpt lat="42.01157" lon="9.40351"/>
            <trkpt lat="42.01172" lon="9.40351"/>
            <trkpt lat="42.0119" lon="9.40352"/>
            <trkpt lat="42.01213" lon="9.40353"/>
            <trkpt lat="42.01239" lon="9.40355"/>
            <trkpt lat="42.01247" lon="9.40357"/>
            <trkpt lat="42.0125" lon="9.40358"/>
            <trkpt lat="42.01263" lon="9.40365"/>
            <trkpt lat="42.01274" lon="9.40368"/>
            <trkpt lat="42.01274" lon="9.40371"/>
            <trkpt lat="42.01274" lon="9.40376"/>
            <trkpt lat="42.01275" lon="9.40378"/>
            <trkpt lat="42.01276" lon="9.40381"/>
            <trkpt lat="42.01278" lon="9.40382"/>
            <trkpt lat="42.01279" lon="9.40384"/>
            <trkpt lat="42.01281" lon="9.40385"/>
            <trkpt lat="42.01283" lon="9.40385"/>
            <trkpt lat="42.01285" lon="9.40386"/>
            <trkpt lat="42.01286" lon="9.40386"/>
            <trkpt lat="42.01288" lon="9.40385"/>
            <trkpt lat="42.01291" lon="9.40384"/>
            <trkpt lat="42.01293" lon="9.40382"/>
            <trkpt lat="42.01295" lon="9.4038"/>
            <trkpt lat="42.01296" lon="9.40378"/>
            <trkpt lat="42.01297" lon="9.40376"/>
            <trkpt lat="42.01298" lon="9.40373"/>
            <trkpt lat="42.01322" lon="9.40374"/>
            <trkpt lat="42.01379" lon="9.40381"/>
            <trkpt lat="42.01405" lon="9.40387"/>
            <trkpt lat="42.01422" lon="9.40394"/>
            <trkpt lat="42.01453" lon="9.40414"/>
            <trkpt lat="42.01473" lon="9.4043"/>
            <trkpt lat="42.01502" lon="9.40452"/>
            <trkpt lat="42.01521" lon="9.40468"/>
            <trkpt lat="42.01559" lon="9.40496"/>
            <trkpt lat="42.01576" lon="9.40509"/>
            <trkpt lat="42.01592" lon="9.40522"/>
            <trkpt lat="42.01619" lon="9.40542"/>
            <trkpt lat="42.01637" lon="9.40556"/>
            <trkpt lat="42.01643" lon="9.4056"/>
            <trkpt lat="42.01652" lon="9.40568"/>
            <trkpt lat="42.01664" lon="9.40577"/>
            <trkpt lat="42.01675" lon="9.40585"/>
            <trkpt lat="42.01707" lon="9.4061"/>
            <trkpt lat="42.01712" lon="9.40614"/>
            <trkpt lat="42.01734" lon="9.40631"/>
            <trkpt lat="42.01753" lon="9.40646"/>
            <trkpt lat="42.01769" lon="9.4066"/>
            <trkpt lat="42.01768" lon="9.40661"/>
            <trkpt lat="42.01768" lon="9.40663"/>
            <trkpt lat="42.01768" lon="9.40665"/>
            <trkpt lat="42.01768" lon="9.40669"/>
            <trkpt lat="42.01769" lon="9.40671"/>
            <trkpt lat="42.01769" lon="9.40672"/>
            <trkpt lat="42.01771" lon="9.40674"/>
            <trkpt lat="42.01772" lon="9.40676"/>
            <trkpt lat="42.01774" lon="9.40677"/>
            <trkpt lat="42.01776" lon="9.40678"/>
            <trkpt lat="42.01777" lon="9.40678"/>
            <trkpt lat="42.01779" lon="9.40678"/>
            <trkpt lat="42.01781" lon="9.40677"/>
            <trkpt lat="42.01782" lon="9.40676"/>
            <trkpt lat="42.01784" lon="9.40675"/>
            <trkpt lat="42.01784" lon="9.40673"/>
            <trkpt lat="42.01785" lon="9.40672"/>
            <trkpt lat="42.01802" lon="9.40685"/>
            <trkpt lat="42.0181" lon="9.40691"/>
            <trkpt lat="42.01833" lon="9.40709"/>
            <trkpt lat="42.01846" lon="9.4072"/>
            <trkpt lat="42.01897" lon="9.40759"/>
            <trkpt lat="42.0193" lon="9.40785"/>
            <trkpt lat="42.01939" lon="9.40792"/>
            <trkpt lat="42.01957" lon="9.40805"/>
            <trkpt lat="42.01979" lon="9.40822"/>
            <trkpt lat="42.02" lon="9.40838"/>
            <trkpt lat="42.02032" lon="9.40863"/>
            <trkpt lat="42.02103" lon="9.40919"/>
            <trkpt lat="42.02114" lon="9.4093"/>
            <trkpt lat="42.02166" lon="9.40969"/>
            <trkpt lat="42.02171" lon="9.40973"/>
            <trkpt lat="42.02177" lon="9.40977"/>
            <trkpt lat="42.02178" lon="9.40982"/>
            <trkpt lat="42.02188" lon="9.4099"/>
            <trkpt lat="42.02213" lon="9.41008"/>
            <trkpt lat="42.02217" lon="9.41011"/>
            <trkpt lat="42.02223" lon="9.41013"/>
            <trkpt lat="42.02261" lon="9.41043"/>
            <trkpt lat="42.02327" lon="9.41094"/>
            <trkpt lat="42.02334" lon="9.41102"/>
            <trkpt lat="42.02369" lon="9.41131"/>
            <trkpt lat="42.02387" lon="9.41145"/>
            <trkpt lat="42.02411" lon="9.41163"/>
            <trkpt lat="42.0246" lon="9.41201"/>
            <trkpt lat="42.02483" lon="9.41219"/>
            <trkpt lat="42.0253" lon="9.41255"/>
            <trkpt lat="42.02547" lon="9.41268"/>
            <trkpt lat="42.02555" lon="9.41271"/>
            <trkpt lat="42.02569" lon="9.41282"/>
            <trkpt lat="42.02592" lon="9.413"/>
            <trkpt lat="42.0273" lon="9.41408"/>
            <trkpt lat="42.02762" lon="9.41432"/>
            <trkpt lat="42.02885" lon="9.41528"/>
            <trkpt lat="42.0294" lon="9.4157"/>
            <trkpt lat="42.03092" lon="9.41688"/>
            <trkpt lat="42.03117" lon="9.41708"/>
            <trkpt lat="42.03346" lon="9.41885"/>
            <trkpt lat="42.03352" lon="9.4189"/>
            <trkpt lat="42.03369" lon="9.41903"/>
            <trkpt lat="42.03457" lon="9.41971"/>
            <trkpt lat="42.0354" lon="9.42036"/>
            <trkpt lat="42.03589" lon="9.4207"/>
            <trkpt lat="42.03638" lon="9.42098"/>
            <trkpt lat="42.03773" lon="9.42166"/>
            <trkpt lat="42.04116" lon="9.42336"/>
            <trkpt lat="42.04175" lon="9.42367"/>
            <trkpt lat="42.04255" lon="9.42413"/>
            <trkpt lat="42.04386" lon="9.42492"/>
            <trkpt lat="42.04421" lon="9.42513"/>
            <trkpt lat="42.04515" lon="9.4257"/>
            <trkpt lat="42.0461" lon="9.42627"/>
            <trkpt lat="42.04622" lon="9.42634"/>
            <trkpt lat="42.04701" lon="9.42682"/>
            <trkpt lat="42.0496" lon="9.42837"/>
            <trkpt lat="42.05058" lon="9.42894"/>
            <trkpt lat="42.05332" lon="9.43057"/>
            <trkpt lat="42.05397" lon="9.43093"/>
            <trkpt lat="42.05566" lon="9.43165"/>
            <trkpt lat="42.05629" lon="9.43192"/>
            <trkpt lat="42.05684" lon="9.43214"/>
            <trkpt lat="42.05796" lon="9.43259"/>
            <trkpt lat="42.05828" lon="9.43274"/>
            <trkpt lat="42.05866" lon="9.43297"/>
            <trkpt lat="42.05875" lon="9.43303"/>
            <trkpt lat="42.05923" lon="9.43342"/>
            <trkpt lat="42.05953" lon="9.43372"/>
            <trkpt lat="42.05966" lon="9.43387"/>
            <trkpt lat="42.06077" lon="9.43523"/>
            <trkpt lat="42.06187" lon="9.43656"/>
            <trkpt lat="42.06218" lon="9.43695"/>
            <trkpt lat="42.06241" lon="9.4373"/>
            <trkpt lat="42.06253" lon="9.43761"/>
            <trkpt lat="42.06264" lon="9.43799"/>
            <trkpt lat="42.06286" lon="9.43921"/>
            <trkpt lat="42.06297" lon="9.43968"/>
            <trkpt lat="42.06302" lon="9.43985"/>
            <trkpt lat="42.06308" lon="9.44002"/>
            <trkpt lat="42.06323" lon="9.44032"/>
            <trkpt lat="42.06342" lon="9.44061"/>
            <trkpt lat="42.0638" lon="9.44112"/>
            <trkpt lat="42.06401" lon="9.44139"/>
            <trkpt lat="42.06477" lon="9.44238"/>
            <trkpt lat="42.06558" lon="9.44344"/>
            <trkpt lat="42.06582" lon="9.44381"/>
            <trkpt lat="42.06599" lon="9.44412"/>
            <trkpt lat="42.06614" lon="9.44446"/>
            <trkpt lat="42.06723" lon="9.44723"/>
            <trkpt lat="42.06763" lon="9.44824"/>
            <trkpt lat="42.06845" lon="9.45032"/>
            <trkpt lat="42.06873" lon="9.45099"/>
            <trkpt lat="42.06907" lon="9.45167"/>
            <trkpt lat="42.06914" lon="9.45182"/>
            <trkpt lat="42.06921" lon="9.45196"/>
            <trkpt lat="42.07043" lon="9.45435"/>
            <trkpt lat="42.07057" lon="9.45464"/>
            <trkpt lat="42.07458" lon="9.46246"/>
            <trkpt lat="42.07487" lon="9.46305"/>
            <trkpt lat="42.07497" lon="9.46328"/>
            <trkpt lat="42.07518" lon="9.4638"/>
            <trkpt lat="42.07553" lon="9.46475"/>
            <trkpt lat="42.07582" lon="9.4656"/>
            <trkpt lat="42.07619" lon="9.4667"/>
            <trkpt lat="42.07678" lon="9.46845"/>
            <trkpt lat="42.0774" lon="9.47021"/>
            <trkpt lat="42.07742" lon="9.47029"/>
            <trkpt lat="42.07764" lon="9.47091"/>
            <trkpt lat="42.07783" lon="9.47148"/>
            <trkpt lat="42.07789" lon="9.47168"/>
            <trkpt lat="42.07942" lon="9.47629"/>
            <trkpt lat="42.07965" lon="9.47692"/>
            <trkpt lat="42.07989" lon="9.47756"/>
            <trkpt lat="42.08141" lon="9.48195"/>
            <trkpt lat="42.08191" lon="9.48337"/>
            <trkpt lat="42.08194" lon="9.48349"/>
            <trkpt lat="42.08237" lon="9.48476"/>
            <trkpt lat="42.08269" lon="9.48568"/>
            <trkpt lat="42.08302" lon="9.48665"/>
            <trkpt lat="42.084" lon="9.48962"/>
            <trkpt lat="42.08486" lon="9.49219"/>
            <trkpt lat="42.08586" lon="9.49519"/>
            <trkpt lat="42.08658" lon="9.49737"/>
            <trkpt lat="42.08703" lon="9.49868"/>
            <trkpt lat="42.08848" lon="9.50289"/>
            <trkpt lat="42.08887" lon="9.50412"/>
            <trkpt lat="42.09006" lon="9.50769"/>
            <trkpt lat="42.09027" lon="9.50825"/>
            <trkpt lat="42.09044" lon="9.50867"/>
            <trkpt lat="42.09144" lon="9.51079"/>
            <trkpt lat="42.09248" lon="9.51301"/>
            <trkpt lat="42.09284" lon="9.51373"/>
            <trkpt lat="42.09298" lon="9.51396"/>
            <trkpt lat="42.09315" lon="9.51416"/>
            <trkpt lat="42.09319" lon="9.51421"/>
            <trkpt lat="42.09328" lon="9.5143"/>
            <trkpt lat="42.09328" lon="9.5143"/>
            <trkpt lat="42.09341" lon="9.51441"/>
            <trkpt lat="42.09345" lon="9.51445"/>
            <trkpt lat="42.0936" lon="9.51455"/>
            <trkpt lat="42.09378" lon="9.51462"/>
            <trkpt lat="42.09405" lon="9.5147"/>
            <trkpt lat="42.09445" lon="9.51475"/>
            <trkpt lat="42.09509" lon="9.5148"/>
            <trkpt lat="42.09755" lon="9.51492"/>
            <trkpt lat="42.09807" lon="9.51495"/>
            <trkpt lat="42.09822" lon="9.51496"/>
            <trkpt lat="42.09961" lon="9.51504"/>
            <trkpt lat="42.09966" lon="9.51504"/>
            <trkpt lat="42.10304" lon="9.51521"/>
            <trkpt lat="42.10371" lon="9.5152"/>
            <trkpt lat="42.1044" lon="9.51519"/>
            <trkpt lat="42.10484" lon="9.51517"/>
            <trkpt lat="42.10516" lon="9.5151"/>
            <trkpt lat="42.10578" lon="9.515"/>
            <trkpt lat="42.10907" lon="9.51444"/>
            <trkpt lat="42.10959" lon="9.51436"/>
            <trkpt lat="42.10962" lon="9.51437"/>
            <trkpt lat="42.10966" lon="9.51437"/>
            <trkpt lat="42.10981" lon="9.51435"/>
            <trkpt lat="42.11042" lon="9.51424"/>
            <trkpt lat="42.1107" lon="9.51422"/>
            <trkpt lat="42.11078" lon="9.51421"/>
            <trkpt lat="42.11094" lon="9.51416"/>
            <trkpt lat="42.11094" lon="9.51416"/>
            <trkpt lat="42.11179" lon="9.514"/>
            <trkpt lat="42.11188" lon="9.51396"/>
            <trkpt lat="42.11207" lon="9.51393"/>
            <trkpt lat="42.11236" lon="9.51389"/>
            <trkpt lat="42.11243" lon="9.51388"/>
            <trkpt lat="42.11269" lon="9.51384"/>
            <trkpt lat="42.11277" lon="9.51382"/>
            <trkpt lat="42.11311" lon="9.51377"/>
            <trkpt lat="42.11333" lon="9.51372"/>
            <trkpt lat="42.11388" lon="9.51363"/>
            <trkpt lat="42.1148" lon="9.51348"/>
            <trkpt lat="42.11496" lon="9.51346"/>
            <trkpt lat="42.11534" lon="9.51339"/>
            <trkpt lat="42.11558" lon="9.51335"/>
            <trkpt lat="42.11593" lon="9.51329"/>
            <trkpt lat="42.11642" lon="9.51321"/>
            <trkpt lat="42.11644" lon="9.51324"/>
            <trkpt lat="42.11645" lon="9.51326"/>
            <trkpt lat="42.11646" lon="9.51327"/>
            <trkpt lat="42.11647" lon="9.51328"/>
            <trkpt lat="42.11648" lon="9.51329"/>
            <trkpt lat="42.11651" lon="9.51329"/>
            <trkpt lat="42.11652" lon="9.51329"/>
            <trkpt lat="42.11654" lon="9.51329"/>
            <trkpt lat="42.11656" lon="9.51329"/>
            <trkpt lat="42.11657" lon="9.51327"/>
            <trkpt lat="42.11659" lon="9.51326"/>
            <trkpt lat="42.1166" lon="9.51324"/>
            <trkpt lat="42.1166" lon="9.51322"/>
            <trkpt lat="42.11705" lon="9.51315"/>
            <trkpt lat="42.11733" lon="9.51306"/>
            <trkpt lat="42.11749" lon="9.51297"/>
            <trkpt lat="42.11761" lon="9.51291"/>
            <trkpt lat="42.11792" lon="9.51268"/>
            <trkpt lat="42.11833" lon="9.51233"/>
            <trkpt lat="42.11915" lon="9.5117"/>
            <trkpt lat="42.11919" lon="9.51163"/>
            <trkpt lat="42.11926" lon="9.51157"/>
            <trkpt lat="42.11945" lon="9.51141"/>
            <trkpt lat="42.12044" lon="9.51064"/>
            <trkpt lat="42.1205" lon="9.5106"/>
            <trkpt lat="42.12077" lon="9.51046"/>
            <trkpt lat="42.12088" lon="9.51043"/>
            <trkpt lat="42.12112" lon="9.51038"/>
            <trkpt lat="42.12145" lon="9.51037"/>
            <trkpt lat="42.12158" lon="9.51037"/>
            <trkpt lat="42.12204" lon="9.51035"/>
            <trkpt lat="42.12229" lon="9.51034"/>
            <trkpt lat="42.12239" lon="9.51033"/>
            <trkpt lat="42.12307" lon="9.51031"/>
            <trkpt lat="42.12362" lon="9.51029"/>
            <trkpt lat="42.12451" lon="9.51026"/>
            <trkpt lat="42.12513" lon="9.51023"/>
            <trkpt lat="42.12599" lon="9.5102"/>
            <trkpt lat="42.12664" lon="9.51017"/>
            <trkpt lat="42.12688" lon="9.51016"/>
            <trkpt lat="42.12763" lon="9.51013"/>
            <trkpt lat="42.12966" lon="9.51003"/>
            <trkpt lat="42.13098" lon="9.50998"/>
            <trkpt lat="42.13263" lon="9.50994"/>
            <trkpt lat="42.1328" lon="9.50993"/>
            <trkpt lat="42.13369" lon="9.50988"/>
            <trkpt lat="42.1345" lon="9.50977"/>
            <trkpt lat="42.13507" lon="9.50965"/>
            <trkpt lat="42.13648" lon="9.50922"/>
            <trkpt lat="42.13679" lon="9.50912"/>
            <trkpt lat="42.13718" lon="9.509"/>
            <trkpt lat="42.1373" lon="9.50897"/>
            <trkpt lat="42.14191" lon="9.50754"/>
            <trkpt lat="42.14239" lon="9.50743"/>
            <trkpt lat="42.14278" lon="9.50741"/>
            <trkpt lat="42.14315" lon="9.50746"/>
            <trkpt lat="42.14355" lon="9.50754"/>
            <trkpt lat="42.14395" lon="9.50763"/>
            <trkpt lat="42.14423" lon="9.50766"/>
            <trkpt lat="42.14448" lon="9.50765"/>
            <trkpt lat="42.14478" lon="9.50759"/>
            <trkpt lat="42.14498" lon="9.50751"/>
            <trkpt lat="42.14521" lon="9.50739"/>
            <trkpt lat="42.14543" lon="9.50723"/>
            <trkpt lat="42.14561" lon="9.50706"/>
            <trkpt lat="42.14576" lon="9.50689"/>
            <trkpt lat="42.14641" lon="9.50606"/>
            <trkpt lat="42.14664" lon="9.50581"/>
            <trkpt lat="42.14684" lon="9.50562"/>
            <trkpt lat="42.14688" lon="9.50559"/>
            <trkpt lat="42.14701" lon="9.50551"/>
            <trkpt lat="42.14721" lon="9.50539"/>
            <trkpt lat="42.14751" lon="9.50528"/>
            <trkpt lat="42.14788" lon="9.50523"/>
            <trkpt lat="42.14807" lon="9.50525"/>
            <trkpt lat="42.14818" lon="9.5053"/>
            <trkpt lat="42.14841" lon="9.50537"/>
            <trkpt lat="42.14856" lon="9.50542"/>
            <trkpt lat="42.14881" lon="9.50555"/>
            <trkpt lat="42.14908" lon="9.50569"/>
            <trkpt lat="42.14991" lon="9.50615"/>
            <trkpt lat="42.15025" lon="9.50634"/>
            <trkpt lat="42.15165" lon="9.5071"/>
            <trkpt lat="42.1519" lon="9.50721"/>
            <trkpt lat="42.15202" lon="9.50722"/>
            <trkpt lat="42.15251" lon="9.50749"/>
            <trkpt lat="42.15312" lon="9.50782"/>
            <trkpt lat="42.15338" lon="9.50797"/>
            <trkpt lat="42.15371" lon="9.50825"/>
            <trkpt lat="42.15383" lon="9.50838"/>
            <trkpt lat="42.15406" lon="9.50866"/>
            <trkpt lat="42.15421" lon="9.50893"/>
            <trkpt lat="42.15471" lon="9.50994"/>
            <trkpt lat="42.15653" lon="9.51362"/>
            <trkpt lat="42.15679" lon="9.51416"/>
            <trkpt lat="42.15723" lon="9.51508"/>
            <trkpt lat="42.15742" lon="9.51547"/>
            <trkpt lat="42.15854" lon="9.51773"/>
            <trkpt lat="42.15893" lon="9.51848"/>
            <trkpt lat="42.15926" lon="9.51898"/>
            <trkpt lat="42.15982" lon="9.51982"/>
            <trkpt lat="42.16113" lon="9.5217"/>
            <trkpt lat="42.16302" lon="9.5244"/>
            <trkpt lat="42.16309" lon="9.52451"/>
            <trkpt lat="42.1633" lon="9.52475"/>
            <trkpt lat="42.16356" lon="9.52499"/>
            <trkpt lat="42.16385" lon="9.52518"/>
            <trkpt lat="42.16415" lon="9.52531"/>
            <trkpt lat="42.16428" lon="9.52535"/>
            <trkpt lat="42.16461" lon="9.52543"/>
            <trkpt lat="42.1647" lon="9.52545"/>
            <trkpt lat="42.16504" lon="9.52553"/>
            <trkpt lat="42.16512" lon="9.52554"/>
            <trkpt lat="42.16553" lon="9.52563"/>
            <trkpt lat="42.1657" lon="9.52567"/>
            <trkpt lat="42.16613" lon="9.52578"/>
            <trkpt lat="42.16786" lon="9.52618"/>
            <trkpt lat="42.16836" lon="9.52631"/>
            <trkpt lat="42.16883" lon="9.5265"/>
            <trkpt lat="42.17054" lon="9.52744"/>
            <trkpt lat="42.17248" lon="9.52848"/>
            <trkpt lat="42.17297" lon="9.52875"/>
            <trkpt lat="42.17347" lon="9.52901"/>
            <trkpt lat="42.17374" lon="9.5291"/>
            <trkpt lat="42.17403" lon="9.52916"/>
            <trkpt lat="42.17638" lon="9.52938"/>
            <trkpt lat="42.17788" lon="9.52952"/>
            <trkpt lat="42.18107" lon="9.52981"/>
            <trkpt lat="42.18552" lon="9.53022"/>
            <trkpt lat="42.18624" lon="9.53027"/>
            <trkpt lat="42.1875" lon="9.5304"/>
            <trkpt lat="42.18797" lon="9.53044"/>
            <trkpt lat="42.18947" lon="9.53058"/>
            <trkpt lat="42.19198" lon="9.53078"/>
            <trkpt lat="42.19216" lon="9.5308"/>
            <trkpt lat="42.19238" lon="9.53081"/>
            <trkpt lat="42.19245" lon="9.53082"/>
            <trkpt lat="42.19308" lon="9.53088"/>
            <trkpt lat="42.19444" lon="9.53101"/>
            <trkpt lat="42.19528" lon="9.53109"/>
            <trkpt lat="42.19595" lon="9.53115"/>
            <trkpt lat="42.1961" lon="9.53118"/>
            <trkpt lat="42.19628" lon="9.53124"/>
            <trkpt lat="42.19658" lon="9.53136"/>
            <trkpt lat="42.19668" lon="9.53142"/>
            <trkpt lat="42.19684" lon="9.53153"/>
            <trkpt lat="42.19744" lon="9.532"/>
            <trkpt lat="42.19782" lon="9.53231"/>
            <trkpt lat="42.19798" lon="9.53243"/>
            <trkpt lat="42.19852" lon="9.53286"/>
            <trkpt lat="42.19975" lon="9.53383"/>
            <trkpt lat="42.20025" lon="9.53422"/>
            <trkpt lat="42.20048" lon="9.53437"/>
            <trkpt lat="42.20089" lon="9.53459"/>
            <trkpt lat="42.20124" lon="9.53473"/>
            <trkpt lat="42.20131" lon="9.53475"/>
            <trkpt lat="42.20171" lon="9.53485"/>
            <trkpt lat="42.20215" lon="9.53489"/>
            <trkpt lat="42.2025" lon="9.53489"/>
            <trkpt lat="42.2032" lon="9.53481"/>
            <trkpt lat="42.20383" lon="9.53473"/>
            <trkpt lat="42.20482" lon="9.53462"/>
            <trkpt lat="42.20502" lon="9.53459"/>
            <trkpt lat="42.20514" lon="9.53458"/>
            <trkpt lat="42.2059" lon="9.53449"/>
            <trkpt lat="42.20594" lon="9.53449"/>
            <trkpt lat="42.20815" lon="9.53424"/>
            <trkpt lat="42.20853" lon="9.5342"/>
            <trkpt lat="42.20878" lon="9.53418"/>
            <trkpt lat="42.20947" lon="9.53411"/>
            <trkpt lat="42.20951" lon="9.53411"/>
            <trkpt lat="42.21029" lon="9.53403"/>
            <trkpt lat="42.21141" lon="9.53392"/>
            <trkpt lat="42.21185" lon="9.53387"/>
            <trkpt lat="42.21207" lon="9.53385"/>
            <trkpt lat="42.21226" lon="9.53383"/>
            <trkpt lat="42.21335" lon="9.53371"/>
            <trkpt lat="42.21381" lon="9.53366"/>
            <trkpt lat="42.21505" lon="9.53352"/>
            <trkpt lat="42.2154" lon="9.5335"/>
            <trkpt lat="42.2157" lon="9.53354"/>
            <trkpt lat="42.21598" lon="9.53364"/>
            <trkpt lat="42.21622" lon="9.53378"/>
            <trkpt lat="42.21682" lon="9.53428"/>
            <trkpt lat="42.21755" lon="9.5349"/>
            <trkpt lat="42.21864" lon="9.53582"/>
            <trkpt lat="42.219" lon="9.53613"/>
            <trkpt lat="42.21946" lon="9.53652"/>
            <trkpt lat="42.22107" lon="9.53789"/>
            <trkpt lat="42.22162" lon="9.53835"/>
            <trkpt lat="42.22258" lon="9.53916"/>
            <trkpt lat="42.22643" lon="9.54244"/>
            <trkpt lat="42.22759" lon="9.54345"/>
            <trkpt lat="42.22772" lon="9.54355"/>
            <trkpt lat="42.22798" lon="9.5437"/>
            <trkpt lat="42.22826" lon="9.54379"/>
            <trkpt lat="42.22966" lon="9.54413"/>
            <trkpt lat="42.23029" lon="9.54429"/>
            <trkpt lat="42.23125" lon="9.54453"/>
            <trkpt lat="42.23145" lon="9.54457"/>
            <trkpt lat="42.23146" lon="9.54458"/>
            <trkpt lat="42.23533" lon="9.54553"/>
            <trkpt lat="42.23611" lon="9.54568"/>
            <trkpt lat="42.23919" lon="9.54565"/>
            <trkpt lat="42.2415" lon="9.54562"/>
            <trkpt lat="42.24176" lon="9.54562"/>
            <trkpt lat="42.24232" lon="9.54561"/>
            <trkpt lat="42.24305" lon="9.54561"/>
            <trkpt lat="42.24394" lon="9.5456"/>
            <trkpt lat="42.24424" lon="9.5456"/>
            <trkpt lat="42.24526" lon="9.54558"/>
            <trkpt lat="42.24701" lon="9.54557"/>
            <trkpt lat="42.24839" lon="9.54557"/>
            <trkpt lat="42.24921" lon="9.54556"/>
            <trkpt lat="42.24987" lon="9.54556"/>
            <trkpt lat="42.24999" lon="9.54555"/>
            <trkpt lat="42.25018" lon="9.54555"/>
            <trkpt lat="42.25037" lon="9.54555"/>
            <trkpt lat="42.25079" lon="9.54555"/>
            <trkpt lat="42.25131" lon="9.54554"/>
            <trkpt lat="42.25174" lon="9.54553"/>
            <trkpt lat="42.25211" lon="9.54553"/>
            <trkpt lat="42.25243" lon="9.54553"/>
            <trkpt lat="42.25272" lon="9.54552"/>
            <trkpt lat="42.25289" lon="9.54553"/>
            <trkpt lat="42.25325" lon="9.5456"/>
            <trkpt lat="42.25342" lon="9.54565"/>
            <trkpt lat="42.254" lon="9.54583"/>
            <trkpt lat="42.25422" lon="9.54588"/>
            <trkpt lat="42.25435" lon="9.54597"/>
            <trkpt lat="42.25517" lon="9.54619"/>
            <trkpt lat="42.25572" lon="9.54633"/>
            <trkpt lat="42.25582" lon="9.54635"/>
            <trkpt lat="42.25598" lon="9.54635"/>
            <trkpt lat="42.25636" lon="9.54646"/>
            <trkpt lat="42.25695" lon="9.54664"/>
            <trkpt lat="42.2571" lon="9.54667"/>
            <trkpt lat="42.25826" lon="9.54697"/>
            <trkpt lat="42.25892" lon="9.54714"/>
            <trkpt lat="42.25947" lon="9.54728"/>
            <trkpt lat="42.26023" lon="9.54748"/>
            <trkpt lat="42.26083" lon="9.54764"/>
            <trkpt lat="42.26111" lon="9.54772"/>
            <trkpt lat="42.2612" lon="9.54777"/>
            <trkpt lat="42.2615" lon="9.54786"/>
            <trkpt lat="42.26157" lon="9.54788"/>
            <trkpt lat="42.26195" lon="9.548"/>
            <trkpt lat="42.26248" lon="9.54815"/>
            <trkpt lat="42.26298" lon="9.54828"/>
            <trkpt lat="42.26338" lon="9.54838"/>
            <trkpt lat="42.26358" lon="9.54843"/>
            <trkpt lat="42.26423" lon="9.54862"/>
            <trkpt lat="42.26462" lon="9.5487"/>
            <trkpt lat="42.26516" lon="9.54882"/>
            <trkpt lat="42.26532" lon="9.54882"/>
            <trkpt lat="42.26571" lon="9.54888"/>
            <trkpt lat="42.26621" lon="9.54893"/>
            <trkpt lat="42.26706" lon="9.54901"/>
            <trkpt lat="42.26735" lon="9.54904"/>
            <trkpt lat="42.26773" lon="9.54908"/>
            <trkpt lat="42.2685" lon="9.54915"/>
            <trkpt lat="42.26898" lon="9.5492"/>
            <trkpt lat="42.26928" lon="9.54923"/>
            <trkpt lat="42.27377" lon="9.54966"/>
            <trkpt lat="42.27533" lon="9.54982"/>
            <trkpt lat="42.27539" lon="9.54985"/>
            <trkpt lat="42.27545" lon="9.54988"/>
            <trkpt lat="42.27643" lon="9.55003"/>
            <trkpt lat="42.27664" lon="9.55005"/>
            <trkpt lat="42.27771" lon="9.55014"/>
            <trkpt lat="42.27831" lon="9.5502"/>
            <trkpt lat="42.27918" lon="9.55025"/>
            <trkpt lat="42.2793" lon="9.55023"/>
            <trkpt lat="42.28025" lon="9.55031"/>
            <trkpt lat="42.28265" lon="9.55056"/>
            <trkpt lat="42.2836" lon="9.55065"/>
            <trkpt lat="42.28394" lon="9.55069"/>
            <trkpt lat="42.28445" lon="9.55073"/>
            <trkpt lat="42.28471" lon="9.55072"/>
            <trkpt lat="42.28496" lon="9.55067"/>
            <trkpt lat="42.28509" lon="9.55062"/>
            <trkpt lat="42.28736" lon="9.54965"/>
            <trkpt lat="42.28838" lon="9.54923"/>
            <trkpt lat="42.28936" lon="9.5488"/>
            <trkpt lat="42.29166" lon="9.54782"/>
            <trkpt lat="42.29321" lon="9.54716"/>
            <trkpt lat="42.29403" lon="9.54681"/>
            <trkpt lat="42.29418" lon="9.54674"/>
            <trkpt lat="42.29476" lon="9.5465"/>
            <trkpt lat="42.29532" lon="9.54625"/>
            <trkpt lat="42.29632" lon="9.54585"/>
            <trkpt lat="42.29695" lon="9.54565"/>
            <trkpt lat="42.29736" lon="9.54555"/>
            <trkpt lat="42.298" lon="9.54539"/>
            <trkpt lat="42.29819" lon="9.54534"/>
            <trkpt lat="42.29962" lon="9.54499"/>
            <trkpt lat="42.29992" lon="9.54491"/>
            <trkpt lat="42.3009" lon="9.54468"/>
            <trkpt lat="42.30226" lon="9.54435"/>
            <trkpt lat="42.30451" lon="9.54379"/>
            <trkpt lat="42.30522" lon="9.5436"/>
            <trkpt lat="42.30663" lon="9.54326"/>
            <trkpt lat="42.30805" lon="9.5429"/>
            <trkpt lat="42.30853" lon="9.54278"/>
            <trkpt lat="42.30919" lon="9.54261"/>
            <trkpt lat="42.30987" lon="9.54246"/>
            <trkpt lat="42.31084" lon="9.54223"/>
            <trkpt lat="42.31121" lon="9.54214"/>
            <trkpt lat="42.31167" lon="9.54202"/>
            <trkpt lat="42.31199" lon="9.54195"/>
            <trkpt lat="42.31257" lon="9.5418"/>
            <trkpt lat="42.31382" lon="9.54149"/>
            <trkpt lat="42.31506" lon="9.5412"/>
            <trkpt lat="42.31517" lon="9.54117"/>
            <trkpt lat="42.31609" lon="9.54095"/>
            <trkpt lat="42.31651" lon="9.54085"/>
            <trkpt lat="42.31685" lon="9.54076"/>
            <trkpt lat="42.31761" lon="9.54057"/>
            <trkpt lat="42.31784" lon="9.54057"/>
            <trkpt lat="42.31934" lon="9.54026"/>
            <trkpt lat="42.31958" lon="9.54021"/>
            <trkpt lat="42.3196" lon="9.54025"/>
            <trkpt lat="42.31963" lon="9.54027"/>
            <trkpt lat="42.31966" lon="9.54027"/>
            <trkpt lat="42.31968" lon="9.54027"/>
            <trkpt lat="42.3197" lon="9.54026"/>
            <trkpt lat="42.31973" lon="9.54023"/>
            <trkpt lat="42.31975" lon="9.54017"/>
            <trkpt lat="42.31975" lon="9.54011"/>
            <trkpt lat="42.31975" lon="9.54006"/>
            <trkpt lat="42.31974" lon="9.54003"/>
            <trkpt lat="42.31972" lon="9.54"/>
            <trkpt lat="42.3197" lon="9.53997"/>
            <trkpt lat="42.31967" lon="9.53996"/>
            <trkpt lat="42.31964" lon="9.53996"/>
            <trkpt lat="42.31962" lon="9.53974"/>
            <trkpt lat="42.31963" lon="9.53945"/>
            <trkpt lat="42.31964" lon="9.53934"/>
            <trkpt lat="42.31966" lon="9.53911"/>
            <trkpt lat="42.3197" lon="9.5386"/>
            <trkpt lat="42.31977" lon="9.5377"/>
            <trkpt lat="42.31978" lon="9.53759"/>
            <trkpt lat="42.31981" lon="9.53717"/>
            <trkpt lat="42.31982" lon="9.53709"/>
            <trkpt lat="42.31989" lon="9.53613"/>
            <trkpt lat="42.31995" lon="9.53545"/>
            <trkpt lat="42.31998" lon="9.53514"/>
            <trkpt lat="42.32003" lon="9.53454"/>
            <trkpt lat="42.32012" lon="9.53337"/>
            <trkpt lat="42.32019" lon="9.53224"/>
            <trkpt lat="42.3202" lon="9.53203"/>
            <trkpt lat="42.32033" lon="9.53139"/>
            <trkpt lat="42.32041" lon="9.53101"/>
            <trkpt lat="42.32073" lon="9.52973"/>
            <trkpt lat="42.32077" lon="9.52951"/>
            <trkpt lat="42.32078" lon="9.52938"/>
            <trkpt lat="42.32077" lon="9.52827"/>
            <trkpt lat="42.32071" lon="9.52781"/>
            <trkpt lat="42.32059" lon="9.52691"/>
            <trkpt lat="42.32057" lon="9.52651"/>
            <trkpt lat="42.32057" lon="9.52624"/>
            <trkpt lat="42.32059" lon="9.52606"/>
            <trkpt lat="42.32076" lon="9.52566"/>
            <trkpt lat="42.32083" lon="9.52548"/>
            <trkpt lat="42.32084" lon="9.52541"/>
            <trkpt lat="42.32088" lon="9.5249"/>
            <trkpt lat="42.32092" lon="9.5246"/>
            <trkpt lat="42.32098" lon="9.52432"/>
            <trkpt lat="42.32109" lon="9.5239"/>
            <trkpt lat="42.32114" lon="9.52369"/>
            <trkpt lat="42.32125" lon="9.52319"/>
            <trkpt lat="42.32132" lon="9.52257"/>
            <trkpt lat="42.32136" lon="9.52218"/>
            <trkpt lat="42.32139" lon="9.52201"/>
            <trkpt lat="42.32149" lon="9.52174"/>
            <trkpt lat="42.32152" lon="9.52167"/>
            <trkpt lat="42.32156" lon="9.52151"/>
            <trkpt lat="42.32157" lon="9.52132"/>
            <trkpt lat="42.32155" lon="9.52102"/>
            <trkpt lat="42.32149" lon="9.5207"/>
            <trkpt lat="42.32149" lon="9.52067"/>
            <trkpt lat="42.32147" lon="9.52044"/>
            <trkpt lat="42.32149" lon="9.52025"/>
            <trkpt lat="42.32154" lon="9.52003"/>
            <trkpt lat="42.32167" lon="9.51966"/>
            <trkpt lat="42.32205" lon="9.51851"/>
            <trkpt lat="42.32209" lon="9.51831"/>
            <trkpt lat="42.3221" lon="9.51808"/>
            <trkpt lat="42.32209" lon="9.51788"/>
            <trkpt lat="42.32193" lon="9.51728"/>
            <trkpt lat="42.32191" lon="9.51699"/>
            <trkpt lat="42.32193" lon="9.51688"/>
            <trkpt lat="42.32204" lon="9.51668"/>
            <trkpt lat="42.32219" lon="9.51642"/>
            <trkpt lat="42.32245" lon="9.51606"/>
            <trkpt lat="42.32257" lon="9.51587"/>
            <trkpt lat="42.32263" lon="9.51572"/>
            <trkpt lat="42.32266" lon="9.51554"/>
            <trkpt lat="42.32269" lon="9.51529"/>
            <trkpt lat="42.32269" lon="9.51501"/>
            <trkpt lat="42.32264" lon="9.51462"/>
            <trkpt lat="42.32265" lon="9.51451"/>
            <trkpt lat="42.32266" lon="9.51445"/>
            <trkpt lat="42.32268" lon="9.51439"/>
            <trkpt lat="42.32279" lon="9.51416"/>
            <trkpt lat="42.32283" lon="9.51408"/>
            <trkpt lat="42.32312" lon="9.51352"/>
            <trkpt lat="42.32317" lon="9.51337"/>
            <trkpt lat="42.3232" lon="9.51325"/>
            <trkpt lat="42.32321" lon="9.5131"/>
            <trkpt lat="42.3232" lon="9.51297"/>
            <trkpt lat="42.32319" lon="9.5129"/>
            <trkpt lat="42.3231" lon="9.51275"/>
            <trkpt lat="42.32305" lon="9.5127"/>
            <trkpt lat="42.32273" lon="9.51255"/>
            <trkpt lat="42.32256" lon="9.51244"/>
            <trkpt lat="42.32251" lon="9.51238"/>
            <trkpt lat="42.32245" lon="9.51229"/>
            <trkpt lat="42.32241" lon="9.51221"/>
            <trkpt lat="42.32239" lon="9.51209"/>
            <trkpt lat="42.32241" lon="9.51179"/>
            <trkpt lat="42.32244" lon="9.51171"/>
            <trkpt lat="42.3225" lon="9.51164"/>
            <trkpt lat="42.32258" lon="9.51157"/>
            <trkpt lat="42.32272" lon="9.51146"/>
            <trkpt lat="42.32279" lon="9.51139"/>
            <trkpt lat="42.32284" lon="9.5113"/>
            <trkpt lat="42.32286" lon="9.5112"/>
            <trkpt lat="42.32287" lon="9.51108"/>
            <trkpt lat="42.32286" lon="9.51095"/>
            <trkpt lat="42.32284" lon="9.51086"/>
            <trkpt lat="42.32281" lon="9.51072"/>
            <trkpt lat="42.32266" lon="9.51021"/>
            <trkpt lat="42.32251" lon="9.50964"/>
            <trkpt lat="42.32237" lon="9.50903"/>
            <trkpt lat="42.32235" lon="9.50889"/>
            <trkpt lat="42.32235" lon="9.50876"/>
            <trkpt lat="42.32237" lon="9.50863"/>
            <trkpt lat="42.3224" lon="9.50853"/>
            <trkpt lat="42.32253" lon="9.50827"/>
            <trkpt lat="42.32261" lon="9.50806"/>
            <trkpt lat="42.32262" lon="9.50795"/>
            <trkpt lat="42.32262" lon="9.50782"/>
            <trkpt lat="42.32259" lon="9.5077"/>
            <trkpt lat="42.32253" lon="9.50759"/>
            <trkpt lat="42.32247" lon="9.50751"/>
            <trkpt lat="42.32234" lon="9.50741"/>
            <trkpt lat="42.32204" lon="9.50725"/>
            <trkpt lat="42.32192" lon="9.50713"/>
            <trkpt lat="42.32186" lon="9.50705"/>
            <trkpt lat="42.32182" lon="9.50695"/>
            <trkpt lat="42.3218" lon="9.50688"/>
            <trkpt lat="42.3218" lon="9.50677"/>
            <trkpt lat="42.32181" lon="9.50665"/>
            <trkpt lat="42.32187" lon="9.50652"/>
            <trkpt lat="42.32198" lon="9.50639"/>
            <trkpt lat="42.3221" lon="9.50627"/>
            <trkpt lat="42.32221" lon="9.5062"/>
            <trkpt lat="42.32272" lon="9.50605"/>
            <trkpt lat="42.32282" lon="9.50599"/>
            <trkpt lat="42.32289" lon="9.50592"/>
            <trkpt lat="42.32294" lon="9.50584"/>
            <trkpt lat="42.32299" lon="9.50574"/>
            <trkpt lat="42.32301" lon="9.50564"/>
            <trkpt lat="42.32304" lon="9.50542"/>
            <trkpt lat="42.32305" lon="9.50521"/>
            <trkpt lat="42.32308" lon="9.50505"/>
            <trkpt lat="42.32313" lon="9.5049"/>
            <trkpt lat="42.32323" lon="9.5047"/>
            <trkpt lat="42.32345" lon="9.50434"/>
            <trkpt lat="42.32356" lon="9.50423"/>
            <trkpt lat="42.32368" lon="9.50415"/>
            <trkpt lat="42.32376" lon="9.50412"/>
            <trkpt lat="42.32387" lon="9.50411"/>
            <trkpt lat="42.32399" lon="9.50413"/>
            <trkpt lat="42.32428" lon="9.50413"/>
            <trkpt lat="42.32438" lon="9.50409"/>
            <trkpt lat="42.32449" lon="9.504"/>
            <trkpt lat="42.32459" lon="9.50388"/>
            <trkpt lat="42.32469" lon="9.50375"/>
            <trkpt lat="42.32479" lon="9.50358"/>
            <trkpt lat="42.32498" lon="9.50318"/>
            <trkpt lat="42.32527" lon="9.50265"/>
            <trkpt lat="42.32548" lon="9.50238"/>
            <trkpt lat="42.32558" lon="9.50227"/>
            <trkpt lat="42.32571" lon="9.50216"/>
            <trkpt lat="42.32588" lon="9.50204"/>
            <trkpt lat="42.32617" lon="9.50191"/>
            <trkpt lat="42.32632" lon="9.50186"/>
            <trkpt lat="42.32648" lon="9.50182"/>
            <trkpt lat="42.3266" lon="9.50182"/>
            <trkpt lat="42.32692" lon="9.50184"/>
            <trkpt lat="42.3273" lon="9.50192"/>
            <trkpt lat="42.32764" lon="9.50197"/>
            <trkpt lat="42.32773" lon="9.50196"/>
            <trkpt lat="42.32787" lon="9.5019"/>
            <trkpt lat="42.32795" lon="9.50182"/>
            <trkpt lat="42.328" lon="9.50172"/>
            <trkpt lat="42.32804" lon="9.50163"/>
            <trkpt lat="42.32807" lon="9.50149"/>
            <trkpt lat="42.32814" lon="9.50073"/>
            <trkpt lat="42.32817" lon="9.50052"/>
            <trkpt lat="42.32819" lon="9.50044"/>
            <trkpt lat="42.32827" lon="9.50003"/>
            <trkpt lat="42.32855" lon="9.49878"/>
            <trkpt lat="42.32883" lon="9.49744"/>
            <trkpt lat="42.3289" lon="9.49711"/>
            <trkpt lat="42.32901" lon="9.49664"/>
            <trkpt lat="42.32922" lon="9.49577"/>
            <trkpt lat="42.32922" lon="9.4955"/>
            <trkpt lat="42.32919" lon="9.49535"/>
            <trkpt lat="42.32916" lon="9.49503"/>
            <trkpt lat="42.32913" lon="9.49442"/>
            <trkpt lat="42.32911" lon="9.49425"/>
            <trkpt lat="42.3291" lon="9.49414"/>
            <trkpt lat="42.3291" lon="9.49408"/>
            <trkpt lat="42.32911" lon="9.49405"/>
            <trkpt lat="42.32912" lon="9.49402"/>
            <trkpt lat="42.32914" lon="9.49402"/>
            <trkpt lat="42.32916" lon="9.49401"/>
            <trkpt lat="42.32918" lon="9.49401"/>
            <trkpt lat="42.32921" lon="9.49401"/>
            <trkpt lat="42.32923" lon="9.49403"/>
            <trkpt lat="42.32924" lon="9.49407"/>
            <trkpt lat="42.32927" lon="9.49481"/>
            <trkpt lat="42.3293" lon="9.49506"/>
            <trkpt lat="42.32936" lon="9.49517"/>
            <trkpt lat="42.32943" lon="9.49524"/>
            <trkpt lat="42.3296" lon="9.49537"/>
            <trkpt lat="42.32978" lon="9.49557"/>
            <trkpt lat="42.32986" lon="9.49561"/>
            <trkpt lat="42.32997" lon="9.49565"/>
            <trkpt lat="42.33043" lon="9.4956"/>
            <trkpt lat="42.33076" lon="9.49551"/>
            <trkpt lat="42.33085" lon="9.49549"/>
            <trkpt lat="42.33144" lon="9.49526"/>
            <trkpt lat="42.3318" lon="9.49504"/>
            <trkpt lat="42.33188" lon="9.49497"/>
            <trkpt lat="42.33196" lon="9.49492"/>
            <trkpt lat="42.33207" lon="9.49479"/>
            <trkpt lat="42.33231" lon="9.49449"/>
            <trkpt lat="42.33238" lon="9.49434"/>
            <trkpt lat="42.3325" lon="9.49418"/>
            <trkpt lat="42.33257" lon="9.49415"/>
            <trkpt lat="42.33294" lon="9.49411"/>
            <trkpt lat="42.33306" lon="9.49408"/>
            <trkpt lat="42.33313" lon="9.49409"/>
            <trkpt lat="42.33317" lon="9.49411"/>
            <trkpt lat="42.33323" lon="9.49414"/>
            <trkpt lat="42.33333" lon="9.49441"/>
            <trkpt lat="42.33339" lon="9.49448"/>
            <trkpt lat="42.33343" lon="9.49453"/>
            <trkpt lat="42.33349" lon="9.49458"/>
            <trkpt lat="42.33364" lon="9.49466"/>
            <trkpt lat="42.3337" lon="9.49467"/>
            <trkpt lat="42.33377" lon="9.49469"/>
            <trkpt lat="42.33385" lon="9.49468"/>
            <trkpt lat="42.33467" lon="9.49452"/>
            <trkpt lat="42.33489" lon="9.49445"/>
            <trkpt lat="42.33506" lon="9.49437"/>
            <trkpt lat="42.33527" lon="9.49424"/>
            <trkpt lat="42.33544" lon="9.49411"/>
            <trkpt lat="42.33546" lon="9.49403"/>
            <trkpt lat="42.33547" lon="9.49395"/>
            <trkpt lat="42.33543" lon="9.49388"/>
            <trkpt lat="42.33538" lon="9.49385"/>
            <trkpt lat="42.33527" lon="9.49381"/>
            <trkpt lat="42.33504" lon="9.49382"/>
            <trkpt lat="42.3346" lon="9.49391"/>
            <trkpt lat="42.33451" lon="9.49391"/>
            <trkpt lat="42.33441" lon="9.49388"/>
            <trkpt lat="42.33405" lon="9.49366"/>
            <trkpt lat="42.33397" lon="9.49359"/>
            <trkpt lat="42.3338" lon="9.49343"/>
            <trkpt lat="42.33374" lon="9.49335"/>
            <trkpt lat="42.33372" lon="9.49331"/>
            <trkpt lat="42.33368" lon="9.49322"/>
            <trkpt lat="42.33366" lon="9.49312"/>
            <trkpt lat="42.33365" lon="9.493"/>
            <trkpt lat="42.33364" lon="9.49292"/>
            <trkpt lat="42.33364" lon="9.49275"/>
            <trkpt lat="42.33362" lon="9.49267"/>
            <trkpt lat="42.3336" lon="9.49262"/>
            <trkpt lat="42.33356" lon="9.49258"/>
            <trkpt lat="42.3335" lon="9.49258"/>
            <trkpt lat="42.33333" lon="9.49265"/>
            <trkpt lat="42.33308" lon="9.49281"/>
            <trkpt lat="42.33306" lon="9.49282"/>
            <trkpt lat="42.33298" lon="9.49283"/>
            <trkpt lat="42.33266" lon="9.49283"/>
            <trkpt lat="42.33218" lon="9.49277"/>
            <trkpt lat="42.33194" lon="9.49274"/>
            <trkpt lat="42.33162" lon="9.49269"/>
            <trkpt lat="42.33151" lon="9.49271"/>
            <trkpt lat="42.33149" lon="9.49272"/>
            <trkpt lat="42.33124" lon="9.49286"/>
            <trkpt lat="42.33118" lon="9.49288"/>
            <trkpt lat="42.33101" lon="9.49289"/>
            <trkpt lat="42.33096" lon="9.49288"/>
            <trkpt lat="42.3309" lon="9.49287"/>
            <trkpt lat="42.33088" lon="9.49285"/>
            <trkpt lat="42.33087" lon="9.49283"/>
            <trkpt lat="42.33084" lon="9.49269"/>
            <trkpt lat="42.33083" lon="9.49262"/>
            <trkpt lat="42.33082" lon="9.49251"/>
            <trkpt lat="42.33081" lon="9.49242"/>
            <trkpt lat="42.33081" lon="9.49238"/>
            <trkpt lat="42.33083" lon="9.49219"/>
            <trkpt lat="42.33088" lon="9.49171"/>
        </trkseg>
    </trk>
</gpx>
