<?xml version="1.0" encoding="UTF-8" standalone="yes"?>
<gpx xmlns="http://www.topografix.com/GPX/1/1" xmlns:tt="TT" version="1.1" creator="TomTom MyDrive">
    <wpt lat="42.330793" lon="9.491696">
        <type>TT_HARD</type>
    </wpt>
    <wpt lat="42.345981" lon="9.496895">
        <type>TT_HARD</type>
    </wpt>
    <wpt lat="42.365682" lon="9.497205">
        <type>TT_HARD</type>
    </wpt>
    <wpt lat="42.374862" lon="9.531027">
        <type>TT_HARD</type>
    </wpt>
    <rte>
        <name>7 agosto</name>
        <rtept lat="42.330793" lon="9.491696">
            <type>TT_HARD</type>
        </rtept>
        <rtept lat="42.345981" lon="9.496895">
            <type>TT_HARD</type>
        </rtept>
        <rtept lat="42.365682" lon="9.497205">
            <type>TT_HARD</type>
        </rtept>
        <rtept lat="42.374862" lon="9.531027">
            <type>TT_HARD</type>
        </rtept>
    </rte>
    <trk>
        <name>7 agosto</name>
        <trkseg>
            <trkpt lat="42.33088" lon="9.49171"/>
            <trkpt lat="42.33083" lon="9.49219"/>
            <trkpt lat="42.33081" lon="9.49238"/>
            <trkpt lat="42.33081" lon="9.49242"/>
            <trkpt lat="42.33082" lon="9.49251"/>
            <trkpt lat="42.33083" lon="9.49262"/>
            <trkpt lat="42.33084" lon="9.49269"/>
            <trkpt lat="42.33087" lon="9.49283"/>
            <trkpt lat="42.33088" lon="9.49285"/>
            <trkpt lat="42.3309" lon="9.49287"/>
            <trkpt lat="42.33096" lon="9.49288"/>
            <trkpt lat="42.33101" lon="9.49289"/>
            <trkpt lat="42.33118" lon="9.49288"/>
            <trkpt lat="42.33124" lon="9.49286"/>
            <trkpt lat="42.33149" lon="9.49272"/>
            <trkpt lat="42.33151" lon="9.49271"/>
            <trkpt lat="42.33162" lon="9.49269"/>
            <trkpt lat="42.33194" lon="9.49274"/>
            <trkpt lat="42.33218" lon="9.49277"/>
            <trkpt lat="42.33266" lon="9.49283"/>
            <trkpt lat="42.33298" lon="9.49283"/>
            <trkpt lat="42.33306" lon="9.49282"/>
            <trkpt lat="42.33308" lon="9.49281"/>
            <trkpt lat="42.33333" lon="9.49265"/>
            <trkpt lat="42.3335" lon="9.49258"/>
            <trkpt lat="42.33356" lon="9.49258"/>
            <trkpt lat="42.3336" lon="9.49262"/>
            <trkpt lat="42.33362" lon="9.49267"/>
            <trkpt lat="42.33364" lon="9.49275"/>
            <trkpt lat="42.33364" lon="9.49292"/>
            <trkpt lat="42.33365" lon="9.493"/>
            <trkpt lat="42.33366" lon="9.49312"/>
            <trkpt lat="42.33368" lon="9.49322"/>
            <trkpt lat="42.33372" lon="9.49331"/>
            <trkpt lat="42.33374" lon="9.49335"/>
            <trkpt lat="42.3338" lon="9.49343"/>
            <trkpt lat="42.33397" lon="9.49359"/>
            <trkpt lat="42.33405" lon="9.49366"/>
            <trkpt lat="42.33441" lon="9.49388"/>
            <trkpt lat="42.33451" lon="9.49391"/>
            <trkpt lat="42.3346" lon="9.49391"/>
            <trkpt lat="42.33504" lon="9.49382"/>
            <trkpt lat="42.33527" lon="9.49381"/>
            <trkpt lat="42.33538" lon="9.49385"/>
            <trkpt lat="42.33543" lon="9.49388"/>
            <trkpt lat="42.33547" lon="9.49395"/>
            <trkpt lat="42.33561" lon="9.49399"/>
            <trkpt lat="42.33565" lon="9.49401"/>
            <trkpt lat="42.33593" lon="9.49412"/>
            <trkpt lat="42.33606" lon="9.49417"/>
            <trkpt lat="42.33617" lon="9.49419"/>
            <trkpt lat="42.33624" lon="9.49418"/>
            <trkpt lat="42.33644" lon="9.49401"/>
            <trkpt lat="42.33649" lon="9.49399"/>
            <trkpt lat="42.3367" lon="9.49386"/>
            <trkpt lat="42.33677" lon="9.49386"/>
            <trkpt lat="42.33683" lon="9.49391"/>
            <trkpt lat="42.3369" lon="9.49401"/>
            <trkpt lat="42.33716" lon="9.49462"/>
            <trkpt lat="42.33727" lon="9.49478"/>
            <trkpt lat="42.33743" lon="9.49496"/>
            <trkpt lat="42.33755" lon="9.49504"/>
            <trkpt lat="42.33769" lon="9.49508"/>
            <trkpt lat="42.33787" lon="9.49508"/>
            <trkpt lat="42.338" lon="9.49507"/>
            <trkpt lat="42.33819" lon="9.49495"/>
            <trkpt lat="42.33836" lon="9.49482"/>
            <trkpt lat="42.33899" lon="9.49458"/>
            <trkpt lat="42.33921" lon="9.49416"/>
            <trkpt lat="42.33927" lon="9.49408"/>
            <trkpt lat="42.33933" lon="9.49405"/>
            <trkpt lat="42.33942" lon="9.49404"/>
            <trkpt lat="42.3395" lon="9.49408"/>
            <trkpt lat="42.33964" lon="9.49424"/>
            <trkpt lat="42.33974" lon="9.4943"/>
            <trkpt lat="42.33978" lon="9.49426"/>
            <trkpt lat="42.33982" lon="9.49419"/>
            <trkpt lat="42.33985" lon="9.49402"/>
            <trkpt lat="42.33993" lon="9.49379"/>
            <trkpt lat="42.33999" lon="9.49372"/>
            <trkpt lat="42.34006" lon="9.49373"/>
            <trkpt lat="42.34013" lon="9.49377"/>
            <trkpt lat="42.34025" lon="9.49394"/>
            <trkpt lat="42.34045" lon="9.4943"/>
            <trkpt lat="42.34056" lon="9.49445"/>
            <trkpt lat="42.3408" lon="9.49465"/>
            <trkpt lat="42.34093" lon="9.49469"/>
            <trkpt lat="42.34107" lon="9.4947"/>
            <trkpt lat="42.34131" lon="9.49469"/>
            <trkpt lat="42.34136" lon="9.49468"/>
            <trkpt lat="42.34154" lon="9.49469"/>
            <trkpt lat="42.34167" lon="9.49465"/>
            <trkpt lat="42.34187" lon="9.49461"/>
            <trkpt lat="42.34196" lon="9.49464"/>
            <trkpt lat="42.34215" lon="9.49476"/>
            <trkpt lat="42.34231" lon="9.49479"/>
            <trkpt lat="42.34244" lon="9.49483"/>
            <trkpt lat="42.34321" lon="9.49502"/>
            <trkpt lat="42.34369" lon="9.49501"/>
            <trkpt lat="42.34405" lon="9.49506"/>
            <trkpt lat="42.34423" lon="9.49512"/>
            <trkpt lat="42.3445" lon="9.49523"/>
            <trkpt lat="42.34469" lon="9.49524"/>
            <trkpt lat="42.34491" lon="9.49526"/>
            <trkpt lat="42.34499" lon="9.49531"/>
            <trkpt lat="42.34515" lon="9.49553"/>
            <trkpt lat="42.3452" lon="9.49563"/>
            <trkpt lat="42.34525" lon="9.49572"/>
            <trkpt lat="42.3453" lon="9.49582"/>
            <trkpt lat="42.34536" lon="9.49595"/>
            <trkpt lat="42.34542" lon="9.49622"/>
            <trkpt lat="42.34544" lon="9.49633"/>
            <trkpt lat="42.34546" lon="9.49651"/>
            <trkpt lat="42.34551" lon="9.49668"/>
            <trkpt lat="42.34554" lon="9.49675"/>
            <trkpt lat="42.3456" lon="9.49683"/>
            <trkpt lat="42.34568" lon="9.49688"/>
            <trkpt lat="42.34574" lon="9.4969"/>
            <trkpt lat="42.34587" lon="9.4969"/>
            <trkpt lat="42.34598" lon="9.49686"/>
            <trkpt lat="42.34598" lon="9.49686"/>
            <trkpt lat="42.34606" lon="9.49683"/>
            <trkpt lat="42.34617" lon="9.49672"/>
            <trkpt lat="42.34629" lon="9.49643"/>
            <trkpt lat="42.34633" lon="9.49631"/>
            <trkpt lat="42.34654" lon="9.49592"/>
            <trkpt lat="42.34704" lon="9.49522"/>
            <trkpt lat="42.34726" lon="9.49493"/>
            <trkpt lat="42.34739" lon="9.49483"/>
            <trkpt lat="42.34763" lon="9.49471"/>
            <trkpt lat="42.34769" lon="9.49468"/>
            <trkpt lat="42.34775" lon="9.49468"/>
            <trkpt lat="42.34782" lon="9.49469"/>
            <trkpt lat="42.34786" lon="9.49471"/>
            <trkpt lat="42.34789" lon="9.49474"/>
            <trkpt lat="42.34791" lon="9.49476"/>
            <trkpt lat="42.348" lon="9.49499"/>
            <trkpt lat="42.34804" lon="9.49512"/>
            <trkpt lat="42.34811" lon="9.4956"/>
            <trkpt lat="42.34814" lon="9.49569"/>
            <trkpt lat="42.34818" lon="9.49575"/>
            <trkpt lat="42.34827" lon="9.49583"/>
            <trkpt lat="42.34864" lon="9.49597"/>
            <trkpt lat="42.34904" lon="9.49605"/>
            <trkpt lat="42.34938" lon="9.49613"/>
            <trkpt lat="42.34982" lon="9.49633"/>
            <trkpt lat="42.34998" lon="9.49636"/>
            <trkpt lat="42.35012" lon="9.49636"/>
            <trkpt lat="42.3503" lon="9.49633"/>
            <trkpt lat="42.35065" lon="9.49627"/>
            <trkpt lat="42.35099" lon="9.49631"/>
            <trkpt lat="42.35111" lon="9.49629"/>
            <trkpt lat="42.35152" lon="9.4961"/>
            <trkpt lat="42.35187" lon="9.49598"/>
            <trkpt lat="42.35194" lon="9.49592"/>
            <trkpt lat="42.35211" lon="9.49569"/>
            <trkpt lat="42.35219" lon="9.4956"/>
            <trkpt lat="42.35226" lon="9.49556"/>
            <trkpt lat="42.35257" lon="9.49551"/>
            <trkpt lat="42.35262" lon="9.49546"/>
            <trkpt lat="42.35289" lon="9.49502"/>
            <trkpt lat="42.35299" lon="9.49486"/>
            <trkpt lat="42.35314" lon="9.49473"/>
            <trkpt lat="42.3532" lon="9.4947"/>
            <trkpt lat="42.35327" lon="9.49468"/>
            <trkpt lat="42.35334" lon="9.49469"/>
            <trkpt lat="42.35341" lon="9.49472"/>
            <trkpt lat="42.35348" lon="9.49477"/>
            <trkpt lat="42.35358" lon="9.49489"/>
            <trkpt lat="42.35374" lon="9.49533"/>
            <trkpt lat="42.35379" lon="9.49539"/>
            <trkpt lat="42.35385" lon="9.49543"/>
            <trkpt lat="42.35388" lon="9.49544"/>
            <trkpt lat="42.35404" lon="9.49538"/>
            <trkpt lat="42.3542" lon="9.49529"/>
            <trkpt lat="42.35427" lon="9.49526"/>
            <trkpt lat="42.35435" lon="9.49526"/>
            <trkpt lat="42.3544" lon="9.49527"/>
            <trkpt lat="42.35447" lon="9.4953"/>
            <trkpt lat="42.35462" lon="9.49541"/>
            <trkpt lat="42.35475" lon="9.49555"/>
            <trkpt lat="42.35485" lon="9.49562"/>
            <trkpt lat="42.35497" lon="9.49569"/>
            <trkpt lat="42.35508" lon="9.49571"/>
            <trkpt lat="42.35575" lon="9.49594"/>
            <trkpt lat="42.35592" lon="9.49598"/>
            <trkpt lat="42.35609" lon="9.496"/>
            <trkpt lat="42.35644" lon="9.49591"/>
            <trkpt lat="42.35696" lon="9.49572"/>
            <trkpt lat="42.35703" lon="9.49572"/>
            <trkpt lat="42.35723" lon="9.49573"/>
            <trkpt lat="42.3573" lon="9.49572"/>
            <trkpt lat="42.35737" lon="9.49569"/>
            <trkpt lat="42.35744" lon="9.49562"/>
            <trkpt lat="42.35763" lon="9.49536"/>
            <trkpt lat="42.35777" lon="9.49524"/>
            <trkpt lat="42.35793" lon="9.49518"/>
            <trkpt lat="42.35797" lon="9.49518"/>
            <trkpt lat="42.35802" lon="9.49519"/>
            <trkpt lat="42.35817" lon="9.49528"/>
            <trkpt lat="42.35821" lon="9.49533"/>
            <trkpt lat="42.35825" lon="9.49536"/>
            <trkpt lat="42.35828" lon="9.49537"/>
            <trkpt lat="42.35832" lon="9.49538"/>
            <trkpt lat="42.35835" lon="9.49538"/>
            <trkpt lat="42.35838" lon="9.49536"/>
            <trkpt lat="42.35855" lon="9.4952"/>
            <trkpt lat="42.35858" lon="9.49519"/>
            <trkpt lat="42.35861" lon="9.4952"/>
            <trkpt lat="42.35864" lon="9.49521"/>
            <trkpt lat="42.3587" lon="9.49525"/>
            <trkpt lat="42.35898" lon="9.49547"/>
            <trkpt lat="42.35932" lon="9.49567"/>
            <trkpt lat="42.35946" lon="9.49571"/>
            <trkpt lat="42.35958" lon="9.49573"/>
            <trkpt lat="42.35961" lon="9.49573"/>
            <trkpt lat="42.35964" lon="9.49571"/>
            <trkpt lat="42.3597" lon="9.49566"/>
            <trkpt lat="42.35974" lon="9.49558"/>
            <trkpt lat="42.35979" lon="9.49541"/>
            <trkpt lat="42.36016" lon="9.49391"/>
            <trkpt lat="42.36034" lon="9.49335"/>
            <trkpt lat="42.36064" lon="9.49251"/>
            <trkpt lat="42.3607" lon="9.49239"/>
            <trkpt lat="42.36076" lon="9.49231"/>
            <trkpt lat="42.36079" lon="9.49227"/>
            <trkpt lat="42.3609" lon="9.4922"/>
            <trkpt lat="42.36093" lon="9.49219"/>
            <trkpt lat="42.36095" lon="9.49217"/>
            <trkpt lat="42.3615" lon="9.49196"/>
            <trkpt lat="42.36157" lon="9.49194"/>
            <trkpt lat="42.36165" lon="9.49192"/>
            <trkpt lat="42.36173" lon="9.49192"/>
            <trkpt lat="42.36184" lon="9.49194"/>
            <trkpt lat="42.36195" lon="9.49201"/>
            <trkpt lat="42.36202" lon="9.49209"/>
            <trkpt lat="42.36205" lon="9.49219"/>
            <trkpt lat="42.36213" lon="9.49241"/>
            <trkpt lat="42.36214" lon="9.49266"/>
            <trkpt lat="42.3621" lon="9.49282"/>
            <trkpt lat="42.36208" lon="9.49293"/>
            <trkpt lat="42.36211" lon="9.49308"/>
            <trkpt lat="42.3625" lon="9.49384"/>
            <trkpt lat="42.36252" lon="9.49396"/>
            <trkpt lat="42.36252" lon="9.49407"/>
            <trkpt lat="42.36244" lon="9.49449"/>
            <trkpt lat="42.36244" lon="9.49463"/>
            <trkpt lat="42.36253" lon="9.4951"/>
            <trkpt lat="42.36258" lon="9.49528"/>
            <trkpt lat="42.36257" lon="9.49546"/>
            <trkpt lat="42.36258" lon="9.49565"/>
            <trkpt lat="42.36261" lon="9.49577"/>
            <trkpt lat="42.36273" lon="9.4962"/>
            <trkpt lat="42.3628" lon="9.49648"/>
            <trkpt lat="42.36286" lon="9.49684"/>
            <trkpt lat="42.36289" lon="9.49692"/>
            <trkpt lat="42.36292" lon="9.49697"/>
            <trkpt lat="42.36298" lon="9.49699"/>
            <trkpt lat="42.36305" lon="9.497"/>
            <trkpt lat="42.36322" lon="9.49698"/>
            <trkpt lat="42.36328" lon="9.49696"/>
            <trkpt lat="42.36377" lon="9.49677"/>
            <trkpt lat="42.36393" lon="9.49669"/>
            <trkpt lat="42.36406" lon="9.49661"/>
            <trkpt lat="42.36419" lon="9.4965"/>
            <trkpt lat="42.36427" lon="9.49647"/>
            <trkpt lat="42.36434" lon="9.49646"/>
            <trkpt lat="42.36441" lon="9.49648"/>
            <trkpt lat="42.36457" lon="9.49655"/>
            <trkpt lat="42.36483" lon="9.49664"/>
            <trkpt lat="42.36503" lon="9.49666"/>
            <trkpt lat="42.36528" lon="9.49665"/>
            <trkpt lat="42.36542" lon="9.49662"/>
            <trkpt lat="42.3655" lon="9.49658"/>
            <trkpt lat="42.36563" lon="9.49646"/>
            <trkpt lat="42.36577" lon="9.49676"/>
            <trkpt lat="42.36579" lon="9.4968"/>
            <trkpt lat="42.3658" lon="9.49683"/>
            <trkpt lat="42.3658" lon="9.49687"/>
            <trkpt lat="42.36579" lon="9.4969"/>
            <trkpt lat="42.36578" lon="9.49694"/>
            <trkpt lat="42.36578" lon="9.49699"/>
            <trkpt lat="42.36579" lon="9.49704"/>
            <trkpt lat="42.36581" lon="9.49711"/>
            <trkpt lat="42.36581" lon="9.49716"/>
            <trkpt lat="42.36581" lon="9.4972"/>
            <trkpt lat="42.36581" lon="9.4972"/>
            <trkpt lat="42.36581" lon="9.4972"/>
            <trkpt lat="42.36581" lon="9.4972"/>
            <trkpt lat="42.36581" lon="9.49716"/>
            <trkpt lat="42.36581" lon="9.49711"/>
            <trkpt lat="42.36579" lon="9.49704"/>
            <trkpt lat="42.36578" lon="9.49699"/>
            <trkpt lat="42.36578" lon="9.49694"/>
            <trkpt lat="42.36579" lon="9.4969"/>
            <trkpt lat="42.3658" lon="9.49687"/>
            <trkpt lat="42.3658" lon="9.49683"/>
            <trkpt lat="42.36579" lon="9.4968"/>
            <trkpt lat="42.36577" lon="9.49676"/>
            <trkpt lat="42.36563" lon="9.49646"/>
            <trkpt lat="42.36567" lon="9.49639"/>
            <trkpt lat="42.36571" lon="9.49629"/>
            <trkpt lat="42.36573" lon="9.49624"/>
            <trkpt lat="42.36583" lon="9.49604"/>
            <trkpt lat="42.36604" lon="9.49572"/>
            <trkpt lat="42.36649" lon="9.49527"/>
            <trkpt lat="42.36664" lon="9.4951"/>
            <trkpt lat="42.36679" lon="9.49487"/>
            <trkpt lat="42.36694" lon="9.4946"/>
            <trkpt lat="42.36697" lon="9.4945"/>
            <trkpt lat="42.36699" lon="9.49441"/>
            <trkpt lat="42.36699" lon="9.49429"/>
            <trkpt lat="42.36703" lon="9.49403"/>
            <trkpt lat="42.36706" lon="9.49395"/>
            <trkpt lat="42.36711" lon="9.49387"/>
            <trkpt lat="42.36741" lon="9.49361"/>
            <trkpt lat="42.36747" lon="9.49356"/>
            <trkpt lat="42.36757" lon="9.49345"/>
            <trkpt lat="42.36774" lon="9.4932"/>
            <trkpt lat="42.36774" lon="9.49323"/>
            <trkpt lat="42.36773" lon="9.49326"/>
            <trkpt lat="42.36772" lon="9.49327"/>
            <trkpt lat="42.36761" lon="9.49347"/>
            <trkpt lat="42.36729" lon="9.49398"/>
            <trkpt lat="42.36726" lon="9.49404"/>
            <trkpt lat="42.36723" lon="9.49409"/>
            <trkpt lat="42.36722" lon="9.49415"/>
            <trkpt lat="42.36722" lon="9.49418"/>
            <trkpt lat="42.36726" lon="9.49435"/>
            <trkpt lat="42.36726" lon="9.49442"/>
            <trkpt lat="42.36726" lon="9.49449"/>
            <trkpt lat="42.36725" lon="9.49455"/>
            <trkpt lat="42.36709" lon="9.49497"/>
            <trkpt lat="42.36706" lon="9.49504"/>
            <trkpt lat="42.36698" lon="9.49536"/>
            <trkpt lat="42.36696" lon="9.4954"/>
            <trkpt lat="42.36688" lon="9.49559"/>
            <trkpt lat="42.36684" lon="9.49565"/>
            <trkpt lat="42.36681" lon="9.4957"/>
            <trkpt lat="42.36672" lon="9.4958"/>
            <trkpt lat="42.36659" lon="9.49593"/>
            <trkpt lat="42.36655" lon="9.49599"/>
            <trkpt lat="42.3665" lon="9.49612"/>
            <trkpt lat="42.36647" lon="9.4962"/>
            <trkpt lat="42.36646" lon="9.49631"/>
            <trkpt lat="42.36647" lon="9.49639"/>
            <trkpt lat="42.3665" lon="9.49648"/>
            <trkpt lat="42.36669" lon="9.49704"/>
            <trkpt lat="42.36681" lon="9.49735"/>
            <trkpt lat="42.36683" lon="9.49739"/>
            <trkpt lat="42.36688" lon="9.49747"/>
            <trkpt lat="42.36693" lon="9.49753"/>
            <trkpt lat="42.36698" lon="9.4976"/>
            <trkpt lat="42.36703" lon="9.4977"/>
            <trkpt lat="42.36707" lon="9.49783"/>
            <trkpt lat="42.36709" lon="9.49787"/>
            <trkpt lat="42.36713" lon="9.49788"/>
            <trkpt lat="42.36718" lon="9.49787"/>
            <trkpt lat="42.36721" lon="9.49782"/>
            <trkpt lat="42.36722" lon="9.49775"/>
            <trkpt lat="42.36721" lon="9.49766"/>
            <trkpt lat="42.36717" lon="9.49753"/>
            <trkpt lat="42.36712" lon="9.4974"/>
            <trkpt lat="42.3671" lon="9.49735"/>
            <trkpt lat="42.36698" lon="9.49714"/>
            <trkpt lat="42.36689" lon="9.49694"/>
            <trkpt lat="42.36687" lon="9.49685"/>
            <trkpt lat="42.36687" lon="9.4968"/>
            <trkpt lat="42.36688" lon="9.49673"/>
            <trkpt lat="42.36693" lon="9.49653"/>
            <trkpt lat="42.36708" lon="9.49604"/>
            <trkpt lat="42.3671" lon="9.49601"/>
            <trkpt lat="42.36711" lon="9.49599"/>
            <trkpt lat="42.3673" lon="9.49581"/>
            <trkpt lat="42.36739" lon="9.49569"/>
            <trkpt lat="42.36743" lon="9.49562"/>
            <trkpt lat="42.3675" lon="9.49545"/>
            <trkpt lat="42.36758" lon="9.49527"/>
            <trkpt lat="42.3676" lon="9.49524"/>
            <trkpt lat="42.36764" lon="9.49522"/>
            <trkpt lat="42.36767" lon="9.49522"/>
            <trkpt lat="42.36771" lon="9.49524"/>
            <trkpt lat="42.36774" lon="9.4953"/>
            <trkpt lat="42.36775" lon="9.49537"/>
            <trkpt lat="42.36775" lon="9.49549"/>
            <trkpt lat="42.36773" lon="9.49562"/>
            <trkpt lat="42.36772" lon="9.49565"/>
            <trkpt lat="42.36769" lon="9.4957"/>
            <trkpt lat="42.36762" lon="9.49577"/>
            <trkpt lat="42.36759" lon="9.49582"/>
            <trkpt lat="42.36757" lon="9.49587"/>
            <trkpt lat="42.36756" lon="9.49591"/>
            <trkpt lat="42.36757" lon="9.49595"/>
            <trkpt lat="42.3676" lon="9.49605"/>
            <trkpt lat="42.36767" lon="9.49617"/>
            <trkpt lat="42.36784" lon="9.49639"/>
            <trkpt lat="42.36789" lon="9.49647"/>
            <trkpt lat="42.36793" lon="9.49656"/>
            <trkpt lat="42.36795" lon="9.49667"/>
            <trkpt lat="42.36796" lon="9.49676"/>
            <trkpt lat="42.36794" lon="9.49686"/>
            <trkpt lat="42.36791" lon="9.49697"/>
            <trkpt lat="42.3679" lon="9.49707"/>
            <trkpt lat="42.36791" lon="9.49717"/>
            <trkpt lat="42.368" lon="9.4975"/>
            <trkpt lat="42.36801" lon="9.49758"/>
            <trkpt lat="42.36804" lon="9.49806"/>
            <trkpt lat="42.3681" lon="9.49836"/>
            <trkpt lat="42.36811" lon="9.49843"/>
            <trkpt lat="42.36811" lon="9.49851"/>
            <trkpt lat="42.3681" lon="9.49859"/>
            <trkpt lat="42.36809" lon="9.49867"/>
            <trkpt lat="42.36807" lon="9.49871"/>
            <trkpt lat="42.36803" lon="9.49879"/>
            <trkpt lat="42.36791" lon="9.49895"/>
            <trkpt lat="42.36762" lon="9.49929"/>
            <trkpt lat="42.36756" lon="9.49933"/>
            <trkpt lat="42.36752" lon="9.49936"/>
            <trkpt lat="42.36739" lon="9.49939"/>
            <trkpt lat="42.36736" lon="9.49941"/>
            <trkpt lat="42.36734" lon="9.49942"/>
            <trkpt lat="42.36734" lon="9.49944"/>
            <trkpt lat="42.36733" lon="9.4995"/>
            <trkpt lat="42.36734" lon="9.49953"/>
            <trkpt lat="42.36735" lon="9.49956"/>
            <trkpt lat="42.36738" lon="9.49958"/>
            <trkpt lat="42.36742" lon="9.49959"/>
            <trkpt lat="42.36746" lon="9.49958"/>
            <trkpt lat="42.36753" lon="9.49954"/>
            <trkpt lat="42.36763" lon="9.49947"/>
            <trkpt lat="42.36773" lon="9.49941"/>
            <trkpt lat="42.36784" lon="9.49935"/>
            <trkpt lat="42.3679" lon="9.49932"/>
            <trkpt lat="42.36797" lon="9.49931"/>
            <trkpt lat="42.36804" lon="9.49931"/>
            <trkpt lat="42.3681" lon="9.49932"/>
            <trkpt lat="42.36816" lon="9.49934"/>
            <trkpt lat="42.36827" lon="9.49939"/>
            <trkpt lat="42.36842" lon="9.49952"/>
            <trkpt lat="42.3685" lon="9.49958"/>
            <trkpt lat="42.36854" lon="9.4996"/>
            <trkpt lat="42.36884" lon="9.49969"/>
            <trkpt lat="42.3689" lon="9.49971"/>
            <trkpt lat="42.36899" lon="9.49972"/>
            <trkpt lat="42.36906" lon="9.4997"/>
            <trkpt lat="42.3691" lon="9.49966"/>
            <trkpt lat="42.36925" lon="9.49953"/>
            <trkpt lat="42.36929" lon="9.4995"/>
            <trkpt lat="42.36935" lon="9.49946"/>
            <trkpt lat="42.36939" lon="9.49946"/>
            <trkpt lat="42.36943" lon="9.49947"/>
            <trkpt lat="42.36945" lon="9.4995"/>
            <trkpt lat="42.36947" lon="9.49954"/>
            <trkpt lat="42.36949" lon="9.49958"/>
            <trkpt lat="42.3695" lon="9.49963"/>
            <trkpt lat="42.36954" lon="9.49993"/>
            <trkpt lat="42.36957" lon="9.50003"/>
            <trkpt lat="42.3696" lon="9.5001"/>
            <trkpt lat="42.36962" lon="9.50015"/>
            <trkpt lat="42.36964" lon="9.50019"/>
            <trkpt lat="42.3698" lon="9.50038"/>
            <trkpt lat="42.36984" lon="9.50044"/>
            <trkpt lat="42.36986" lon="9.50051"/>
            <trkpt lat="42.36988" lon="9.50057"/>
            <trkpt lat="42.36992" lon="9.50082"/>
            <trkpt lat="42.36994" lon="9.50087"/>
            <trkpt lat="42.36996" lon="9.50091"/>
            <trkpt lat="42.36998" lon="9.50094"/>
            <trkpt lat="42.37001" lon="9.50097"/>
            <trkpt lat="42.37004" lon="9.50099"/>
            <trkpt lat="42.3701" lon="9.50101"/>
            <trkpt lat="42.37032" lon="9.50107"/>
            <trkpt lat="42.37043" lon="9.5011"/>
            <trkpt lat="42.37051" lon="9.5011"/>
            <trkpt lat="42.37057" lon="9.50108"/>
            <trkpt lat="42.37062" lon="9.50105"/>
            <trkpt lat="42.37068" lon="9.501"/>
            <trkpt lat="42.37075" lon="9.50094"/>
            <trkpt lat="42.3708" lon="9.50088"/>
            <trkpt lat="42.37084" lon="9.50083"/>
            <trkpt lat="42.37088" lon="9.50076"/>
            <trkpt lat="42.3709" lon="9.50071"/>
            <trkpt lat="42.37091" lon="9.50068"/>
            <trkpt lat="42.37092" lon="9.50063"/>
            <trkpt lat="42.37092" lon="9.50052"/>
            <trkpt lat="42.37091" lon="9.5004"/>
            <trkpt lat="42.3709" lon="9.50032"/>
            <trkpt lat="42.37091" lon="9.5003"/>
            <trkpt lat="42.37091" lon="9.50027"/>
            <trkpt lat="42.37093" lon="9.50025"/>
            <trkpt lat="42.37094" lon="9.50024"/>
            <trkpt lat="42.37097" lon="9.50024"/>
            <trkpt lat="42.371" lon="9.50024"/>
            <trkpt lat="42.37102" lon="9.50025"/>
            <trkpt lat="42.37104" lon="9.50028"/>
            <trkpt lat="42.37107" lon="9.50036"/>
            <trkpt lat="42.37108" lon="9.50042"/>
            <trkpt lat="42.37111" lon="9.50065"/>
            <trkpt lat="42.37109" lon="9.50081"/>
            <trkpt lat="42.37105" lon="9.50094"/>
            <trkpt lat="42.37101" lon="9.50104"/>
            <trkpt lat="42.37093" lon="9.50129"/>
            <trkpt lat="42.37088" lon="9.50147"/>
            <trkpt lat="42.37086" lon="9.50157"/>
            <trkpt lat="42.37085" lon="9.50167"/>
            <trkpt lat="42.37089" lon="9.50221"/>
            <trkpt lat="42.37088" lon="9.50234"/>
            <trkpt lat="42.37087" lon="9.50245"/>
            <trkpt lat="42.37085" lon="9.50252"/>
            <trkpt lat="42.37082" lon="9.5026"/>
            <trkpt lat="42.37079" lon="9.50265"/>
            <trkpt lat="42.37072" lon="9.50274"/>
            <trkpt lat="42.37069" lon="9.50277"/>
            <trkpt lat="42.3706" lon="9.50284"/>
            <trkpt lat="42.37056" lon="9.50288"/>
            <trkpt lat="42.37055" lon="9.50289"/>
            <trkpt lat="42.37053" lon="9.50291"/>
            <trkpt lat="42.37053" lon="9.50294"/>
            <trkpt lat="42.37052" lon="9.50296"/>
            <trkpt lat="42.37052" lon="9.50299"/>
            <trkpt lat="42.37052" lon="9.50301"/>
            <trkpt lat="42.37053" lon="9.50303"/>
            <trkpt lat="42.37054" lon="9.50306"/>
            <trkpt lat="42.37055" lon="9.50308"/>
            <trkpt lat="42.37056" lon="9.50309"/>
            <trkpt lat="42.37058" lon="9.5031"/>
            <trkpt lat="42.37061" lon="9.50311"/>
            <trkpt lat="42.37065" lon="9.50309"/>
            <trkpt lat="42.37069" lon="9.50307"/>
            <trkpt lat="42.37089" lon="9.50289"/>
            <trkpt lat="42.37093" lon="9.50286"/>
            <trkpt lat="42.37096" lon="9.50285"/>
            <trkpt lat="42.37102" lon="9.50284"/>
            <trkpt lat="42.37105" lon="9.50283"/>
            <trkpt lat="42.37111" lon="9.50285"/>
            <trkpt lat="42.37123" lon="9.50291"/>
            <trkpt lat="42.37126" lon="9.50293"/>
            <trkpt lat="42.37132" lon="9.50293"/>
            <trkpt lat="42.3714" lon="9.50291"/>
            <trkpt lat="42.37145" lon="9.50286"/>
            <trkpt lat="42.37168" lon="9.50248"/>
            <trkpt lat="42.37179" lon="9.50236"/>
            <trkpt lat="42.37204" lon="9.50218"/>
            <trkpt lat="42.37212" lon="9.50215"/>
            <trkpt lat="42.37218" lon="9.50215"/>
            <trkpt lat="42.37222" lon="9.50217"/>
            <trkpt lat="42.37225" lon="9.50221"/>
            <trkpt lat="42.37228" lon="9.50231"/>
            <trkpt lat="42.37228" lon="9.50243"/>
            <trkpt lat="42.37226" lon="9.5028"/>
            <trkpt lat="42.37226" lon="9.50313"/>
            <trkpt lat="42.37229" lon="9.50321"/>
            <trkpt lat="42.37234" lon="9.50326"/>
            <trkpt lat="42.37239" lon="9.50327"/>
            <trkpt lat="42.37243" lon="9.50325"/>
            <trkpt lat="42.37245" lon="9.50322"/>
            <trkpt lat="42.37248" lon="9.50316"/>
            <trkpt lat="42.37261" lon="9.50273"/>
            <trkpt lat="42.37283" lon="9.50189"/>
            <trkpt lat="42.37287" lon="9.5018"/>
            <trkpt lat="42.3729" lon="9.50175"/>
            <trkpt lat="42.37295" lon="9.50172"/>
            <trkpt lat="42.37298" lon="9.50171"/>
            <trkpt lat="42.37306" lon="9.50172"/>
            <trkpt lat="42.37308" lon="9.50174"/>
            <trkpt lat="42.37313" lon="9.50178"/>
            <trkpt lat="42.37323" lon="9.50192"/>
            <trkpt lat="42.3733" lon="9.50196"/>
            <trkpt lat="42.37335" lon="9.50197"/>
            <trkpt lat="42.37339" lon="9.50195"/>
            <trkpt lat="42.37351" lon="9.50183"/>
            <trkpt lat="42.37361" lon="9.50176"/>
            <trkpt lat="42.37367" lon="9.50174"/>
            <trkpt lat="42.37381" lon="9.50175"/>
            <trkpt lat="42.37424" lon="9.50191"/>
            <trkpt lat="42.37448" lon="9.50203"/>
            <trkpt lat="42.37497" lon="9.50221"/>
            <trkpt lat="42.37514" lon="9.50229"/>
            <trkpt lat="42.37531" lon="9.50241"/>
            <trkpt lat="42.37538" lon="9.50247"/>
            <trkpt lat="42.37544" lon="9.50252"/>
            <trkpt lat="42.3755" lon="9.50265"/>
            <trkpt lat="42.37552" lon="9.50272"/>
            <trkpt lat="42.37551" lon="9.50284"/>
            <trkpt lat="42.37549" lon="9.50291"/>
            <trkpt lat="42.37542" lon="9.50307"/>
            <trkpt lat="42.3754" lon="9.50316"/>
            <trkpt lat="42.37542" lon="9.50328"/>
            <trkpt lat="42.37547" lon="9.50341"/>
            <trkpt lat="42.37554" lon="9.50351"/>
            <trkpt lat="42.37559" lon="9.50357"/>
            <trkpt lat="42.37573" lon="9.50366"/>
            <trkpt lat="42.37592" lon="9.50384"/>
            <trkpt lat="42.37601" lon="9.50395"/>
            <trkpt lat="42.37607" lon="9.50412"/>
            <trkpt lat="42.37608" lon="9.5042"/>
            <trkpt lat="42.37608" lon="9.50437"/>
            <trkpt lat="42.37598" lon="9.50473"/>
            <trkpt lat="42.37594" lon="9.50488"/>
            <trkpt lat="42.37593" lon="9.50498"/>
            <trkpt lat="42.37613" lon="9.50559"/>
            <trkpt lat="42.37617" lon="9.50564"/>
            <trkpt lat="42.37623" lon="9.50568"/>
            <trkpt lat="42.3763" lon="9.50565"/>
            <trkpt lat="42.37673" lon="9.50512"/>
            <trkpt lat="42.37677" lon="9.50508"/>
            <trkpt lat="42.37685" lon="9.50504"/>
            <trkpt lat="42.37689" lon="9.50504"/>
            <trkpt lat="42.37697" lon="9.50505"/>
            <trkpt lat="42.37704" lon="9.50509"/>
            <trkpt lat="42.37711" lon="9.50516"/>
            <trkpt lat="42.37715" lon="9.50522"/>
            <trkpt lat="42.37725" lon="9.5054"/>
            <trkpt lat="42.37729" lon="9.50551"/>
            <trkpt lat="42.3773" lon="9.50558"/>
            <trkpt lat="42.37729" lon="9.50566"/>
            <trkpt lat="42.37725" lon="9.50575"/>
            <trkpt lat="42.37719" lon="9.50587"/>
            <trkpt lat="42.37716" lon="9.50595"/>
            <trkpt lat="42.37716" lon="9.50604"/>
            <trkpt lat="42.37717" lon="9.50609"/>
            <trkpt lat="42.37738" lon="9.50657"/>
            <trkpt lat="42.37745" lon="9.50663"/>
            <trkpt lat="42.37753" lon="9.50663"/>
            <trkpt lat="42.3776" lon="9.50661"/>
            <trkpt lat="42.37767" lon="9.50655"/>
            <trkpt lat="42.37782" lon="9.50633"/>
            <trkpt lat="42.37796" lon="9.50627"/>
            <trkpt lat="42.37804" lon="9.50626"/>
            <trkpt lat="42.37812" lon="9.50628"/>
            <trkpt lat="42.37816" lon="9.50632"/>
            <trkpt lat="42.37828" lon="9.50649"/>
            <trkpt lat="42.37839" lon="9.50674"/>
            <trkpt lat="42.37843" lon="9.5069"/>
            <trkpt lat="42.37841" lon="9.50709"/>
            <trkpt lat="42.37838" lon="9.50722"/>
            <trkpt lat="42.37815" lon="9.50764"/>
            <trkpt lat="42.37812" lon="9.50778"/>
            <trkpt lat="42.37815" lon="9.50789"/>
            <trkpt lat="42.3782" lon="9.50795"/>
            <trkpt lat="42.37827" lon="9.508"/>
            <trkpt lat="42.37834" lon="9.508"/>
            <trkpt lat="42.37869" lon="9.50777"/>
            <trkpt lat="42.37884" lon="9.50772"/>
            <trkpt lat="42.37894" lon="9.50772"/>
            <trkpt lat="42.379" lon="9.50776"/>
            <trkpt lat="42.37904" lon="9.50787"/>
            <trkpt lat="42.37906" lon="9.50803"/>
            <trkpt lat="42.37904" lon="9.50858"/>
            <trkpt lat="42.37901" lon="9.50884"/>
            <trkpt lat="42.37898" lon="9.50899"/>
            <trkpt lat="42.37893" lon="9.50911"/>
            <trkpt lat="42.37881" lon="9.50929"/>
            <trkpt lat="42.37875" lon="9.50941"/>
            <trkpt lat="42.37874" lon="9.50953"/>
            <trkpt lat="42.37876" lon="9.50968"/>
            <trkpt lat="42.37884" lon="9.50992"/>
            <trkpt lat="42.37887" lon="9.51035"/>
            <trkpt lat="42.37885" lon="9.51054"/>
            <trkpt lat="42.37873" lon="9.51124"/>
            <trkpt lat="42.3787" lon="9.51131"/>
            <trkpt lat="42.37848" lon="9.51155"/>
            <trkpt lat="42.3784" lon="9.51165"/>
            <trkpt lat="42.37833" lon="9.51176"/>
            <trkpt lat="42.37813" lon="9.51222"/>
            <trkpt lat="42.37805" lon="9.51244"/>
            <trkpt lat="42.37804" lon="9.51249"/>
            <trkpt lat="42.37796" lon="9.51287"/>
            <trkpt lat="42.37791" lon="9.5132"/>
            <trkpt lat="42.3778" lon="9.51396"/>
            <trkpt lat="42.3778" lon="9.51416"/>
            <trkpt lat="42.3778" lon="9.51432"/>
            <trkpt lat="42.3778" lon="9.51437"/>
            <trkpt lat="42.37781" lon="9.51476"/>
            <trkpt lat="42.37778" lon="9.51503"/>
            <trkpt lat="42.37773" lon="9.51527"/>
            <trkpt lat="42.37759" lon="9.51583"/>
            <trkpt lat="42.37753" lon="9.51599"/>
            <trkpt lat="42.3775" lon="9.51604"/>
            <trkpt lat="42.37746" lon="9.51609"/>
            <trkpt lat="42.3774" lon="9.51613"/>
            <trkpt lat="42.37729" lon="9.51617"/>
            <trkpt lat="42.37725" lon="9.51619"/>
            <trkpt lat="42.37698" lon="9.51625"/>
            <trkpt lat="42.37686" lon="9.51631"/>
            <trkpt lat="42.37679" lon="9.51639"/>
            <trkpt lat="42.37676" lon="9.51643"/>
            <trkpt lat="42.37674" lon="9.51648"/>
            <trkpt lat="42.3767" lon="9.51664"/>
            <trkpt lat="42.37669" lon="9.51697"/>
            <trkpt lat="42.37674" lon="9.51749"/>
            <trkpt lat="42.37679" lon="9.51778"/>
            <trkpt lat="42.37689" lon="9.51802"/>
            <trkpt lat="42.37729" lon="9.51873"/>
            <trkpt lat="42.37756" lon="9.51925"/>
            <trkpt lat="42.3776" lon="9.51935"/>
            <trkpt lat="42.37761" lon="9.5195"/>
            <trkpt lat="42.37761" lon="9.51955"/>
            <trkpt lat="42.3776" lon="9.51966"/>
            <trkpt lat="42.37757" lon="9.51976"/>
            <trkpt lat="42.37747" lon="9.52004"/>
            <trkpt lat="42.37743" lon="9.52014"/>
            <trkpt lat="42.37732" lon="9.52039"/>
            <trkpt lat="42.37695" lon="9.52121"/>
            <trkpt lat="42.37686" lon="9.52143"/>
            <trkpt lat="42.37663" lon="9.52194"/>
            <trkpt lat="42.37613" lon="9.52303"/>
            <trkpt lat="42.37601" lon="9.52327"/>
            <trkpt lat="42.37558" lon="9.52436"/>
            <trkpt lat="42.3753" lon="9.52496"/>
            <trkpt lat="42.37526" lon="9.52507"/>
            <trkpt lat="42.37509" lon="9.52564"/>
            <trkpt lat="42.37502" lon="9.52615"/>
            <trkpt lat="42.37496" lon="9.52719"/>
            <trkpt lat="42.37496" lon="9.52761"/>
            <trkpt lat="42.37492" lon="9.52841"/>
            <trkpt lat="42.37491" lon="9.52877"/>
            <trkpt lat="42.37491" lon="9.529"/>
            <trkpt lat="42.37491" lon="9.52907"/>
            <trkpt lat="42.37488" lon="9.52944"/>
            <trkpt lat="42.37487" lon="9.52994"/>
            <trkpt lat="42.37524" lon="9.52996"/>
            <trkpt lat="42.37564" lon="9.52997"/>
            <trkpt lat="42.37564" lon="9.53013"/>
            <trkpt lat="42.37563" lon="9.5305"/>
            <trkpt lat="42.37563" lon="9.53108"/>
            <trkpt lat="42.37503" lon="9.53104"/>
            <trkpt lat="42.37486" lon="9.53103"/>
        </trkseg>
    </trk>
</gpx>
